ProviderNumber,HospitalName,Address1,City,State,ZipCode,CountyName,PhoneNumber,HospitalType,HospitalOwner,EmergencyService,MeasureCode
10018,CALLAHAN EYE FOUNDATION HOSPITAL,1720 UNIVERSITY BLVD,BIRMINGHAM,AL,35233,JEFFERSON,2053258100,Acute Care Hospitals,Voluntary non-profit - Private,Yes,SCIP-CARD-2
10018,CALLAHAN EYE FOUNDATION HOSPITAL,1720 UNIVERSITY BLVD,BIRMINGHAM,AL,35233,JEFFERSON,2053258100,Acute Care Hospitals,Voluntary non-profit - Private,Yes,SCIP-INF-1
10018,CALLAHAN EYE FOUNDATION HOSPITAL,1720 UNIVERSITY BLVD,BIRMINGHAM,AL,35233,JEFFERSON,2053258100,Acute Care Hospitals,Voluntary non-profit - Private,Yes,SCIP-INF-2
10018,CALLAHAN EYE FOUNDATION HOSPITAL,1720 UNIVERSITY BLVD,BIRMINGHAM,AL,35233,JEFFERSON,2053258100,Acute Care Hospitals,Voluntary non-profit - Private,Yes,SCIP-INF-3
10018,CALLAHAN EYE FOUNDATION HOSPITAL,1720 UNIVERSITY BLVD,BIRMINGHAM,AL,35233,JEFFERSON,2053258100,Acute Care Hospitals,Voluntary non-profit - Private,Yes,SCIP-INF-4
10018,CALLAHAN EYE FOUNDATION HOSPITAL,1720 UNIVERSITY BLVD,BIRMINGHAM,AL,35233,JEFFERSON,2053258100,Acute Care Hospitals,Voluntary non-profit - Private,Yes,SCIP-INF-6
10018,CALLAHAN EYE FOUNDATION HOSPITAL,1720 UNIVERSITY BLVD,BIRMINGHAM,AL,35233,JEFFERSON,2053258100,Acute Care Hospitals,Voluntary non-profit - Private,Yes,SCIP-VTE-1
10018,CALLAHAN EYE FOUNDATION HOSPITAL,1720 UNIVERSITY BLVD,BIRMINGHAM,AL,35233,JEFFERSON,2053258100,Acute Care Hospitals,Voluntary non-profit - Private,Yes,SCIP-VTE-2
10019,HELEN KELLER MEMORIAL HOSPITAL,1300 SOUTH MONTGOMERY AVENUE,SHEFFIELD,AL,35660,JEFFERSON,2563864556,Acute Care Hospitals,Government - Hospital District or Authority,Yes,AMI-1
10019,HELEN KELLER MEMORIAL HOSPITAL,1300 SOUTH MONTGOMERY AVENUE,SHEFFIELD,AL,35660,JEFFERSON,2563864556,Acute Care Hospitals,Government - Hospital District or Authority,Yes,AMI-2
10019,HELEN KELLER MEMORIAL HOSPITAL,1300 SOUTH MONTGOMERY AVENUE,SHEFFIELD,AL,35660,JEFFERSON,2563864556,Acute Care Hospitals,Government - Hospital District or Authority,Yes,AMI-3
10019,HELEN KELLER MEMORIAL HOSPITAL,1300 SOUTH MONTGOMERY AVENUE,SHEFFIELD,AL,35660,JEFFERSON,2563864556,Acute Care Hospitals,Government - Hospital District or Authority,Yes,AMI-4
10019,HELEN KELLER MEMORIAL HOSPITAL,1300 SOUTH MONTGOMERY AVENUE,SHEFFIELD,AL,35660,JEFFERSON,2563864556,Acute Care Hospitals,Government - Hospital District or Authority,Yes,AMI-5
10019,HELEN KELLER MEMORIAL HOSPITAL,1300 SOUTH MONTGOMERY AVENUE,SHEFFIELD,AL,35660,JEFFERSON,2563864556,Acute Care Hospitals,Government - Hospital District or Authority,Yes,AMI-7A
10019,HELEN KELLER MEMORIAL HOSPITAL,1300 SOUTH MONTGOMERY AVENUE,SHEFFIELD,AL,35660,JEFFERSON,2563864556,Acute Care Hospitals,Government - Hospital District or Authority,Yes,AMI-8A
10019,HELEN KELLER MEMORIAL HOSPITAL,1300 SOUTH MONTGOMERY AVENUE,SHEFFIELD,AL,35660,JEFFERSON,2563864556,Acute Care Hospitals,Government - Hospital District or Authority,Yes,HF-1
10019,HELEN KELLER MEMORIAL HOSPITAL,1300 SOUTH MONTGOMERY AVENUE,SHEFFIELD,AL,35660,JEFFERSON,2563864556,Acute Care Hospitals,Government - Hospital District or Authority,Yes,HF-2
10019,HELEN KELLER MEMORIAL HOSPITAL,1300 SOUTH MONTGOMERY AVENUE,SHEFFIELD,AL,35660,JEFFERSON,2563864556,Acute Care Hospitals,Government - Hospital District or Authority,Yes,HF-3
10019,HELEN KELLER MEMORIAL HOSPITAL,1300 SOUTH MONTGOMERY AVENUE,SHEFFIELD,AL,35660,JEFFERSON,2563864556,Acute Care Hospitals,Government - Hospital District or Authority,Yes,HF-4
10001,SOUTHEAST ALABAMA MEDICAL CENTER,1108 ROSS CLARK CIRCLE,DOTHAN,AL,36302,HOUSTON,3347938701,Acute Care Hospitals,Government - Hospital District or Authority,Yes,AMI-1
10001,SOUTHEAST ALABAMA MEDICAL CENTER,1108 ROSS CLARK CIRCLE,DOTHAN,AL,36302,HOUSTON,3347938701,Acute Care Hospitals,Government - Hospital District or Authority,Yes,AMI-2
10001,SOUTHEAST ALABAMA MEDICAL CENTER,1108 ROSS CLARK CIRCLE,DOTHAN,AL,36302,HOUSTON,3347938701,Acute Care Hospitals,Government - Hospital District or Authority,Yes,AMI-3
10001,SOUTHEAST ALABAMA MEDICAL CENTER,1108 ROSS CLARK CIRCLE,DOTHAN,AL,36302,HOUSTON,3347938701,Acute Care Hospitals,Government - Hospital District or Authority,Yes,AMI-4
10001,SOUTHEAST ALABAMA MEDICAL CENTER,1108 ROSS CLARK CIRCLE,DOTHAN,AL,36302,HOUSTON,3347938701,Acute Care Hospitals,Government - Hospital District or Authority,Yes,AMI-5
10001,SOUTHEAST ALABAMA MEDICAL CENTER,1108 ROSS CLARK CIRCLE,DOTHAN,AL,36302,HOUSTON,3347938701,Acute Care Hospitals,Government - Hospital District or Authority,Yes,AMI-7A
10001,SOUTHEAST ALABAMA MEDICAL CENTER,1108 ROSS CLARK CIRCLE,DOTHAN,AL,36302,HOUSTON,3347938701,Acute Care Hospitals,Government - Hospital District or Authority,Yes,AMI-8A
10001,SOUTHEAST ALABAMA MEDICAL CENTER,1108 ROSS CLARK CIRCLE,DOTHAN,AL,36302,HOUSTON,3347938701,Acute Care Hospitals,Government - Hospital District or Authority,Yes,HF-1
10001,SOUTHEAST ALABAMA MEDICAL CENTER,1108 ROSS CLARK CIRCLE,DOTHAN,AL,36302,HOUSTON,3347938701,Acute Care Hospitals,Government - Hospital District or Authority,Yes,HF-2
10001,SOUTHEAST ALABAMA MEDICAL CENTER,1108 ROSS CLARK CIRCLE,DOTHAN,AL,36302,HOUSTON,3347938701,Acute Care Hospitals,Government - Hospital District or Authority,Yes,HF-3
10001,SOUTHEAST ALABAMA MEDICAL CENTER,1108 ROSS CLARK CIRCLE,DOTHAN,AL,36302,HOUSTON,3347938701,Acute Care Hospitals,Government - Hospital District or Authority,Yes,HF-4
10001,SOUTHEAST ALABAMA MEDICAL CENTER,1108 ROSS CLARK CIRCLE,DOTHAN,AL,36302,HOUSTON,3347938701,Acute Care Hospitals,Government - Hospital District or Authority,Yes,PN-2
10001,SOUTHEAST ALABAMA MEDICAL CENTER,1108 ROSS CLARK CIRCLE,DOTHAN,AL,36302,HOUSTON,3347938701,Acute Care Hospitals,Government - Hospital District or Authority,Yes,PN-3B
10001,SOUTHEAST ALABAMA MEDICAL CENTER,1108 ROSS CLARK CIRCLE,DOTHAN,AL,36302,HOUSTON,3347938701,Acute Care Hospitals,Government - Hospital District or Authority,Yes,PN-4
10001,SOUTHEAST ALABAMA MEDICAL CENTER,1108 ROSS CLARK CIRCLE,DOTHAN,AL,36302,HOUSTON,3347938701,Acute Care Hospitals,Government - Hospital District or Authority,Yes,PN-5C
10001,SOUTHEAST ALABAMA MEDICAL CENTER,1108 ROSS CLARK CIRCLE,DOTHAN,AL,36302,HOUSTON,3347938701,Acute Care Hospitals,Government - Hospital District or Authority,Yes,PN-6
10001,SOUTHEAST ALABAMA MEDICAL CENTER,1108 ROSS CLARK CIRCLE,DOTHAN,AL,36302,HOUSTON,3347938701,Acute Care Hospitals,Government - Hospital District or Authority,Yes,PN-7
10001,SOUTHEAST ALABAMA MEDICAL CENTER,1108 ROSS CLARK CIRCLE,DOTHAN,AL,36302,HOUSTON,3347938701,Acute Care Hospitals,Government - Hospital District or Authority,Yes,SCIP-CARD-2
10001,SOUTHEAST ALABAMA MEDICAL CENTER,1108 ROSS CLARK CIRCLE,DOTHAN,AL,36302,HOUSTON,3347938701,Acute Care Hospitals,Government - Hospital District or Authority,Yes,SCIP-INF-1
10001,SOUTHEAST ALABAMA MEDICAL CENTER,1108 ROSS CLARK CIRCLE,DOTHAN,AL,36302,HOUSTON,3347938701,Acute Care Hospitals,Government - Hospital District or Authority,Yes,SCIP-INF-2
10001,SOUTHEAST ALABAMA MEDICAL CENTER,1108 ROSS CLARK CIRCLE,DOTHAN,AL,36302,HOUSTON,3347938701,Acute Care Hospitals,Government - Hospital District or Authority,Yes,SCIP-INF-3
10001,SOUTHEAST ALABAMA MEDICAL CENTER,1108 ROSS CLARK CIRCLE,DOTHAN,AL,36302,HOUSTON,3347938701,Acute Care Hospitals,Government - Hospital District or Authority,Yes,SCIP-INF-4
10001,SOUTHEAST ALABAMA MEDICAL CENTER,1108 ROSS CLARK CIRCLE,DOTHAN,AL,36302,HOUSTON,3347938701,Acute Care Hospitals,Government - Hospital District or Authority,Yes,SCIP-INF-6
10001,SOUTHEAST ALABAMA MEDICAL CENTER,1108 ROSS CLARK CIRCLE,DOTHAN,AL,36302,HOUSTON,3347938701,Acute Care Hospitals,Government - Hospital District or Authority,Yes,SCIP-VTE-1
10001,SOUTHEAST ALABAMA MEDICAL CENTER,1108 ROSS CLARK CIRCLE,DOTHAN,AL,36302,HOUSTON,3347938701,Acute Care Hospitals,Government - Hospital District or Authority,Yes,SCIP-VTE-2
10005,MARSHALL MEDICAL CENTER SOUTH,2505 U S HIGHWAY 431 NORTH,BOAZ,AL,35957,MARSHALL,2565938310,Acute Care Hospitals,Government - Hospital District or Authority,Yes,AMI-1
10005,MARSHALL MEDICAL CENTER SOUTH,2505 U S HIGHWAY 431 NORTH,BOAZ,AL,35957,MARSHALL,2565938310,Acute Care Hospitals,Government - Hospital District or Authority,Yes,AMI-2
10005,MARSHALL MEDICAL CENTER SOUTH,2505 U S HIGHWAY 431 NORTH,BOAZ,AL,35957,MARSHALL,2565938310,Acute Care Hospitals,Government - Hospital District or Authority,Yes,AMI-3
10005,MARSHALL MEDICAL CENTER SOUTH,2505 U S HIGHWAY 431 NORTH,BOAZ,AL,35957,MARSHALL,2565938310,Acute Care Hospitals,Government - Hospital District or Authority,Yes,AMI-4
10005,MARSHALL MEDICAL CENTER SOUTH,2505 U S HIGHWAY 431 NORTH,BOAZ,AL,35957,MARSHALL,2565938310,Acute Care Hospitals,Government - Hospital District or Authority,Yes,AMI-5
10005,MARSHALL MEDICAL CENTER SOUTH,2505 U S HIGHWAY 431 NORTH,BOAZ,AL,35957,MARSHALL,2565938310,Acute Care Hospitals,Government - Hospital District or Authority,Yes,AMI-7A
10005,MARSHALL MEDICAL CENTER SOUTH,2505 U S HIGHWAY 431 NORTH,BOAZ,AL,35957,MARSHALL,2565938310,Acute Care Hospitals,Government - Hospital District or Authority,Yes,AMI-8A
10005,MARSHALL MEDICAL CENTER SOUTH,2505 U S HIGHWAY 431 NORTH,BOAZ,AL,35957,MARSHALL,2565938310,Acute Care Hospitals,Government - Hospital District or Authority,Yes,HF-1
10005,MARSHALL MEDICAL CENTER SOUTH,2505 U S HIGHWAY 431 NORTH,BOAZ,AL,35957,MARSHALL,2565938310,Acute Care Hospitals,Government - Hospital District or Authority,Yes,HF-2
10005,MARSHALL MEDICAL CENTER SOUTH,2505 U S HIGHWAY 431 NORTH,BOAZ,AL,35957,MARSHALL,2565938310,Acute Care Hospitals,Government - Hospital District or Authority,Yes,HF-3
10005,MARSHALL MEDICAL CENTER SOUTH,2505 U S HIGHWAY 431 NORTH,BOAZ,AL,35957,MARSHALL,2565938310,Acute Care Hospitals,Government - Hospital District or Authority,Yes,HF-4
10005,MARSHALL MEDICAL CENTER SOUTH,2505 U S HIGHWAY 431 NORTH,BOAZ,AL,35957,MARSHALL,2565938310,Acute Care Hospitals,Government - Hospital District or Authority,Yes,PN-2
10005,MARSHALL MEDICAL CENTER SOUTH,2505 U S HIGHWAY 431 NORTH,BOAZ,AL,35957,MARSHALL,2565938310,Acute Care Hospitals,Government - Hospital District or Authority,Yes,PN-3B
10005,MARSHALL MEDICAL CENTER SOUTH,2505 U S HIGHWAY 431 NORTH,BOAZ,AL,35957,MARSHALL,2565938310,Acute Care Hospitals,Government - Hospital District or Authority,Yes,PN-4
10005,MARSHALL MEDICAL CENTER SOUTH,2505 U S HIGHWAY 431 NORTH,BOAZ,AL,35957,MARSHALL,2565938310,Acute Care Hospitals,Government - Hospital District or Authority,Yes,PN-5C
10005,MARSHALL MEDICAL CENTER SOUTH,2505 U S HIGHWAY 431 NORTH,BOAZ,AL,35957,MARSHALL,2565938310,Acute Care Hospitals,Government - Hospital District or Authority,Yes,PN-6
10005,MARSHALL MEDICAL CENTER SOUTH,2505 U S HIGHWAY 431 NORTH,BOAZ,AL,35957,MARSHALL,2565938310,Acute Care Hospitals,Government - Hospital District or Authority,Yes,PN-7
10005,MARSHALL MEDICAL CENTER SOUTH,2505 U S HIGHWAY 431 NORTH,BOAZ,AL,35957,MARSHALL,2565938310,Acute Care Hospitals,Government - Hospital District or Authority,Yes,SCIP-CARD-2
10005,MARSHALL MEDICAL CENTER SOUTH,2505 U S HIGHWAY 431 NORTH,BOAZ,AL,35957,MARSHALL,2565938310,Acute Care Hospitals,Government - Hospital District or Authority,Yes,SCIP-INF-1
10005,MARSHALL MEDICAL CENTER SOUTH,2505 U S HIGHWAY 431 NORTH,BOAZ,AL,35957,MARSHALL,2565938310,Acute Care Hospitals,Government - Hospital District or Authority,Yes,SCIP-INF-2
10005,MARSHALL MEDICAL CENTER SOUTH,2505 U S HIGHWAY 431 NORTH,BOAZ,AL,35957,MARSHALL,2565938310,Acute Care Hospitals,Government - Hospital District or Authority,Yes,SCIP-INF-3
10005,MARSHALL MEDICAL CENTER SOUTH,2505 U S HIGHWAY 431 NORTH,BOAZ,AL,35957,MARSHALL,2565938310,Acute Care Hospitals,Government - Hospital District or Authority,Yes,SCIP-INF-4
10005,MARSHALL MEDICAL CENTER SOUTH,2505 U S HIGHWAY 431 NORTH,BOAZ,AL,35957,MARSHALL,2565938310,Acute Care Hospitals,Government - Hospital District or Authority,Yes,SCIP-INF-6
10005,MARSHALL MEDICAL CENTER SOUTH,2505 U S HIGHWAY 431 NORTH,BOAZ,AL,35957,MARSHALL,2565938310,Acute Care Hospitals,Government - Hospital District or Authority,Yes,SCIP-VTE-1
10005,MARSHALL MEDICAL CENTER SOUTH,2505 U S HIGHWAY 431 NORTH,BOAZ,AL,35957,MARSHALL,2565938310,Acute Care Hospitals,Government - Hospital District or Authority,Yes,SCIP-VTE-2
10006,ELIZA COFFEE MEMORIAL HOSPITAL,205 MARENGO STREET,FLORENCE,AL,35631,LAUDERDALE,2567688400,Acute Care Hospitals,Voluntary non-profit - Other,Yes,AMI-1
10006,ELIZA COFFEE MEMORIAL HOSPITAL,205 MARENGO STREET,FLORENCE,AL,35631,LAUDERDALE,2567688400,Acute Care Hospitals,Voluntary non-profit - Other,Yes,AMI-2
10006,ELIZA COFFEE MEMORIAL HOSPITAL,205 MARENGO STREET,FLORENCE,AL,35631,LAUDERDALE,2567688400,Acute Care Hospitals,Voluntary non-profit - Other,Yes,AMI-3
10006,ELIZA COFFEE MEMORIAL HOSPITAL,205 MARENGO STREET,FLORENCE,AL,35631,LAUDERDALE,2567688400,Acute Care Hospitals,Voluntary non-profit - Other,Yes,AMI-4
10006,ELIZA COFFEE MEMORIAL HOSPITAL,205 MARENGO STREET,FLORENCE,AL,35631,LAUDERDALE,2567688400,Acute Care Hospitals,Voluntary non-profit - Other,Yes,AMI-5
10006,ELIZA COFFEE MEMORIAL HOSPITAL,205 MARENGO STREET,FLORENCE,AL,35631,LAUDERDALE,2567688400,Acute Care Hospitals,Voluntary non-profit - Other,Yes,AMI-7A
10006,ELIZA COFFEE MEMORIAL HOSPITAL,205 MARENGO STREET,FLORENCE,AL,35631,LAUDERDALE,2567688400,Acute Care Hospitals,Voluntary non-profit - Other,Yes,AMI-8A
10006,ELIZA COFFEE MEMORIAL HOSPITAL,205 MARENGO STREET,FLORENCE,AL,35631,LAUDERDALE,2567688400,Acute Care Hospitals,Voluntary non-profit - Other,Yes,HF-1
10006,ELIZA COFFEE MEMORIAL HOSPITAL,205 MARENGO STREET,FLORENCE,AL,35631,LAUDERDALE,2567688400,Acute Care Hospitals,Voluntary non-profit - Other,Yes,HF-2
10006,ELIZA COFFEE MEMORIAL HOSPITAL,205 MARENGO STREET,FLORENCE,AL,35631,LAUDERDALE,2567688400,Acute Care Hospitals,Voluntary non-profit - Other,Yes,HF-3
10006,ELIZA COFFEE MEMORIAL HOSPITAL,205 MARENGO STREET,FLORENCE,AL,35631,LAUDERDALE,2567688400,Acute Care Hospitals,Voluntary non-profit - Other,Yes,HF-4
10006,ELIZA COFFEE MEMORIAL HOSPITAL,205 MARENGO STREET,FLORENCE,AL,35631,LAUDERDALE,2567688400,Acute Care Hospitals,Voluntary non-profit - Other,Yes,PN-2
10006,ELIZA COFFEE MEMORIAL HOSPITAL,205 MARENGO STREET,FLORENCE,AL,35631,LAUDERDALE,2567688400,Acute Care Hospitals,Voluntary non-profit - Other,Yes,PN-3B
10006,ELIZA COFFEE MEMORIAL HOSPITAL,205 MARENGO STREET,FLORENCE,AL,35631,LAUDERDALE,2567688400,Acute Care Hospitals,Voluntary non-profit - Other,Yes,PN-4
10006,ELIZA COFFEE MEMORIAL HOSPITAL,205 MARENGO STREET,FLORENCE,AL,35631,LAUDERDALE,2567688400,Acute Care Hospitals,Voluntary non-profit - Other,Yes,PN-5C
10006,ELIZA COFFEE MEMORIAL HOSPITAL,205 MARENGO STREET,FLORENCE,AL,35631,LAUDERDALE,2567688400,Acute Care Hospitals,Voluntary non-profit - Other,Yes,PN-6
10006,ELIZA COFFEE MEMORIAL HOSPITAL,205 MARENGO STREET,FLORENCE,AL,35631,LAUDERDALE,2567688400,Acute Care Hospitals,Voluntary non-profit - Other,Yes,PN-7
10006,ELIZA COFFEE MEMORIAL HOSPITAL,205 MARENGO STREET,FLORENCE,AL,35631,LAUDERDALE,2567688400,Acute Care Hospitals,Voluntary non-profit - Other,Yes,SCIP-CARD-2
10006,ELIZA COFFEE MEMORIAL HOSPITAL,205 MARENGO STREET,FLORENCE,AL,35631,LAUDERDALE,2567688400,Acute Care Hospitals,Voluntary non-profit - Other,Yes,SCIP-INF-1
10006,ELIZA COFFEE MEMORIAL HOSPITAL,205 MARENGO STREET,FLORENCE,AL,35631,LAUDERDALE,2567688400,Acute Care Hospitals,Voluntary non-profit - Other,Yes,SCIP-INF-2
10006,ELIZA COFFEE MEMORIAL HOSPITAL,205 MARENGO STREET,FLORENCE,AL,35631,LAUDERDALE,2567688400,Acute Care Hospitals,Voluntary non-profit - Other,Yes,SCIP-INF-3
10006,ELIZA COFFEE MEMORIAL HOSPITAL,205 MARENGO STREET,FLORENCE,AL,35631,LAUDERDALE,2567688400,Acute Care Hospitals,Voluntary non-profit - Other,Yes,SCIP-INF-4
10006,ELIZA COFFEE MEMORIAL HOSPITAL,205 MARENGO STREET,FLORENCE,AL,35631,LAUDERDALE,2567688400,Acute Care Hospitals,Voluntary non-profit - Other,Yes,SCIP-INF-6
10006,ELIZA COFFEE MEMORIAL HOSPITAL,205 MARENGO STREET,FLORENCE,AL,35631,LAUDERDALE,2567688400,Acute Care Hospitals,Voluntary non-profit - Other,Yes,SCIP-VTE-1
10006,ELIZA COFFEE MEMORIAL HOSPITAL,205 MARENGO STREET,FLORENCE,AL,35631,LAUDERDALE,2567688400,Acute Care Hospitals,Voluntary non-profit - Other,Yes,SCIP-VTE-2
10007,MIZELL MEMORIAL HOSPITAL,702 N MAIN ST,OPP,AL,36467,COVINGTON,3344933541,Acute Care Hospitals,Voluntary non-profit - Private,No,AMI-1
10007,MIZELL MEMORIAL HOSPITAL,702 N MAIN ST,OPP,AL,36467,COVINGTON,3344933541,Acute Care Hospitals,Voluntary non-profit - Private,No,AMI-2
10007,MIZELL MEMORIAL HOSPITAL,702 N MAIN ST,OPP,AL,36467,COVINGTON,3344933541,Acute Care Hospitals,Voluntary non-profit - Private,No,AMI-3
10007,MIZELL MEMORIAL HOSPITAL,702 N MAIN ST,OPP,AL,36467,COVINGTON,3344933541,Acute Care Hospitals,Voluntary non-profit - Private,No,AMI-4
10007,MIZELL MEMORIAL HOSPITAL,702 N MAIN ST,OPP,AL,36467,COVINGTON,3344933541,Acute Care Hospitals,Voluntary non-profit - Private,No,AMI-5
10007,MIZELL MEMORIAL HOSPITAL,702 N MAIN ST,OPP,AL,36467,COVINGTON,3344933541,Acute Care Hospitals,Voluntary non-profit - Private,No,AMI-7A
10007,MIZELL MEMORIAL HOSPITAL,702 N MAIN ST,OPP,AL,36467,COVINGTON,3344933541,Acute Care Hospitals,Voluntary non-profit - Private,No,AMI-8A
10007,MIZELL MEMORIAL HOSPITAL,702 N MAIN ST,OPP,AL,36467,COVINGTON,3344933541,Acute Care Hospitals,Voluntary non-profit - Private,No,HF-1
10007,MIZELL MEMORIAL HOSPITAL,702 N MAIN ST,OPP,AL,36467,COVINGTON,3344933541,Acute Care Hospitals,Voluntary non-profit - Private,No,HF-2
10007,MIZELL MEMORIAL HOSPITAL,702 N MAIN ST,OPP,AL,36467,COVINGTON,3344933541,Acute Care Hospitals,Voluntary non-profit - Private,No,HF-3
10007,MIZELL MEMORIAL HOSPITAL,702 N MAIN ST,OPP,AL,36467,COVINGTON,3344933541,Acute Care Hospitals,Voluntary non-profit - Private,No,HF-4
10007,MIZELL MEMORIAL HOSPITAL,702 N MAIN ST,OPP,AL,36467,COVINGTON,3344933541,Acute Care Hospitals,Voluntary non-profit - Private,No,PN-2
10007,MIZELL MEMORIAL HOSPITAL,702 N MAIN ST,OPP,AL,36467,COVINGTON,3344933541,Acute Care Hospitals,Voluntary non-profit - Private,No,PN-3B
10007,MIZELL MEMORIAL HOSPITAL,702 N MAIN ST,OPP,AL,36467,COVINGTON,3344933541,Acute Care Hospitals,Voluntary non-profit - Private,No,PN-4
10007,MIZELL MEMORIAL HOSPITAL,702 N MAIN ST,OPP,AL,36467,COVINGTON,3344933541,Acute Care Hospitals,Voluntary non-profit - Private,No,PN-5C
10007,MIZELL MEMORIAL HOSPITAL,702 N MAIN ST,OPP,AL,36467,COVINGTON,3344933541,Acute Care Hospitals,Voluntary non-profit - Private,No,PN-6
10007,MIZELL MEMORIAL HOSPITAL,702 N MAIN ST,OPP,AL,36467,COVINGTON,3344933541,Acute Care Hospitals,Voluntary non-profit - Private,No,PN-7
10007,MIZELL MEMORIAL HOSPITAL,702 N MAIN ST,OPP,AL,36467,COVINGTON,3344933541,Acute Care Hospitals,Voluntary non-profit - Private,No,SCIP-CARD-2
10007,MIZELL MEMORIAL HOSPITAL,702 N MAIN ST,OPP,AL,36467,COVINGTON,3344933541,Acute Care Hospitals,Voluntary non-profit - Private,No,SCIP-INF-1
10007,MIZELL MEMORIAL HOSPITAL,702 N MAIN ST,OPP,AL,36467,COVINGTON,3344933541,Acute Care Hospitals,Voluntary non-profit - Private,No,SCIP-INF-2
10007,MIZELL MEMORIAL HOSPITAL,702 N MAIN ST,OPP,AL,36467,COVINGTON,3344933541,Acute Care Hospitals,Voluntary non-profit - Private,No,SCIP-INF-3
10007,MIZELL MEMORIAL HOSPITAL,702 N MAIN ST,OPP,AL,36467,COVINGTON,3344933541,Acute Care Hospitals,Voluntary non-profit - Private,No,SCIP-INF-4
10007,MIZELL MEMORIAL HOSPITAL,702 N MAIN ST,OPP,AL,36467,COVINGTON,3344933541,Acute Care Hospitals,Voluntary non-profit - Private,No,SCIP-INF-6
10007,MIZELL MEMORIAL HOSPITAL,702 N MAIN ST,OPP,AL,36467,COVINGTON,3344933541,Acute Care Hospitals,Voluntary non-profit - Private,No,SCIP-VTE-1
10007,MIZELL MEMORIAL HOSPITAL,702 N MAIN ST,OPP,AL,36467,COVINGTON,3344933541,Acute Care Hospitals,Voluntary non-profit - Private,No,SCIP-VTE-2
10008,CRENSHAW COMMUNITY HOSPITAL,101 HOSPITAL CIRCLE,LUVERNE,AL,36049,CRENSHAW,3343353374,Acute Care Hospitals,Government - Federal,Yes,AMI-1
10008,CRENSHAW COMMUNITY HOSPITAL,101 HOSPITAL CIRCLE,LUVERNE,AL,36049,CRENSHAW,3343353374,Acute Care Hospitals,Government - Federal,Yes,AMI-2
10008,CRENSHAW COMMUNITY HOSPITAL,101 HOSPITAL CIRCLE,LUVERNE,AL,36049,CRENSHAW,3343353374,Acute Care Hospitals,Government - Federal,Yes,AMI-3
10008,CRENSHAW COMMUNITY HOSPITAL,101 HOSPITAL CIRCLE,LUVERNE,AL,36049,CRENSHAW,3343353374,Acute Care Hospitals,Government - Federal,Yes,AMI-4
10008,CRENSHAW COMMUNITY HOSPITAL,101 HOSPITAL CIRCLE,LUVERNE,AL,36049,CRENSHAW,3343353374,Acute Care Hospitals,Government - Federal,Yes,AMI-5
10008,CRENSHAW COMMUNITY HOSPITAL,101 HOSPITAL CIRCLE,LUVERNE,AL,36049,CRENSHAW,3343353374,Acute Care Hospitals,Government - Federal,Yes,AMI-7A
10008,CRENSHAW COMMUNITY HOSPITAL,101 HOSPITAL CIRCLE,LUVERNE,AL,36049,CRENSHAW,3343353374,Acute Care Hospitals,Government - Federal,Yes,AMI-8A
10008,CRENSHAW COMMUNITY HOSPITAL,101 HOSPITAL CIRCLE,LUVERNE,AL,36049,CRENSHAW,3343353374,Acute Care Hospitals,Government - Federal,Yes,HF-1
10008,CRENSHAW COMMUNITY HOSPITAL,101 HOSPITAL CIRCLE,LUVERNE,AL,36049,CRENSHAW,3343353374,Acute Care Hospitals,Government - Federal,Yes,HF-2
10008,CRENSHAW COMMUNITY HOSPITAL,101 HOSPITAL CIRCLE,LUVERNE,AL,36049,CRENSHAW,3343353374,Acute Care Hospitals,Government - Federal,Yes,HF-3
10008,CRENSHAW COMMUNITY HOSPITAL,101 HOSPITAL CIRCLE,LUVERNE,AL,36049,CRENSHAW,3343353374,Acute Care Hospitals,Government - Federal,Yes,HF-4
10008,CRENSHAW COMMUNITY HOSPITAL,101 HOSPITAL CIRCLE,LUVERNE,AL,36049,CRENSHAW,3343353374,Acute Care Hospitals,Government - Federal,Yes,PN-2
10008,CRENSHAW COMMUNITY HOSPITAL,101 HOSPITAL CIRCLE,LUVERNE,AL,36049,CRENSHAW,3343353374,Acute Care Hospitals,Government - Federal,Yes,PN-3B
10008,CRENSHAW COMMUNITY HOSPITAL,101 HOSPITAL CIRCLE,LUVERNE,AL,36049,CRENSHAW,3343353374,Acute Care Hospitals,Government - Federal,Yes,PN-4
10008,CRENSHAW COMMUNITY HOSPITAL,101 HOSPITAL CIRCLE,LUVERNE,AL,36049,CRENSHAW,3343353374,Acute Care Hospitals,Government - Federal,Yes,PN-5C
10008,CRENSHAW COMMUNITY HOSPITAL,101 HOSPITAL CIRCLE,LUVERNE,AL,36049,CRENSHAW,3343353374,Acute Care Hospitals,Government - Federal,Yes,PN-6
10008,CRENSHAW COMMUNITY HOSPITAL,101 HOSPITAL CIRCLE,LUVERNE,AL,36049,CRENSHAW,3343353374,Acute Care Hospitals,Government - Federal,Yes,PN-7
10008,CRENSHAW COMMUNITY HOSPITAL,101 HOSPITAL CIRCLE,LUVERNE,AL,36049,CRENSHAW,3343353374,Acute Care Hospitals,Government - Federal,Yes,SCIP-CARD-2
10008,CRENSHAW COMMUNITY HOSPITAL,101 HOSPITAL CIRCLE,LUVERNE,AL,36049,CRENSHAW,3343353374,Acute Care Hospitals,Government - Federal,Yes,SCIP-INF-1
10008,CRENSHAW COMMUNITY HOSPITAL,101 HOSPITAL CIRCLE,LUVERNE,AL,36049,CRENSHAW,3343353374,Acute Care Hospitals,Government - Federal,Yes,SCIP-INF-2
10008,CRENSHAW COMMUNITY HOSPITAL,101 HOSPITAL CIRCLE,LUVERNE,AL,36049,CRENSHAW,3343353374,Acute Care Hospitals,Government - Federal,Yes,SCIP-INF-3
10008,CRENSHAW COMMUNITY HOSPITAL,101 HOSPITAL CIRCLE,LUVERNE,AL,36049,CRENSHAW,3343353374,Acute Care Hospitals,Government - Federal,Yes,SCIP-INF-4
10008,CRENSHAW COMMUNITY HOSPITAL,101 HOSPITAL CIRCLE,LUVERNE,AL,36049,CRENSHAW,3343353374,Acute Care Hospitals,Government - Federal,Yes,SCIP-INF-6
10008,CRENSHAW COMMUNITY HOSPITAL,101 HOSPITAL CIRCLE,LUVERNE,AL,36049,CRENSHAW,3343353374,Acute Care Hospitals,Government - Federal,Yes,SCIP-VTE-1
10008,CRENSHAW COMMUNITY HOSPITAL,101 HOSPITAL CIRCLE,LUVERNE,AL,36049,CRENSHAW,3343353374,Acute Care Hospitals,Government - Federal,Yes,SCIP-VTE-2
10009,HARTSELLE MEDICAL CENTER,201 PINE STREET NORTHWEST,HARTSELLE,AL,35640,MORGAN,2567736511,Acute Care Hospitals,Proprietary,Yes,AMI-1
10009,HARTSELLE MEDICAL CENTER,201 PINE STREET NORTHWEST,HARTSELLE,AL,35640,MORGAN,2567736511,Acute Care Hospitals,Proprietary,Yes,AMI-2
10009,HARTSELLE MEDICAL CENTER,201 PINE STREET NORTHWEST,HARTSELLE,AL,35640,MORGAN,2567736511,Acute Care Hospitals,Proprietary,Yes,AMI-3
10009,HARTSELLE MEDICAL CENTER,201 PINE STREET NORTHWEST,HARTSELLE,AL,35640,MORGAN,2567736511,Acute Care Hospitals,Proprietary,Yes,AMI-4
10009,HARTSELLE MEDICAL CENTER,201 PINE STREET NORTHWEST,HARTSELLE,AL,35640,MORGAN,2567736511,Acute Care Hospitals,Proprietary,Yes,AMI-5
10009,HARTSELLE MEDICAL CENTER,201 PINE STREET NORTHWEST,HARTSELLE,AL,35640,MORGAN,2567736511,Acute Care Hospitals,Proprietary,Yes,AMI-7A
10009,HARTSELLE MEDICAL CENTER,201 PINE STREET NORTHWEST,HARTSELLE,AL,35640,MORGAN,2567736511,Acute Care Hospitals,Proprietary,Yes,AMI-8A
10009,HARTSELLE MEDICAL CENTER,201 PINE STREET NORTHWEST,HARTSELLE,AL,35640,MORGAN,2567736511,Acute Care Hospitals,Proprietary,Yes,HF-1
10009,HARTSELLE MEDICAL CENTER,201 PINE STREET NORTHWEST,HARTSELLE,AL,35640,MORGAN,2567736511,Acute Care Hospitals,Proprietary,Yes,HF-2
10009,HARTSELLE MEDICAL CENTER,201 PINE STREET NORTHWEST,HARTSELLE,AL,35640,MORGAN,2567736511,Acute Care Hospitals,Proprietary,Yes,HF-3
10009,HARTSELLE MEDICAL CENTER,201 PINE STREET NORTHWEST,HARTSELLE,AL,35640,MORGAN,2567736511,Acute Care Hospitals,Proprietary,Yes,HF-4
10009,HARTSELLE MEDICAL CENTER,201 PINE STREET NORTHWEST,HARTSELLE,AL,35640,MORGAN,2567736511,Acute Care Hospitals,Proprietary,Yes,PN-2
10009,HARTSELLE MEDICAL CENTER,201 PINE STREET NORTHWEST,HARTSELLE,AL,35640,MORGAN,2567736511,Acute Care Hospitals,Proprietary,Yes,PN-3B
10009,HARTSELLE MEDICAL CENTER,201 PINE STREET NORTHWEST,HARTSELLE,AL,35640,MORGAN,2567736511,Acute Care Hospitals,Proprietary,Yes,PN-4
10009,HARTSELLE MEDICAL CENTER,201 PINE STREET NORTHWEST,HARTSELLE,AL,35640,MORGAN,2567736511,Acute Care Hospitals,Proprietary,Yes,PN-5C
10009,HARTSELLE MEDICAL CENTER,201 PINE STREET NORTHWEST,HARTSELLE,AL,35640,MORGAN,2567736511,Acute Care Hospitals,Proprietary,Yes,PN-6
10009,HARTSELLE MEDICAL CENTER,201 PINE STREET NORTHWEST,HARTSELLE,AL,35640,MORGAN,2567736511,Acute Care Hospitals,Proprietary,Yes,PN-7
10009,HARTSELLE MEDICAL CENTER,201 PINE STREET NORTHWEST,HARTSELLE,AL,35640,MORGAN,2567736511,Acute Care Hospitals,Proprietary,Yes,SCIP-CARD-2
10009,HARTSELLE MEDICAL CENTER,201 PINE STREET NORTHWEST,HARTSELLE,AL,35640,MORGAN,2567736511,Acute Care Hospitals,Proprietary,Yes,SCIP-INF-1
10009,HARTSELLE MEDICAL CENTER,201 PINE STREET NORTHWEST,HARTSELLE,AL,35640,MORGAN,2567736511,Acute Care Hospitals,Proprietary,Yes,SCIP-INF-2
10009,HARTSELLE MEDICAL CENTER,201 PINE STREET NORTHWEST,HARTSELLE,AL,35640,MORGAN,2567736511,Acute Care Hospitals,Proprietary,Yes,SCIP-INF-3
10009,HARTSELLE MEDICAL CENTER,201 PINE STREET NORTHWEST,HARTSELLE,AL,35640,MORGAN,2567736511,Acute Care Hospitals,Proprietary,Yes,SCIP-INF-4
10009,HARTSELLE MEDICAL CENTER,201 PINE STREET NORTHWEST,HARTSELLE,AL,35640,MORGAN,2567736511,Acute Care Hospitals,Proprietary,Yes,SCIP-INF-6
10009,HARTSELLE MEDICAL CENTER,201 PINE STREET NORTHWEST,HARTSELLE,AL,35640,MORGAN,2567736511,Acute Care Hospitals,Proprietary,Yes,SCIP-VTE-1
10009,HARTSELLE MEDICAL CENTER,201 PINE STREET NORTHWEST,HARTSELLE,AL,35640,MORGAN,2567736511,Acute Care Hospitals,Proprietary,Yes,SCIP-VTE-2
10010,MARSHALL MEDICAL CENTER NORTH,8000 ALABAMA HIGHWAY 69,GUNTERSVILLE,AL,35976,MARSHALL,2565718000,Acute Care Hospitals,Government - Hospital District or Authority,Yes,AMI-1
10010,MARSHALL MEDICAL CENTER NORTH,8000 ALABAMA HIGHWAY 69,GUNTERSVILLE,AL,35976,MARSHALL,2565718000,Acute Care Hospitals,Government - Hospital District or Authority,Yes,AMI-2
10010,MARSHALL MEDICAL CENTER NORTH,8000 ALABAMA HIGHWAY 69,GUNTERSVILLE,AL,35976,MARSHALL,2565718000,Acute Care Hospitals,Government - Hospital District or Authority,Yes,AMI-3
10010,MARSHALL MEDICAL CENTER NORTH,8000 ALABAMA HIGHWAY 69,GUNTERSVILLE,AL,35976,MARSHALL,2565718000,Acute Care Hospitals,Government - Hospital District or Authority,Yes,AMI-4
10010,MARSHALL MEDICAL CENTER NORTH,8000 ALABAMA HIGHWAY 69,GUNTERSVILLE,AL,35976,MARSHALL,2565718000,Acute Care Hospitals,Government - Hospital District or Authority,Yes,AMI-5
10010,MARSHALL MEDICAL CENTER NORTH,8000 ALABAMA HIGHWAY 69,GUNTERSVILLE,AL,35976,MARSHALL,2565718000,Acute Care Hospitals,Government - Hospital District or Authority,Yes,AMI-7A
10010,MARSHALL MEDICAL CENTER NORTH,8000 ALABAMA HIGHWAY 69,GUNTERSVILLE,AL,35976,MARSHALL,2565718000,Acute Care Hospitals,Government - Hospital District or Authority,Yes,AMI-8A
10010,MARSHALL MEDICAL CENTER NORTH,8000 ALABAMA HIGHWAY 69,GUNTERSVILLE,AL,35976,MARSHALL,2565718000,Acute Care Hospitals,Government - Hospital District or Authority,Yes,HF-1
10010,MARSHALL MEDICAL CENTER NORTH,8000 ALABAMA HIGHWAY 69,GUNTERSVILLE,AL,35976,MARSHALL,2565718000,Acute Care Hospitals,Government - Hospital District or Authority,Yes,HF-2
10010,MARSHALL MEDICAL CENTER NORTH,8000 ALABAMA HIGHWAY 69,GUNTERSVILLE,AL,35976,MARSHALL,2565718000,Acute Care Hospitals,Government - Hospital District or Authority,Yes,HF-3
10010,MARSHALL MEDICAL CENTER NORTH,8000 ALABAMA HIGHWAY 69,GUNTERSVILLE,AL,35976,MARSHALL,2565718000,Acute Care Hospitals,Government - Hospital District or Authority,Yes,HF-4
10010,MARSHALL MEDICAL CENTER NORTH,8000 ALABAMA HIGHWAY 69,GUNTERSVILLE,AL,35976,MARSHALL,2565718000,Acute Care Hospitals,Government - Hospital District or Authority,Yes,PN-2
10010,MARSHALL MEDICAL CENTER NORTH,8000 ALABAMA HIGHWAY 69,GUNTERSVILLE,AL,35976,MARSHALL,2565718000,Acute Care Hospitals,Government - Hospital District or Authority,Yes,PN-3B
10010,MARSHALL MEDICAL CENTER NORTH,8000 ALABAMA HIGHWAY 69,GUNTERSVILLE,AL,35976,MARSHALL,2565718000,Acute Care Hospitals,Government - Hospital District or Authority,Yes,PN-4
10010,MARSHALL MEDICAL CENTER NORTH,8000 ALABAMA HIGHWAY 69,GUNTERSVILLE,AL,35976,MARSHALL,2565718000,Acute Care Hospitals,Government - Hospital District or Authority,Yes,PN-5C
10010,MARSHALL MEDICAL CENTER NORTH,8000 ALABAMA HIGHWAY 69,GUNTERSVILLE,AL,35976,MARSHALL,2565718000,Acute Care Hospitals,Government - Hospital District or Authority,Yes,PN-6
10010,MARSHALL MEDICAL CENTER NORTH,8000 ALABAMA HIGHWAY 69,GUNTERSVILLE,AL,35976,MARSHALL,2565718000,Acute Care Hospitals,Government - Hospital District or Authority,Yes,PN-7
10010,MARSHALL MEDICAL CENTER NORTH,8000 ALABAMA HIGHWAY 69,GUNTERSVILLE,AL,35976,MARSHALL,2565718000,Acute Care Hospitals,Government - Hospital District or Authority,Yes,SCIP-CARD-2
10010,MARSHALL MEDICAL CENTER NORTH,8000 ALABAMA HIGHWAY 69,GUNTERSVILLE,AL,35976,MARSHALL,2565718000,Acute Care Hospitals,Government - Hospital District or Authority,Yes,SCIP-INF-1
10010,MARSHALL MEDICAL CENTER NORTH,8000 ALABAMA HIGHWAY 69,GUNTERSVILLE,AL,35976,MARSHALL,2565718000,Acute Care Hospitals,Government - Hospital District or Authority,Yes,SCIP-INF-2
10010,MARSHALL MEDICAL CENTER NORTH,8000 ALABAMA HIGHWAY 69,GUNTERSVILLE,AL,35976,MARSHALL,2565718000,Acute Care Hospitals,Government - Hospital District or Authority,Yes,SCIP-INF-3
10010,MARSHALL MEDICAL CENTER NORTH,8000 ALABAMA HIGHWAY 69,GUNTERSVILLE,AL,35976,MARSHALL,2565718000,Acute Care Hospitals,Government - Hospital District or Authority,Yes,SCIP-INF-4
10010,MARSHALL MEDICAL CENTER NORTH,8000 ALABAMA HIGHWAY 69,GUNTERSVILLE,AL,35976,MARSHALL,2565718000,Acute Care Hospitals,Government - Hospital District or Authority,Yes,SCIP-INF-6
10010,MARSHALL MEDICAL CENTER NORTH,8000 ALABAMA HIGHWAY 69,GUNTERSVILLE,AL,35976,MARSHALL,2565718000,Acute Care Hospitals,Government - Hospital District or Authority,Yes,SCIP-VTE-1
10010,MARSHALL MEDICAL CENTER NORTH,8000 ALABAMA HIGHWAY 69,GUNTERSVILLE,AL,35976,MARSHALL,2565718000,Acute Care Hospitals,Government - Hospital District or Authority,Yes,SCIP-VTE-2
10011,ST VINCENT'S EAST,50 MEDICAL PARK EAST DRIVE,BIRMINGHAM,AL,35235,JEFFERSON,2058383122,Acute Care Hospitals,Voluntary non-profit - Private,Yes,AMI-1
10011,ST VINCENT'S EAST,50 MEDICAL PARK EAST DRIVE,BIRMINGHAM,AL,35235,JEFFERSON,2058383122,Acute Care Hospitals,Voluntary non-profit - Private,Yes,AMI-2
10011,ST VINCENT'S EAST,50 MEDICAL PARK EAST DRIVE,BIRMINGHAM,AL,35235,JEFFERSON,2058383122,Acute Care Hospitals,Voluntary non-profit - Private,Yes,AMI-3
10011,ST VINCENT'S EAST,50 MEDICAL PARK EAST DRIVE,BIRMINGHAM,AL,35235,JEFFERSON,2058383122,Acute Care Hospitals,Voluntary non-profit - Private,Yes,AMI-4
10011,ST VINCENT'S EAST,50 MEDICAL PARK EAST DRIVE,BIRMINGHAM,AL,35235,JEFFERSON,2058383122,Acute Care Hospitals,Voluntary non-profit - Private,Yes,AMI-5
10011,ST VINCENT'S EAST,50 MEDICAL PARK EAST DRIVE,BIRMINGHAM,AL,35235,JEFFERSON,2058383122,Acute Care Hospitals,Voluntary non-profit - Private,Yes,AMI-7A
10011,ST VINCENT'S EAST,50 MEDICAL PARK EAST DRIVE,BIRMINGHAM,AL,35235,JEFFERSON,2058383122,Acute Care Hospitals,Voluntary non-profit - Private,Yes,AMI-8A
10011,ST VINCENT'S EAST,50 MEDICAL PARK EAST DRIVE,BIRMINGHAM,AL,35235,JEFFERSON,2058383122,Acute Care Hospitals,Voluntary non-profit - Private,Yes,HF-1
10011,ST VINCENT'S EAST,50 MEDICAL PARK EAST DRIVE,BIRMINGHAM,AL,35235,JEFFERSON,2058383122,Acute Care Hospitals,Voluntary non-profit - Private,Yes,HF-2
10011,ST VINCENT'S EAST,50 MEDICAL PARK EAST DRIVE,BIRMINGHAM,AL,35235,JEFFERSON,2058383122,Acute Care Hospitals,Voluntary non-profit - Private,Yes,HF-3
10011,ST VINCENT'S EAST,50 MEDICAL PARK EAST DRIVE,BIRMINGHAM,AL,35235,JEFFERSON,2058383122,Acute Care Hospitals,Voluntary non-profit - Private,Yes,HF-4
10011,ST VINCENT'S EAST,50 MEDICAL PARK EAST DRIVE,BIRMINGHAM,AL,35235,JEFFERSON,2058383122,Acute Care Hospitals,Voluntary non-profit - Private,Yes,PN-2
10011,ST VINCENT'S EAST,50 MEDICAL PARK EAST DRIVE,BIRMINGHAM,AL,35235,JEFFERSON,2058383122,Acute Care Hospitals,Voluntary non-profit - Private,Yes,PN-3B
10011,ST VINCENT'S EAST,50 MEDICAL PARK EAST DRIVE,BIRMINGHAM,AL,35235,JEFFERSON,2058383122,Acute Care Hospitals,Voluntary non-profit - Private,Yes,PN-4
10011,ST VINCENT'S EAST,50 MEDICAL PARK EAST DRIVE,BIRMINGHAM,AL,35235,JEFFERSON,2058383122,Acute Care Hospitals,Voluntary non-profit - Private,Yes,PN-5C
10011,ST VINCENT'S EAST,50 MEDICAL PARK EAST DRIVE,BIRMINGHAM,AL,35235,JEFFERSON,2058383122,Acute Care Hospitals,Voluntary non-profit - Private,Yes,PN-6
10011,ST VINCENT'S EAST,50 MEDICAL PARK EAST DRIVE,BIRMINGHAM,AL,35235,JEFFERSON,2058383122,Acute Care Hospitals,Voluntary non-profit - Private,Yes,PN-7
10011,ST VINCENT'S EAST,50 MEDICAL PARK EAST DRIVE,BIRMINGHAM,AL,35235,JEFFERSON,2058383122,Acute Care Hospitals,Voluntary non-profit - Private,Yes,SCIP-CARD-2
10011,ST VINCENT'S EAST,50 MEDICAL PARK EAST DRIVE,BIRMINGHAM,AL,35235,JEFFERSON,2058383122,Acute Care Hospitals,Voluntary non-profit - Private,Yes,SCIP-INF-1
10011,ST VINCENT'S EAST,50 MEDICAL PARK EAST DRIVE,BIRMINGHAM,AL,35235,JEFFERSON,2058383122,Acute Care Hospitals,Voluntary non-profit - Private,Yes,SCIP-INF-2
10011,ST VINCENT'S EAST,50 MEDICAL PARK EAST DRIVE,BIRMINGHAM,AL,35235,JEFFERSON,2058383122,Acute Care Hospitals,Voluntary non-profit - Private,Yes,SCIP-INF-3
10011,ST VINCENT'S EAST,50 MEDICAL PARK EAST DRIVE,BIRMINGHAM,AL,35235,JEFFERSON,2058383122,Acute Care Hospitals,Voluntary non-profit - Private,Yes,SCIP-INF-4
10011,ST VINCENT'S EAST,50 MEDICAL PARK EAST DRIVE,BIRMINGHAM,AL,35235,JEFFERSON,2058383122,Acute Care Hospitals,Voluntary non-profit - Private,Yes,SCIP-INF-6
10011,ST VINCENT'S EAST,50 MEDICAL PARK EAST DRIVE,BIRMINGHAM,AL,35235,JEFFERSON,2058383122,Acute Care Hospitals,Voluntary non-profit - Private,Yes,SCIP-VTE-1
10011,ST VINCENT'S EAST,50 MEDICAL PARK EAST DRIVE,BIRMINGHAM,AL,35235,JEFFERSON,2058383122,Acute Care Hospitals,Voluntary non-profit - Private,Yes,SCIP-VTE-2
10012,DEKALB REGIONAL MEDICAL CENTER,200 MED CENTER DRIVE,FORT PAYNE,AL,35968,DE KALB,2568453150,Acute Care Hospitals,Voluntary non-profit - Church,Yes,AMI-1
10012,DEKALB REGIONAL MEDICAL CENTER,200 MED CENTER DRIVE,FORT PAYNE,AL,35968,DE KALB,2568453150,Acute Care Hospitals,Voluntary non-profit - Church,Yes,AMI-2
10012,DEKALB REGIONAL MEDICAL CENTER,200 MED CENTER DRIVE,FORT PAYNE,AL,35968,DE KALB,2568453150,Acute Care Hospitals,Voluntary non-profit - Church,Yes,AMI-3
10012,DEKALB REGIONAL MEDICAL CENTER,200 MED CENTER DRIVE,FORT PAYNE,AL,35968,DE KALB,2568453150,Acute Care Hospitals,Voluntary non-profit - Church,Yes,AMI-4
10012,DEKALB REGIONAL MEDICAL CENTER,200 MED CENTER DRIVE,FORT PAYNE,AL,35968,DE KALB,2568453150,Acute Care Hospitals,Voluntary non-profit - Church,Yes,AMI-5
10012,DEKALB REGIONAL MEDICAL CENTER,200 MED CENTER DRIVE,FORT PAYNE,AL,35968,DE KALB,2568453150,Acute Care Hospitals,Voluntary non-profit - Church,Yes,AMI-7A
10012,DEKALB REGIONAL MEDICAL CENTER,200 MED CENTER DRIVE,FORT PAYNE,AL,35968,DE KALB,2568453150,Acute Care Hospitals,Voluntary non-profit - Church,Yes,AMI-8A
10012,DEKALB REGIONAL MEDICAL CENTER,200 MED CENTER DRIVE,FORT PAYNE,AL,35968,DE KALB,2568453150,Acute Care Hospitals,Voluntary non-profit - Church,Yes,HF-1
10012,DEKALB REGIONAL MEDICAL CENTER,200 MED CENTER DRIVE,FORT PAYNE,AL,35968,DE KALB,2568453150,Acute Care Hospitals,Voluntary non-profit - Church,Yes,HF-2
10012,DEKALB REGIONAL MEDICAL CENTER,200 MED CENTER DRIVE,FORT PAYNE,AL,35968,DE KALB,2568453150,Acute Care Hospitals,Voluntary non-profit - Church,Yes,HF-3
10012,DEKALB REGIONAL MEDICAL CENTER,200 MED CENTER DRIVE,FORT PAYNE,AL,35968,DE KALB,2568453150,Acute Care Hospitals,Voluntary non-profit - Church,Yes,HF-4
10012,DEKALB REGIONAL MEDICAL CENTER,200 MED CENTER DRIVE,FORT PAYNE,AL,35968,DE KALB,2568453150,Acute Care Hospitals,Voluntary non-profit - Church,Yes,PN-2
10012,DEKALB REGIONAL MEDICAL CENTER,200 MED CENTER DRIVE,FORT PAYNE,AL,35968,DE KALB,2568453150,Acute Care Hospitals,Voluntary non-profit - Church,Yes,PN-3B
10012,DEKALB REGIONAL MEDICAL CENTER,200 MED CENTER DRIVE,FORT PAYNE,AL,35968,DE KALB,2568453150,Acute Care Hospitals,Voluntary non-profit - Church,Yes,PN-4
10012,DEKALB REGIONAL MEDICAL CENTER,200 MED CENTER DRIVE,FORT PAYNE,AL,35968,DE KALB,2568453150,Acute Care Hospitals,Voluntary non-profit - Church,Yes,PN-5C
10012,DEKALB REGIONAL MEDICAL CENTER,200 MED CENTER DRIVE,FORT PAYNE,AL,35968,DE KALB,2568453150,Acute Care Hospitals,Voluntary non-profit - Church,Yes,PN-6
10012,DEKALB REGIONAL MEDICAL CENTER,200 MED CENTER DRIVE,FORT PAYNE,AL,35968,DE KALB,2568453150,Acute Care Hospitals,Voluntary non-profit - Church,Yes,PN-7
10012,DEKALB REGIONAL MEDICAL CENTER,200 MED CENTER DRIVE,FORT PAYNE,AL,35968,DE KALB,2568453150,Acute Care Hospitals,Voluntary non-profit - Church,Yes,SCIP-CARD-2
10012,DEKALB REGIONAL MEDICAL CENTER,200 MED CENTER DRIVE,FORT PAYNE,AL,35968,DE KALB,2568453150,Acute Care Hospitals,Voluntary non-profit - Church,Yes,SCIP-INF-1
10012,DEKALB REGIONAL MEDICAL CENTER,200 MED CENTER DRIVE,FORT PAYNE,AL,35968,DE KALB,2568453150,Acute Care Hospitals,Voluntary non-profit - Church,Yes,SCIP-INF-2
10012,DEKALB REGIONAL MEDICAL CENTER,200 MED CENTER DRIVE,FORT PAYNE,AL,35968,DE KALB,2568453150,Acute Care Hospitals,Voluntary non-profit - Church,Yes,SCIP-INF-3
10012,DEKALB REGIONAL MEDICAL CENTER,200 MED CENTER DRIVE,FORT PAYNE,AL,35968,DE KALB,2568453150,Acute Care Hospitals,Voluntary non-profit - Church,Yes,SCIP-INF-4
10012,DEKALB REGIONAL MEDICAL CENTER,200 MED CENTER DRIVE,FORT PAYNE,AL,35968,DE KALB,2568453150,Acute Care Hospitals,Voluntary non-profit - Church,Yes,SCIP-INF-6
10012,DEKALB REGIONAL MEDICAL CENTER,200 MED CENTER DRIVE,FORT PAYNE,AL,35968,DE KALB,2568453150,Acute Care Hospitals,Voluntary non-profit - Church,Yes,SCIP-VTE-1
10012,DEKALB REGIONAL MEDICAL CENTER,200 MED CENTER DRIVE,FORT PAYNE,AL,35968,DE KALB,2568453150,Acute Care Hospitals,Voluntary non-profit - Church,Yes,SCIP-VTE-2
10015,SOUTHWEST ALABAMA MEDICAL CENTER,33700 HIGHWAY 43,THOMASVILLE,AL,36784,CLARKE,3346366221,Acute Care Hospitals,Government - Federal,Yes,AMI-1
10015,SOUTHWEST ALABAMA MEDICAL CENTER,33700 HIGHWAY 43,THOMASVILLE,AL,36784,CLARKE,3346366221,Acute Care Hospitals,Government - Federal,Yes,AMI-2
10015,SOUTHWEST ALABAMA MEDICAL CENTER,33700 HIGHWAY 43,THOMASVILLE,AL,36784,CLARKE,3346366221,Acute Care Hospitals,Government - Federal,Yes,AMI-3
10015,SOUTHWEST ALABAMA MEDICAL CENTER,33700 HIGHWAY 43,THOMASVILLE,AL,36784,CLARKE,3346366221,Acute Care Hospitals,Government - Federal,Yes,AMI-4
10015,SOUTHWEST ALABAMA MEDICAL CENTER,33700 HIGHWAY 43,THOMASVILLE,AL,36784,CLARKE,3346366221,Acute Care Hospitals,Government - Federal,Yes,AMI-5
10015,SOUTHWEST ALABAMA MEDICAL CENTER,33700 HIGHWAY 43,THOMASVILLE,AL,36784,CLARKE,3346366221,Acute Care Hospitals,Government - Federal,Yes,AMI-7A
10015,SOUTHWEST ALABAMA MEDICAL CENTER,33700 HIGHWAY 43,THOMASVILLE,AL,36784,CLARKE,3346366221,Acute Care Hospitals,Government - Federal,Yes,AMI-8A
10015,SOUTHWEST ALABAMA MEDICAL CENTER,33700 HIGHWAY 43,THOMASVILLE,AL,36784,CLARKE,3346366221,Acute Care Hospitals,Government - Federal,Yes,HF-1
10015,SOUTHWEST ALABAMA MEDICAL CENTER,33700 HIGHWAY 43,THOMASVILLE,AL,36784,CLARKE,3346366221,Acute Care Hospitals,Government - Federal,Yes,HF-2
10015,SOUTHWEST ALABAMA MEDICAL CENTER,33700 HIGHWAY 43,THOMASVILLE,AL,36784,CLARKE,3346366221,Acute Care Hospitals,Government - Federal,Yes,HF-3
10015,SOUTHWEST ALABAMA MEDICAL CENTER,33700 HIGHWAY 43,THOMASVILLE,AL,36784,CLARKE,3346366221,Acute Care Hospitals,Government - Federal,Yes,HF-4
10015,SOUTHWEST ALABAMA MEDICAL CENTER,33700 HIGHWAY 43,THOMASVILLE,AL,36784,CLARKE,3346366221,Acute Care Hospitals,Government - Federal,Yes,PN-2
10015,SOUTHWEST ALABAMA MEDICAL CENTER,33700 HIGHWAY 43,THOMASVILLE,AL,36784,CLARKE,3346366221,Acute Care Hospitals,Government - Federal,Yes,PN-3B
10015,SOUTHWEST ALABAMA MEDICAL CENTER,33700 HIGHWAY 43,THOMASVILLE,AL,36784,CLARKE,3346366221,Acute Care Hospitals,Government - Federal,Yes,PN-4
10015,SOUTHWEST ALABAMA MEDICAL CENTER,33700 HIGHWAY 43,THOMASVILLE,AL,36784,CLARKE,3346366221,Acute Care Hospitals,Government - Federal,Yes,PN-5C
10015,SOUTHWEST ALABAMA MEDICAL CENTER,33700 HIGHWAY 43,THOMASVILLE,AL,36784,CLARKE,3346366221,Acute Care Hospitals,Government - Federal,Yes,PN-6
10015,SOUTHWEST ALABAMA MEDICAL CENTER,33700 HIGHWAY 43,THOMASVILLE,AL,36784,CLARKE,3346366221,Acute Care Hospitals,Government - Federal,Yes,PN-7
10015,SOUTHWEST ALABAMA MEDICAL CENTER,33700 HIGHWAY 43,THOMASVILLE,AL,36784,CLARKE,3346366221,Acute Care Hospitals,Government - Federal,Yes,SCIP-CARD-2
10015,SOUTHWEST ALABAMA MEDICAL CENTER,33700 HIGHWAY 43,THOMASVILLE,AL,36784,CLARKE,3346366221,Acute Care Hospitals,Government - Federal,Yes,SCIP-INF-1
10015,SOUTHWEST ALABAMA MEDICAL CENTER,33700 HIGHWAY 43,THOMASVILLE,AL,36784,CLARKE,3346366221,Acute Care Hospitals,Government - Federal,Yes,SCIP-INF-2
10015,SOUTHWEST ALABAMA MEDICAL CENTER,33700 HIGHWAY 43,THOMASVILLE,AL,36784,CLARKE,3346366221,Acute Care Hospitals,Government - Federal,Yes,SCIP-INF-3
10015,SOUTHWEST ALABAMA MEDICAL CENTER,33700 HIGHWAY 43,THOMASVILLE,AL,36784,CLARKE,3346366221,Acute Care Hospitals,Government - Federal,Yes,SCIP-INF-4
10015,SOUTHWEST ALABAMA MEDICAL CENTER,33700 HIGHWAY 43,THOMASVILLE,AL,36784,CLARKE,3346366221,Acute Care Hospitals,Government - Federal,Yes,SCIP-INF-6
10015,SOUTHWEST ALABAMA MEDICAL CENTER,33700 HIGHWAY 43,THOMASVILLE,AL,36784,CLARKE,3346366221,Acute Care Hospitals,Government - Federal,Yes,SCIP-VTE-1
10015,SOUTHWEST ALABAMA MEDICAL CENTER,33700 HIGHWAY 43,THOMASVILLE,AL,36784,CLARKE,3346366221,Acute Care Hospitals,Government - Federal,Yes,SCIP-VTE-2
10016,SHELBY BAPTIST MEDICAL CENTER,1000 FIRST STREET NORTH,ALABASTER,AL,35007,SHELBY,2056208100,Acute Care Hospitals,Voluntary non-profit - Church,Yes,AMI-1
10016,SHELBY BAPTIST MEDICAL CENTER,1000 FIRST STREET NORTH,ALABASTER,AL,35007,SHELBY,2056208100,Acute Care Hospitals,Voluntary non-profit - Church,Yes,AMI-2
10016,SHELBY BAPTIST MEDICAL CENTER,1000 FIRST STREET NORTH,ALABASTER,AL,35007,SHELBY,2056208100,Acute Care Hospitals,Voluntary non-profit - Church,Yes,AMI-3
10016,SHELBY BAPTIST MEDICAL CENTER,1000 FIRST STREET NORTH,ALABASTER,AL,35007,SHELBY,2056208100,Acute Care Hospitals,Voluntary non-profit - Church,Yes,AMI-4
10016,SHELBY BAPTIST MEDICAL CENTER,1000 FIRST STREET NORTH,ALABASTER,AL,35007,SHELBY,2056208100,Acute Care Hospitals,Voluntary non-profit - Church,Yes,AMI-5
10016,SHELBY BAPTIST MEDICAL CENTER,1000 FIRST STREET NORTH,ALABASTER,AL,35007,SHELBY,2056208100,Acute Care Hospitals,Voluntary non-profit - Church,Yes,AMI-7A
10016,SHELBY BAPTIST MEDICAL CENTER,1000 FIRST STREET NORTH,ALABASTER,AL,35007,SHELBY,2056208100,Acute Care Hospitals,Voluntary non-profit - Church,Yes,AMI-8A
10016,SHELBY BAPTIST MEDICAL CENTER,1000 FIRST STREET NORTH,ALABASTER,AL,35007,SHELBY,2056208100,Acute Care Hospitals,Voluntary non-profit - Church,Yes,HF-1
10016,SHELBY BAPTIST MEDICAL CENTER,1000 FIRST STREET NORTH,ALABASTER,AL,35007,SHELBY,2056208100,Acute Care Hospitals,Voluntary non-profit - Church,Yes,HF-2
10016,SHELBY BAPTIST MEDICAL CENTER,1000 FIRST STREET NORTH,ALABASTER,AL,35007,SHELBY,2056208100,Acute Care Hospitals,Voluntary non-profit - Church,Yes,HF-3
10016,SHELBY BAPTIST MEDICAL CENTER,1000 FIRST STREET NORTH,ALABASTER,AL,35007,SHELBY,2056208100,Acute Care Hospitals,Voluntary non-profit - Church,Yes,HF-4
10016,SHELBY BAPTIST MEDICAL CENTER,1000 FIRST STREET NORTH,ALABASTER,AL,35007,SHELBY,2056208100,Acute Care Hospitals,Voluntary non-profit - Church,Yes,PN-2
10016,SHELBY BAPTIST MEDICAL CENTER,1000 FIRST STREET NORTH,ALABASTER,AL,35007,SHELBY,2056208100,Acute Care Hospitals,Voluntary non-profit - Church,Yes,PN-3B
10016,SHELBY BAPTIST MEDICAL CENTER,1000 FIRST STREET NORTH,ALABASTER,AL,35007,SHELBY,2056208100,Acute Care Hospitals,Voluntary non-profit - Church,Yes,PN-4
10016,SHELBY BAPTIST MEDICAL CENTER,1000 FIRST STREET NORTH,ALABASTER,AL,35007,SHELBY,2056208100,Acute Care Hospitals,Voluntary non-profit - Church,Yes,PN-5C
10016,SHELBY BAPTIST MEDICAL CENTER,1000 FIRST STREET NORTH,ALABASTER,AL,35007,SHELBY,2056208100,Acute Care Hospitals,Voluntary non-profit - Church,Yes,PN-6
10016,SHELBY BAPTIST MEDICAL CENTER,1000 FIRST STREET NORTH,ALABASTER,AL,35007,SHELBY,2056208100,Acute Care Hospitals,Voluntary non-profit - Church,Yes,PN-7
10016,SHELBY BAPTIST MEDICAL CENTER,1000 FIRST STREET NORTH,ALABASTER,AL,35007,SHELBY,2056208100,Acute Care Hospitals,Voluntary non-profit - Church,Yes,SCIP-CARD-2
10016,SHELBY BAPTIST MEDICAL CENTER,1000 FIRST STREET NORTH,ALABASTER,AL,35007,SHELBY,2056208100,Acute Care Hospitals,Voluntary non-profit - Church,Yes,SCIP-INF-1
10016,SHELBY BAPTIST MEDICAL CENTER,1000 FIRST STREET NORTH,ALABASTER,AL,35007,SHELBY,2056208100,Acute Care Hospitals,Voluntary non-profit - Church,Yes,SCIP-INF-2
10016,SHELBY BAPTIST MEDICAL CENTER,1000 FIRST STREET NORTH,ALABASTER,AL,35007,SHELBY,2056208100,Acute Care Hospitals,Voluntary non-profit - Church,Yes,SCIP-INF-3
10016,SHELBY BAPTIST MEDICAL CENTER,1000 FIRST STREET NORTH,ALABASTER,AL,35007,SHELBY,2056208100,Acute Care Hospitals,Voluntary non-profit - Church,Yes,SCIP-INF-4
10016,SHELBY BAPTIST MEDICAL CENTER,1000 FIRST STREET NORTH,ALABASTER,AL,35007,SHELBY,2056208100,Acute Care Hospitals,Voluntary non-profit - Church,Yes,SCIP-INF-6
10016,SHELBY BAPTIST MEDICAL CENTER,1000 FIRST STREET NORTH,ALABASTER,AL,35007,SHELBY,2056208100,Acute Care Hospitals,Voluntary non-profit - Church,Yes,SCIP-VTE-1
10016,SHELBY BAPTIST MEDICAL CENTER,1000 FIRST STREET NORTH,ALABASTER,AL,35007,SHELBY,2056208100,Acute Care Hospitals,Voluntary non-profit - Church,Yes,SCIP-VTE-2
10018,CALLAHAN EYE FOUNDATION HOSPITAL,1720 UNIVERSITY BLVD,BIRMINGHAM,AL,35233,JEFFERSON,2053258100,Acute Care Hospitals,Voluntary non-profit - Private,Yes,AMI-1
10018,CALLAHAN EYE FOUNDATION HOSPITAL,1720 UNIVERSITY BLVD,BIRMINGHAM,AL,35233,JEFFERSON,2053258100,Acute Care Hospitals,Voluntary non-profit - Private,Yes,AMI-2
10018,CALLAHAN EYE FOUNDATION HOSPITAL,1720 UNIVERSITY BLVD,BIRMINGHAM,AL,35233,JEFFERSON,2053258100,Acute Care Hospitals,Voluntary non-profit - Private,Yes,AMI-3
10018,CALLAHAN EYE FOUNDATION HOSPITAL,1720 UNIVERSITY BLVD,BIRMINGHAM,AL,35233,JEFFERSON,2053258100,Acute Care Hospitals,Voluntary non-profit - Private,Yes,AMI-4
10018,CALLAHAN EYE FOUNDATION HOSPITAL,1720 UNIVERSITY BLVD,BIRMINGHAM,AL,35233,JEFFERSON,2053258100,Acute Care Hospitals,Voluntary non-profit - Private,Yes,AMI-5
10018,CALLAHAN EYE FOUNDATION HOSPITAL,1720 UNIVERSITY BLVD,BIRMINGHAM,AL,35233,JEFFERSON,2053258100,Acute Care Hospitals,Voluntary non-profit - Private,Yes,AMI-7A
10018,CALLAHAN EYE FOUNDATION HOSPITAL,1720 UNIVERSITY BLVD,BIRMINGHAM,AL,35233,JEFFERSON,2053258100,Acute Care Hospitals,Voluntary non-profit - Private,Yes,AMI-8A
10018,CALLAHAN EYE FOUNDATION HOSPITAL,1720 UNIVERSITY BLVD,BIRMINGHAM,AL,35233,JEFFERSON,2053258100,Acute Care Hospitals,Voluntary non-profit - Private,Yes,HF-1
10018,CALLAHAN EYE FOUNDATION HOSPITAL,1720 UNIVERSITY BLVD,BIRMINGHAM,AL,35233,JEFFERSON,2053258100,Acute Care Hospitals,Voluntary non-profit - Private,Yes,HF-2
10018,CALLAHAN EYE FOUNDATION HOSPITAL,1720 UNIVERSITY BLVD,BIRMINGHAM,AL,35233,JEFFERSON,2053258100,Acute Care Hospitals,Voluntary non-profit - Private,Yes,HF-3
10018,CALLAHAN EYE FOUNDATION HOSPITAL,1720 UNIVERSITY BLVD,BIRMINGHAM,AL,35233,JEFFERSON,2053258100,Acute Care Hospitals,Voluntary non-profit - Private,Yes,HF-4
10018,CALLAHAN EYE FOUNDATION HOSPITAL,1720 UNIVERSITY BLVD,BIRMINGHAM,AL,35233,JEFFERSON,2053258100,Acute Care Hospitals,Voluntary non-profit - Private,Yes,PN-2
10018,CALLAHAN EYE FOUNDATION HOSPITAL,1720 UNIVERSITY BLVD,BIRMINGHAM,AL,35233,JEFFERSON,2053258100,Acute Care Hospitals,Voluntary non-profit - Private,Yes,PN-3B
10018,CALLAHAN EYE FOUNDATION HOSPITAL,1720 UNIVERSITY BLVD,BIRMINGHAM,AL,35233,JEFFERSON,2053258100,Acute Care Hospitals,Voluntary non-profit - Private,Yes,PN-4
10018,CALLAHAN EYE FOUNDATION HOSPITAL,1720 UNIVERSITY BLVD,BIRMINGHAM,AL,35233,JEFFERSON,2053258100,Acute Care Hospitals,Voluntary non-profit - Private,Yes,PN-5C
10018,CALLAHAN EYE FOUNDATION HOSPITAL,1720 UNIVERSITY BLVD,BIRMINGHAM,AL,35233,JEFFERSON,2053258100,Acute Care Hospitals,Voluntary non-profit - Private,Yes,PN-6
10018,CALLAHAN EYE FOUNDATION HOSPITAL,1720 UNIVERSITY BLVD,BIRMINGHAM,AL,35233,JEFFERSON,2053258100,Acute Care Hospitals,Voluntary non-profit - Private,Yes,PN-7
10038,STRINGFELLOW MEMORIAL HOSPITAL,301 EAST 18TH ST,ANNISTON,AL,36201,CALHOUN,2562358900,Acute Care Hospitals,Proprietary,Yes,CAC-2
10038,STRINGFELLOW MEMORIAL HOSPITAL,301 EAST 18TH ST,ANNISTON,AL,36201,CALHOUN,2562358900,Acute Care Hospitals,Proprietary,Yes,CAC-3
10038,STRINGFELLOW MEMORIAL HOSPITAL,301 EAST 18TH ST,ANNISTON,AL,36201,CALHOUN,2562358900,Acute Care Hospitals,Proprietary,Yes,AMI-1
10038,STRINGFELLOW MEMORIAL HOSPITAL,301 EAST 18TH ST,ANNISTON,AL,36201,CALHOUN,2562358900,Acute Care Hospitals,Proprietary,Yes,AMI-2
10038,STRINGFELLOW MEMORIAL HOSPITAL,301 EAST 18TH ST,ANNISTON,AL,36201,CALHOUN,2562358900,Acute Care Hospitals,Proprietary,Yes,AMI-3
10038,STRINGFELLOW MEMORIAL HOSPITAL,301 EAST 18TH ST,ANNISTON,AL,36201,CALHOUN,2562358900,Acute Care Hospitals,Proprietary,Yes,AMI-4
10038,STRINGFELLOW MEMORIAL HOSPITAL,301 EAST 18TH ST,ANNISTON,AL,36201,CALHOUN,2562358900,Acute Care Hospitals,Proprietary,Yes,AMI-5
10038,STRINGFELLOW MEMORIAL HOSPITAL,301 EAST 18TH ST,ANNISTON,AL,36201,CALHOUN,2562358900,Acute Care Hospitals,Proprietary,Yes,AMI-7A
10038,STRINGFELLOW MEMORIAL HOSPITAL,301 EAST 18TH ST,ANNISTON,AL,36201,CALHOUN,2562358900,Acute Care Hospitals,Proprietary,Yes,AMI-8A
10038,STRINGFELLOW MEMORIAL HOSPITAL,301 EAST 18TH ST,ANNISTON,AL,36201,CALHOUN,2562358900,Acute Care Hospitals,Proprietary,Yes,HF-1
10038,STRINGFELLOW MEMORIAL HOSPITAL,301 EAST 18TH ST,ANNISTON,AL,36201,CALHOUN,2562358900,Acute Care Hospitals,Proprietary,Yes,HF-2
10038,STRINGFELLOW MEMORIAL HOSPITAL,301 EAST 18TH ST,ANNISTON,AL,36201,CALHOUN,2562358900,Acute Care Hospitals,Proprietary,Yes,HF-3
10038,STRINGFELLOW MEMORIAL HOSPITAL,301 EAST 18TH ST,ANNISTON,AL,36201,CALHOUN,2562358900,Acute Care Hospitals,Proprietary,Yes,HF-4
10038,STRINGFELLOW MEMORIAL HOSPITAL,301 EAST 18TH ST,ANNISTON,AL,36201,CALHOUN,2562358900,Acute Care Hospitals,Proprietary,Yes,PN-2
10038,STRINGFELLOW MEMORIAL HOSPITAL,301 EAST 18TH ST,ANNISTON,AL,36201,CALHOUN,2562358900,Acute Care Hospitals,Proprietary,Yes,PN-3B
10038,STRINGFELLOW MEMORIAL HOSPITAL,301 EAST 18TH ST,ANNISTON,AL,36201,CALHOUN,2562358900,Acute Care Hospitals,Proprietary,Yes,PN-4
10038,STRINGFELLOW MEMORIAL HOSPITAL,301 EAST 18TH ST,ANNISTON,AL,36201,CALHOUN,2562358900,Acute Care Hospitals,Proprietary,Yes,PN-5C
10038,STRINGFELLOW MEMORIAL HOSPITAL,301 EAST 18TH ST,ANNISTON,AL,36201,CALHOUN,2562358900,Acute Care Hospitals,Proprietary,Yes,PN-6
10038,STRINGFELLOW MEMORIAL HOSPITAL,301 EAST 18TH ST,ANNISTON,AL,36201,CALHOUN,2562358900,Acute Care Hospitals,Proprietary,Yes,PN-7
10038,STRINGFELLOW MEMORIAL HOSPITAL,301 EAST 18TH ST,ANNISTON,AL,36201,CALHOUN,2562358900,Acute Care Hospitals,Proprietary,Yes,SCIP-CARD-2
10055,FLOWERS HOSPITAL,4370 WEST MAIN STREET,DOTHAN,AL,36305,HOUSTON,3347935000,Acute Care Hospitals,Proprietary,Yes,HF-2
10055,FLOWERS HOSPITAL,4370 WEST MAIN STREET,DOTHAN,AL,36305,HOUSTON,3347935000,Acute Care Hospitals,Proprietary,Yes,HF-3
10055,FLOWERS HOSPITAL,4370 WEST MAIN STREET,DOTHAN,AL,36305,HOUSTON,3347935000,Acute Care Hospitals,Proprietary,Yes,HF-4
10055,FLOWERS HOSPITAL,4370 WEST MAIN STREET,DOTHAN,AL,36305,HOUSTON,3347935000,Acute Care Hospitals,Proprietary,Yes,PN-2
10055,FLOWERS HOSPITAL,4370 WEST MAIN STREET,DOTHAN,AL,36305,HOUSTON,3347935000,Acute Care Hospitals,Proprietary,Yes,PN-3B
10055,FLOWERS HOSPITAL,4370 WEST MAIN STREET,DOTHAN,AL,36305,HOUSTON,3347935000,Acute Care Hospitals,Proprietary,Yes,PN-4
10055,FLOWERS HOSPITAL,4370 WEST MAIN STREET,DOTHAN,AL,36305,HOUSTON,3347935000,Acute Care Hospitals,Proprietary,Yes,PN-5C
10055,FLOWERS HOSPITAL,4370 WEST MAIN STREET,DOTHAN,AL,36305,HOUSTON,3347935000,Acute Care Hospitals,Proprietary,Yes,PN-6
10055,FLOWERS HOSPITAL,4370 WEST MAIN STREET,DOTHAN,AL,36305,HOUSTON,3347935000,Acute Care Hospitals,Proprietary,Yes,PN-7
10055,FLOWERS HOSPITAL,4370 WEST MAIN STREET,DOTHAN,AL,36305,HOUSTON,3347935000,Acute Care Hospitals,Proprietary,Yes,SCIP-CARD-2
10055,FLOWERS HOSPITAL,4370 WEST MAIN STREET,DOTHAN,AL,36305,HOUSTON,3347935000,Acute Care Hospitals,Proprietary,Yes,SCIP-INF-1
10055,FLOWERS HOSPITAL,4370 WEST MAIN STREET,DOTHAN,AL,36305,HOUSTON,3347935000,Acute Care Hospitals,Proprietary,Yes,SCIP-INF-2
10055,FLOWERS HOSPITAL,4370 WEST MAIN STREET,DOTHAN,AL,36305,HOUSTON,3347935000,Acute Care Hospitals,Proprietary,Yes,SCIP-INF-3
10055,FLOWERS HOSPITAL,4370 WEST MAIN STREET,DOTHAN,AL,36305,HOUSTON,3347935000,Acute Care Hospitals,Proprietary,Yes,SCIP-INF-4
10055,FLOWERS HOSPITAL,4370 WEST MAIN STREET,DOTHAN,AL,36305,HOUSTON,3347935000,Acute Care Hospitals,Proprietary,Yes,SCIP-INF-6
10055,FLOWERS HOSPITAL,4370 WEST MAIN STREET,DOTHAN,AL,36305,HOUSTON,3347935000,Acute Care Hospitals,Proprietary,Yes,SCIP-VTE-1
10055,FLOWERS HOSPITAL,4370 WEST MAIN STREET,DOTHAN,AL,36305,HOUSTON,3347935000,Acute Care Hospitals,Proprietary,Yes,SCIP-VTE-2
10056,ST VINCENTS HOSPITAL,810 ST VINCENTS DRIVE,BIRMINGHAM,AL,35205,JEFFERSON,2059397000,Acute Care Hospitals,Voluntary non-profit - Other,Yes,AMI-1
10056,ST VINCENTS HOSPITAL,810 ST VINCENTS DRIVE,BIRMINGHAM,AL,35205,JEFFERSON,2059397000,Acute Care Hospitals,Voluntary non-profit - Other,Yes,AMI-2
10056,ST VINCENTS HOSPITAL,810 ST VINCENTS DRIVE,BIRMINGHAM,AL,35205,JEFFERSON,2059397000,Acute Care Hospitals,Voluntary non-profit - Other,Yes,AMI-3
10056,ST VINCENTS HOSPITAL,810 ST VINCENTS DRIVE,BIRMINGHAM,AL,35205,JEFFERSON,2059397000,Acute Care Hospitals,Voluntary non-profit - Other,Yes,AMI-4
10056,ST VINCENTS HOSPITAL,810 ST VINCENTS DRIVE,BIRMINGHAM,AL,35205,JEFFERSON,2059397000,Acute Care Hospitals,Voluntary non-profit - Other,Yes,AMI-5
10085,DECATUR GENERAL HOSPITAL,1201 7TH STREET SE,DECATUR,AL,35609,MORGAN,2563412000,Acute Care Hospitals,Government - Hospital District or Authority,Yes,SCIP-VTE-2
10086,NORTHWEST MEDICAL CENTER,1530 U S HIGHWAY 43,WINFIELD,AL,35594,MARION,2054877736,Acute Care Hospitals,Proprietary,Yes,AMI-1
10086,NORTHWEST MEDICAL CENTER,1530 U S HIGHWAY 43,WINFIELD,AL,35594,MARION,2054877736,Acute Care Hospitals,Proprietary,Yes,AMI-2
10086,NORTHWEST MEDICAL CENTER,1530 U S HIGHWAY 43,WINFIELD,AL,35594,MARION,2054877736,Acute Care Hospitals,Proprietary,Yes,AMI-3
10086,NORTHWEST MEDICAL CENTER,1530 U S HIGHWAY 43,WINFIELD,AL,35594,MARION,2054877736,Acute Care Hospitals,Proprietary,Yes,AMI-4
10086,NORTHWEST MEDICAL CENTER,1530 U S HIGHWAY 43,WINFIELD,AL,35594,MARION,2054877736,Acute Care Hospitals,Proprietary,Yes,AMI-5
10086,NORTHWEST MEDICAL CENTER,1530 U S HIGHWAY 43,WINFIELD,AL,35594,MARION,2054877736,Acute Care Hospitals,Proprietary,Yes,AMI-7A
10086,NORTHWEST MEDICAL CENTER,1530 U S HIGHWAY 43,WINFIELD,AL,35594,MARION,2054877736,Acute Care Hospitals,Proprietary,Yes,AMI-8A
10086,NORTHWEST MEDICAL CENTER,1530 U S HIGHWAY 43,WINFIELD,AL,35594,MARION,2054877736,Acute Care Hospitals,Proprietary,Yes,HF-1
10086,NORTHWEST MEDICAL CENTER,1530 U S HIGHWAY 43,WINFIELD,AL,35594,MARION,2054877736,Acute Care Hospitals,Proprietary,Yes,HF-2
10086,NORTHWEST MEDICAL CENTER,1530 U S HIGHWAY 43,WINFIELD,AL,35594,MARION,2054877736,Acute Care Hospitals,Proprietary,Yes,HF-3
10086,NORTHWEST MEDICAL CENTER,1530 U S HIGHWAY 43,WINFIELD,AL,35594,MARION,2054877736,Acute Care Hospitals,Proprietary,Yes,HF-4
10086,NORTHWEST MEDICAL CENTER,1530 U S HIGHWAY 43,WINFIELD,AL,35594,MARION,2054877736,Acute Care Hospitals,Proprietary,Yes,PN-2
10086,NORTHWEST MEDICAL CENTER,1530 U S HIGHWAY 43,WINFIELD,AL,35594,MARION,2054877736,Acute Care Hospitals,Proprietary,Yes,PN-3B
10086,NORTHWEST MEDICAL CENTER,1530 U S HIGHWAY 43,WINFIELD,AL,35594,MARION,2054877736,Acute Care Hospitals,Proprietary,Yes,PN-4
10086,NORTHWEST MEDICAL CENTER,1530 U S HIGHWAY 43,WINFIELD,AL,35594,MARION,2054877736,Acute Care Hospitals,Proprietary,Yes,PN-5C
10086,NORTHWEST MEDICAL CENTER,1530 U S HIGHWAY 43,WINFIELD,AL,35594,MARION,2054877736,Acute Care Hospitals,Proprietary,Yes,PN-6
10086,NORTHWEST MEDICAL CENTER,1530 U S HIGHWAY 43,WINFIELD,AL,35594,MARION,2054877736,Acute Care Hospitals,Proprietary,Yes,PN-7
10086,NORTHWEST MEDICAL CENTER,1530 U S HIGHWAY 43,WINFIELD,AL,35594,MARION,2054877736,Acute Care Hospitals,Proprietary,Yes,SCIP-CARD-2
10086,NORTHWEST MEDICAL CENTER,1530 U S HIGHWAY 43,WINFIELD,AL,35594,MARION,2054877736,Acute Care Hospitals,Proprietary,Yes,SCIP-INF-1
10086,NORTHWEST MEDICAL CENTER,1530 U S HIGHWAY 43,WINFIELD,AL,35594,MARION,2054877736,Acute Care Hospitals,Proprietary,Yes,SCIP-INF-2
10086,NORTHWEST MEDICAL CENTER,1530 U S HIGHWAY 43,WINFIELD,AL,35594,MARION,2054877736,Acute Care Hospitals,Proprietary,Yes,SCIP-INF-3
10086,NORTHWEST MEDICAL CENTER,1530 U S HIGHWAY 43,WINFIELD,AL,35594,MARION,2054877736,Acute Care Hospitals,Proprietary,Yes,SCIP-INF-4
10086,NORTHWEST MEDICAL CENTER,1530 U S HIGHWAY 43,WINFIELD,AL,35594,MARION,2054877736,Acute Care Hospitals,Proprietary,Yes,SCIP-INF-6
10086,NORTHWEST MEDICAL CENTER,1530 U S HIGHWAY 43,WINFIELD,AL,35594,MARION,2054877736,Acute Care Hospitals,Proprietary,Yes,SCIP-VTE-1
10086,NORTHWEST MEDICAL CENTER,1530 U S HIGHWAY 43,WINFIELD,AL,35594,MARION,2054877736,Acute Care Hospitals,Proprietary,Yes,SCIP-VTE-2
10087,UNIV OF SOUTH ALABAMA MEDICAL CENTER,2451 FILLINGIM STREET,MOBILE,AL,36617,MOBILE,2514717110,Acute Care Hospitals,Government - State,Yes,AMI-1
10087,UNIV OF SOUTH ALABAMA MEDICAL CENTER,2451 FILLINGIM STREET,MOBILE,AL,36617,MOBILE,2514717110,Acute Care Hospitals,Government - State,Yes,AMI-2
10087,UNIV OF SOUTH ALABAMA MEDICAL CENTER,2451 FILLINGIM STREET,MOBILE,AL,36617,MOBILE,2514717110,Acute Care Hospitals,Government - State,Yes,AMI-3
10087,UNIV OF SOUTH ALABAMA MEDICAL CENTER,2451 FILLINGIM STREET,MOBILE,AL,36617,MOBILE,2514717110,Acute Care Hospitals,Government - State,Yes,AMI-4
10087,UNIV OF SOUTH ALABAMA MEDICAL CENTER,2451 FILLINGIM STREET,MOBILE,AL,36617,MOBILE,2514717110,Acute Care Hospitals,Government - State,Yes,AMI-5
10087,UNIV OF SOUTH ALABAMA MEDICAL CENTER,2451 FILLINGIM STREET,MOBILE,AL,36617,MOBILE,2514717110,Acute Care Hospitals,Government - State,Yes,AMI-7A
10087,UNIV OF SOUTH ALABAMA MEDICAL CENTER,2451 FILLINGIM STREET,MOBILE,AL,36617,MOBILE,2514717110,Acute Care Hospitals,Government - State,Yes,AMI-8A
10087,UNIV OF SOUTH ALABAMA MEDICAL CENTER,2451 FILLINGIM STREET,MOBILE,AL,36617,MOBILE,2514717110,Acute Care Hospitals,Government - State,Yes,HF-1
10087,UNIV OF SOUTH ALABAMA MEDICAL CENTER,2451 FILLINGIM STREET,MOBILE,AL,36617,MOBILE,2514717110,Acute Care Hospitals,Government - State,Yes,HF-2
10087,UNIV OF SOUTH ALABAMA MEDICAL CENTER,2451 FILLINGIM STREET,MOBILE,AL,36617,MOBILE,2514717110,Acute Care Hospitals,Government - State,Yes,HF-3
10087,UNIV OF SOUTH ALABAMA MEDICAL CENTER,2451 FILLINGIM STREET,MOBILE,AL,36617,MOBILE,2514717110,Acute Care Hospitals,Government - State,Yes,HF-4
10087,UNIV OF SOUTH ALABAMA MEDICAL CENTER,2451 FILLINGIM STREET,MOBILE,AL,36617,MOBILE,2514717110,Acute Care Hospitals,Government - State,Yes,PN-2
10087,UNIV OF SOUTH ALABAMA MEDICAL CENTER,2451 FILLINGIM STREET,MOBILE,AL,36617,MOBILE,2514717110,Acute Care Hospitals,Government - State,Yes,PN-3B
10108,PRATTVILLE BAPTIST HOSPITAL,124 S MEMORIAL DR,PRATTVILLE,AL,36067,AUTAUGA,3343614267,Acute Care Hospitals,Voluntary non-profit - Private,Yes,AMI-2
10108,PRATTVILLE BAPTIST HOSPITAL,124 S MEMORIAL DR,PRATTVILLE,AL,36067,AUTAUGA,3343614267,Acute Care Hospitals,Voluntary non-profit - Private,Yes,AMI-3
10108,PRATTVILLE BAPTIST HOSPITAL,124 S MEMORIAL DR,PRATTVILLE,AL,36067,AUTAUGA,3343614267,Acute Care Hospitals,Voluntary non-profit - Private,Yes,AMI-4
10108,PRATTVILLE BAPTIST HOSPITAL,124 S MEMORIAL DR,PRATTVILLE,AL,36067,AUTAUGA,3343614267,Acute Care Hospitals,Voluntary non-profit - Private,Yes,AMI-5
10108,PRATTVILLE BAPTIST HOSPITAL,124 S MEMORIAL DR,PRATTVILLE,AL,36067,AUTAUGA,3343614267,Acute Care Hospitals,Voluntary non-profit - Private,Yes,AMI-7A
10108,PRATTVILLE BAPTIST HOSPITAL,124 S MEMORIAL DR,PRATTVILLE,AL,36067,AUTAUGA,3343614267,Acute Care Hospitals,Voluntary non-profit - Private,Yes,AMI-8A
10108,PRATTVILLE BAPTIST HOSPITAL,124 S MEMORIAL DR,PRATTVILLE,AL,36067,AUTAUGA,3343614267,Acute Care Hospitals,Voluntary non-profit - Private,Yes,HF-1
10108,PRATTVILLE BAPTIST HOSPITAL,124 S MEMORIAL DR,PRATTVILLE,AL,36067,AUTAUGA,3343614267,Acute Care Hospitals,Voluntary non-profit - Private,Yes,HF-2
10108,PRATTVILLE BAPTIST HOSPITAL,124 S MEMORIAL DR,PRATTVILLE,AL,36067,AUTAUGA,3343614267,Acute Care Hospitals,Voluntary non-profit - Private,Yes,HF-3
10108,PRATTVILLE BAPTIST HOSPITAL,124 S MEMORIAL DR,PRATTVILLE,AL,36067,AUTAUGA,3343614267,Acute Care Hospitals,Voluntary non-profit - Private,Yes,HF-4
10108,PRATTVILLE BAPTIST HOSPITAL,124 S MEMORIAL DR,PRATTVILLE,AL,36067,AUTAUGA,3343614267,Acute Care Hospitals,Voluntary non-profit - Private,Yes,PN-2
10108,PRATTVILLE BAPTIST HOSPITAL,124 S MEMORIAL DR,PRATTVILLE,AL,36067,AUTAUGA,3343614267,Acute Care Hospitals,Voluntary non-profit - Private,Yes,PN-3B
10108,PRATTVILLE BAPTIST HOSPITAL,124 S MEMORIAL DR,PRATTVILLE,AL,36067,AUTAUGA,3343614267,Acute Care Hospitals,Voluntary non-profit - Private,Yes,PN-4
10108,PRATTVILLE BAPTIST HOSPITAL,124 S MEMORIAL DR,PRATTVILLE,AL,36067,AUTAUGA,3343614267,Acute Care Hospitals,Voluntary non-profit - Private,Yes,PN-5C
10108,PRATTVILLE BAPTIST HOSPITAL,124 S MEMORIAL DR,PRATTVILLE,AL,36067,AUTAUGA,3343614267,Acute Care Hospitals,Voluntary non-profit - Private,Yes,PN-6
10108,PRATTVILLE BAPTIST HOSPITAL,124 S MEMORIAL DR,PRATTVILLE,AL,36067,AUTAUGA,3343614267,Acute Care Hospitals,Voluntary non-profit - Private,Yes,PN-7
10108,PRATTVILLE BAPTIST HOSPITAL,124 S MEMORIAL DR,PRATTVILLE,AL,36067,AUTAUGA,3343614267,Acute Care Hospitals,Voluntary non-profit - Private,Yes,SCIP-CARD-2
10108,PRATTVILLE BAPTIST HOSPITAL,124 S MEMORIAL DR,PRATTVILLE,AL,36067,AUTAUGA,3343614267,Acute Care Hospitals,Voluntary non-profit - Private,Yes,SCIP-INF-1
10108,PRATTVILLE BAPTIST HOSPITAL,124 S MEMORIAL DR,PRATTVILLE,AL,36067,AUTAUGA,3343614267,Acute Care Hospitals,Voluntary non-profit - Private,Yes,SCIP-INF-2
10108,PRATTVILLE BAPTIST HOSPITAL,124 S MEMORIAL DR,PRATTVILLE,AL,36067,AUTAUGA,3343614267,Acute Care Hospitals,Voluntary non-profit - Private,Yes,SCIP-INF-3
10158,RUSSELLVILLE HOSPITAL,15155 HIGHWAY 43,RUSSELLVILLE,AL,35653,FRANKLIN,2563321611,Acute Care Hospitals,Proprietary,Yes,SCIP-VTE-1
10158,RUSSELLVILLE HOSPITAL,15155 HIGHWAY 43,RUSSELLVILLE,AL,35653,FRANKLIN,2563321611,Acute Care Hospitals,Proprietary,Yes,SCIP-VTE-2
10164,COOSA VALLEY MEDICAL CENTER,315 W HICKORY ST,SYLACAUGA,AL,35150,TALLADEGA,2562495000,Acute Care Hospitals,Voluntary non-profit - Other,No,AMI-1
10164,COOSA VALLEY MEDICAL CENTER,315 W HICKORY ST,SYLACAUGA,AL,35150,TALLADEGA,2562495000,Acute Care Hospitals,Voluntary non-profit - Other,No,AMI-2
10164,COOSA VALLEY MEDICAL CENTER,315 W HICKORY ST,SYLACAUGA,AL,35150,TALLADEGA,2562495000,Acute Care Hospitals,Voluntary non-profit - Other,No,AMI-3
10164,COOSA VALLEY MEDICAL CENTER,315 W HICKORY ST,SYLACAUGA,AL,35150,TALLADEGA,2562495000,Acute Care Hospitals,Voluntary non-profit - Other,No,AMI-4
10164,COOSA VALLEY MEDICAL CENTER,315 W HICKORY ST,SYLACAUGA,AL,35150,TALLADEGA,2562495000,Acute Care Hospitals,Voluntary non-profit - Other,No,AMI-5
10164,COOSA VALLEY MEDICAL CENTER,315 W HICKORY ST,SYLACAUGA,AL,35150,TALLADEGA,2562495000,Acute Care Hospitals,Voluntary non-profit - Other,No,AMI-7A
10164,COOSA VALLEY MEDICAL CENTER,315 W HICKORY ST,SYLACAUGA,AL,35150,TALLADEGA,2562495000,Acute Care Hospitals,Voluntary non-profit - Other,No,AMI-8A
10164,COOSA VALLEY MEDICAL CENTER,315 W HICKORY ST,SYLACAUGA,AL,35150,TALLADEGA,2562495000,Acute Care Hospitals,Voluntary non-profit - Other,No,HF-1
10164,COOSA VALLEY MEDICAL CENTER,315 W HICKORY ST,SYLACAUGA,AL,35150,TALLADEGA,2562495000,Acute Care Hospitals,Voluntary non-profit - Other,No,HF-2
10164,COOSA VALLEY MEDICAL CENTER,315 W HICKORY ST,SYLACAUGA,AL,35150,TALLADEGA,2562495000,Acute Care Hospitals,Voluntary non-profit - Other,No,HF-3
10164,COOSA VALLEY MEDICAL CENTER,315 W HICKORY ST,SYLACAUGA,AL,35150,TALLADEGA,2562495000,Acute Care Hospitals,Voluntary non-profit - Other,No,HF-4
10164,COOSA VALLEY MEDICAL CENTER,315 W HICKORY ST,SYLACAUGA,AL,35150,TALLADEGA,2562495000,Acute Care Hospitals,Voluntary non-profit - Other,No,PN-2
10164,COOSA VALLEY MEDICAL CENTER,315 W HICKORY ST,SYLACAUGA,AL,35150,TALLADEGA,2562495000,Acute Care Hospitals,Voluntary non-profit - Other,No,PN-3B
10164,COOSA VALLEY MEDICAL CENTER,315 W HICKORY ST,SYLACAUGA,AL,35150,TALLADEGA,2562495000,Acute Care Hospitals,Voluntary non-profit - Other,No,PN-4
10164,COOSA VALLEY MEDICAL CENTER,315 W HICKORY ST,SYLACAUGA,AL,35150,TALLADEGA,2562495000,Acute Care Hospitals,Voluntary non-profit - Other,No,PN-5C
10164,COOSA VALLEY MEDICAL CENTER,315 W HICKORY ST,SYLACAUGA,AL,35150,TALLADEGA,2562495000,Acute Care Hospitals,Voluntary non-profit - Other,No,PN-6
10164,COOSA VALLEY MEDICAL CENTER,315 W HICKORY ST,SYLACAUGA,AL,35150,TALLADEGA,2562495000,Acute Care Hospitals,Voluntary non-profit - Other,No,PN-7
10164,COOSA VALLEY MEDICAL CENTER,315 W HICKORY ST,SYLACAUGA,AL,35150,TALLADEGA,2562495000,Acute Care Hospitals,Voluntary non-profit - Other,No,SCIP-CARD-2
20017,ALASKA REGIONAL HOSPITAL,2801 DEBARR ROAD,ANCHORAGE,AK,99508,ANCHORAGE,9072761131,Acute Care Hospitals,Proprietary,Yes,HF-1
20017,ALASKA REGIONAL HOSPITAL,2801 DEBARR ROAD,ANCHORAGE,AK,99508,ANCHORAGE,9072761131,Acute Care Hospitals,Proprietary,Yes,HF-2
20017,ALASKA REGIONAL HOSPITAL,2801 DEBARR ROAD,ANCHORAGE,AK,99508,ANCHORAGE,9072761131,Acute Care Hospitals,Proprietary,Yes,HF-3
20017,ALASKA REGIONAL HOSPITAL,2801 DEBARR ROAD,ANCHORAGE,AK,99508,ANCHORAGE,9072761131,Acute Care Hospitals,Proprietary,Yes,HF-4
20017,ALASKA REGIONAL HOSPITAL,2801 DEBARR ROAD,ANCHORAGE,AK,99508,ANCHORAGE,9072761131,Acute Care Hospitals,Proprietary,Yes,PN-2
20017,ALASKA REGIONAL HOSPITAL,2801 DEBARR ROAD,ANCHORAGE,AK,99508,ANCHORAGE,9072761131,Acute Care Hospitals,Proprietary,Yes,PN-3B
20017,ALASKA REGIONAL HOSPITAL,2801 DEBARR ROAD,ANCHORAGE,AK,99508,ANCHORAGE,9072761131,Acute Care Hospitals,Proprietary,Yes,PN-4
20017,ALASKA REGIONAL HOSPITAL,2801 DEBARR ROAD,ANCHORAGE,AK,99508,ANCHORAGE,9072761131,Acute Care Hospitals,Proprietary,Yes,PN-5C
20017,ALASKA REGIONAL HOSPITAL,2801 DEBARR ROAD,ANCHORAGE,AK,99508,ANCHORAGE,9072761131,Acute Care Hospitals,Proprietary,Yes,PN-6
20017,ALASKA REGIONAL HOSPITAL,2801 DEBARR ROAD,ANCHORAGE,AK,99508,ANCHORAGE,9072761131,Acute Care Hospitals,Proprietary,Yes,PN-7
20017,ALASKA REGIONAL HOSPITAL,2801 DEBARR ROAD,ANCHORAGE,AK,99508,ANCHORAGE,9072761131,Acute Care Hospitals,Proprietary,Yes,SCIP-CARD-2
20017,ALASKA REGIONAL HOSPITAL,2801 DEBARR ROAD,ANCHORAGE,AK,99508,ANCHORAGE,9072761131,Acute Care Hospitals,Proprietary,Yes,SCIP-INF-1
20017,ALASKA REGIONAL HOSPITAL,2801 DEBARR ROAD,ANCHORAGE,AK,99508,ANCHORAGE,9072761131,Acute Care Hospitals,Proprietary,Yes,SCIP-INF-2
20017,ALASKA REGIONAL HOSPITAL,2801 DEBARR ROAD,ANCHORAGE,AK,99508,ANCHORAGE,9072761131,Acute Care Hospitals,Proprietary,Yes,SCIP-INF-3
20017,ALASKA REGIONAL HOSPITAL,2801 DEBARR ROAD,ANCHORAGE,AK,99508,ANCHORAGE,9072761131,Acute Care Hospitals,Proprietary,Yes,SCIP-INF-4
20017,ALASKA REGIONAL HOSPITAL,2801 DEBARR ROAD,ANCHORAGE,AK,99508,ANCHORAGE,9072761131,Acute Care Hospitals,Proprietary,Yes,SCIP-INF-6
20017,ALASKA REGIONAL HOSPITAL,2801 DEBARR ROAD,ANCHORAGE,AK,99508,ANCHORAGE,9072761131,Acute Care Hospitals,Proprietary,Yes,SCIP-VTE-1
20017,ALASKA REGIONAL HOSPITAL,2801 DEBARR ROAD,ANCHORAGE,AK,99508,ANCHORAGE,9072761131,Acute Care Hospitals,Proprietary,Yes,SCIP-VTE-2
20018,YUKON KUSKOKWIM DELTA REG HOSPITAL,PO BOX 287,BETHEL,AK,99559,BETHEL,9075436300,Acute Care Hospitals,Government - Federal,No,AMI-1
20018,YUKON KUSKOKWIM DELTA REG HOSPITAL,PO BOX 287,BETHEL,AK,99559,BETHEL,9075436300,Acute Care Hospitals,Government - Federal,No,AMI-2
10019,HELEN KELLER MEMORIAL HOSPITAL,1300 SOUTH MONTGOMERY AVENUE,SHEFFIELD,AL,35660,JEFFERSON,2563864556,Acute Care Hospitals,Government - Hospital District or Authority,Yes,PN-2
10019,HELEN KELLER MEMORIAL HOSPITAL,1300 SOUTH MONTGOMERY AVENUE,SHEFFIELD,AL,35660,JEFFERSON,2563864556,Acute Care Hospitals,Government - Hospital District or Authority,Yes,PN-3B
10019,HELEN KELLER MEMORIAL HOSPITAL,1300 SOUTH MONTGOMERY AVENUE,SHEFFIELD,AL,35660,JEFFERSON,2563864556,Acute Care Hospitals,Government - Hospital District or Authority,Yes,PN-4
10019,HELEN KELLER MEMORIAL HOSPITAL,1300 SOUTH MONTGOMERY AVENUE,SHEFFIELD,AL,35660,JEFFERSON,2563864556,Acute Care Hospitals,Government - Hospital District or Authority,Yes,PN-5C
10019,HELEN KELLER MEMORIAL HOSPITAL,1300 SOUTH MONTGOMERY AVENUE,SHEFFIELD,AL,35660,JEFFERSON,2563864556,Acute Care Hospitals,Government - Hospital District or Authority,Yes,PN-6
10019,HELEN KELLER MEMORIAL HOSPITAL,1300 SOUTH MONTGOMERY AVENUE,SHEFFIELD,AL,35660,JEFFERSON,2563864556,Acute Care Hospitals,Government - Hospital District or Authority,Yes,PN-7
10019,HELEN KELLER MEMORIAL HOSPITAL,1300 SOUTH MONTGOMERY AVENUE,SHEFFIELD,AL,35660,JEFFERSON,2563864556,Acute Care Hospitals,Government - Hospital District or Authority,Yes,SCIP-CARD-2
10019,HELEN KELLER MEMORIAL HOSPITAL,1300 SOUTH MONTGOMERY AVENUE,SHEFFIELD,AL,35660,JEFFERSON,2563864556,Acute Care Hospitals,Government - Hospital District or Authority,Yes,SCIP-INF-1
10019,HELEN KELLER MEMORIAL HOSPITAL,1300 SOUTH MONTGOMERY AVENUE,SHEFFIELD,AL,35660,JEFFERSON,2563864556,Acute Care Hospitals,Government - Hospital District or Authority,Yes,SCIP-INF-2
10019,HELEN KELLER MEMORIAL HOSPITAL,1300 SOUTH MONTGOMERY AVENUE,SHEFFIELD,AL,35660,JEFFERSON,2563864556,Acute Care Hospitals,Government - Hospital District or Authority,Yes,SCIP-INF-3
10019,HELEN KELLER MEMORIAL HOSPITAL,1300 SOUTH MONTGOMERY AVENUE,SHEFFIELD,AL,35660,JEFFERSON,2563864556,Acute Care Hospitals,Government - Hospital District or Authority,Yes,SCIP-INF-4
10019,HELEN KELLER MEMORIAL HOSPITAL,1300 SOUTH MONTGOMERY AVENUE,SHEFFIELD,AL,35660,JEFFERSON,2563864556,Acute Care Hospitals,Government - Hospital District or Authority,Yes,SCIP-INF-6
10019,HELEN KELLER MEMORIAL HOSPITAL,1300 SOUTH MONTGOMERY AVENUE,SHEFFIELD,AL,35660,JEFFERSON,2563864556,Acute Care Hospitals,Government - Hospital District or Authority,Yes,SCIP-VTE-1
10019,HELEN KELLER MEMORIAL HOSPITAL,1300 SOUTH MONTGOMERY AVENUE,SHEFFIELD,AL,35660,JEFFERSON,2563864556,Acute Care Hospitals,Government - Hospital District or Authority,Yes,SCIP-VTE-2
10021,DALE MEDICAL CENTER,126 HOSPITAL AVE,OZARK,AL,36360,DALE,3347742601,Acute Care Hospitals,Government - Hospital District or Authority,Yes,AMI-1
10021,DALE MEDICAL CENTER,126 HOSPITAL AVE,OZARK,AL,36360,DALE,3347742601,Acute Care Hospitals,Government - Hospital District or Authority,Yes,AMI-2
10021,DALE MEDICAL CENTER,126 HOSPITAL AVE,OZARK,AL,36360,DALE,3347742601,Acute Care Hospitals,Government - Hospital District or Authority,Yes,AMI-3
10021,DALE MEDICAL CENTER,126 HOSPITAL AVE,OZARK,AL,36360,DALE,3347742601,Acute Care Hospitals,Government - Hospital District or Authority,Yes,AMI-4
10021,DALE MEDICAL CENTER,126 HOSPITAL AVE,OZARK,AL,36360,DALE,3347742601,Acute Care Hospitals,Government - Hospital District or Authority,Yes,AMI-5
10021,DALE MEDICAL CENTER,126 HOSPITAL AVE,OZARK,AL,36360,DALE,3347742601,Acute Care Hospitals,Government - Hospital District or Authority,Yes,AMI-7A
10021,DALE MEDICAL CENTER,126 HOSPITAL AVE,OZARK,AL,36360,DALE,3347742601,Acute Care Hospitals,Government - Hospital District or Authority,Yes,AMI-8A
10021,DALE MEDICAL CENTER,126 HOSPITAL AVE,OZARK,AL,36360,DALE,3347742601,Acute Care Hospitals,Government - Hospital District or Authority,Yes,HF-1
10021,DALE MEDICAL CENTER,126 HOSPITAL AVE,OZARK,AL,36360,DALE,3347742601,Acute Care Hospitals,Government - Hospital District or Authority,Yes,HF-2
10021,DALE MEDICAL CENTER,126 HOSPITAL AVE,OZARK,AL,36360,DALE,3347742601,Acute Care Hospitals,Government - Hospital District or Authority,Yes,HF-3
10021,DALE MEDICAL CENTER,126 HOSPITAL AVE,OZARK,AL,36360,DALE,3347742601,Acute Care Hospitals,Government - Hospital District or Authority,Yes,HF-4
10021,DALE MEDICAL CENTER,126 HOSPITAL AVE,OZARK,AL,36360,DALE,3347742601,Acute Care Hospitals,Government - Hospital District or Authority,Yes,PN-2
10021,DALE MEDICAL CENTER,126 HOSPITAL AVE,OZARK,AL,36360,DALE,3347742601,Acute Care Hospitals,Government - Hospital District or Authority,Yes,PN-3B
10021,DALE MEDICAL CENTER,126 HOSPITAL AVE,OZARK,AL,36360,DALE,3347742601,Acute Care Hospitals,Government - Hospital District or Authority,Yes,PN-4
10021,DALE MEDICAL CENTER,126 HOSPITAL AVE,OZARK,AL,36360,DALE,3347742601,Acute Care Hospitals,Government - Hospital District or Authority,Yes,PN-5C
10021,DALE MEDICAL CENTER,126 HOSPITAL AVE,OZARK,AL,36360,DALE,3347742601,Acute Care Hospitals,Government - Hospital District or Authority,Yes,PN-6
10021,DALE MEDICAL CENTER,126 HOSPITAL AVE,OZARK,AL,36360,DALE,3347742601,Acute Care Hospitals,Government - Hospital District or Authority,Yes,PN-7
10021,DALE MEDICAL CENTER,126 HOSPITAL AVE,OZARK,AL,36360,DALE,3347742601,Acute Care Hospitals,Government - Hospital District or Authority,Yes,SCIP-CARD-2
10021,DALE MEDICAL CENTER,126 HOSPITAL AVE,OZARK,AL,36360,DALE,3347742601,Acute Care Hospitals,Government - Hospital District or Authority,Yes,SCIP-INF-1
10021,DALE MEDICAL CENTER,126 HOSPITAL AVE,OZARK,AL,36360,DALE,3347742601,Acute Care Hospitals,Government - Hospital District or Authority,Yes,SCIP-INF-2
10021,DALE MEDICAL CENTER,126 HOSPITAL AVE,OZARK,AL,36360,DALE,3347742601,Acute Care Hospitals,Government - Hospital District or Authority,Yes,SCIP-INF-3
10021,DALE MEDICAL CENTER,126 HOSPITAL AVE,OZARK,AL,36360,DALE,3347742601,Acute Care Hospitals,Government - Hospital District or Authority,Yes,SCIP-INF-4
10021,DALE MEDICAL CENTER,126 HOSPITAL AVE,OZARK,AL,36360,DALE,3347742601,Acute Care Hospitals,Government - Hospital District or Authority,Yes,SCIP-INF-6
10021,DALE MEDICAL CENTER,126 HOSPITAL AVE,OZARK,AL,36360,DALE,3347742601,Acute Care Hospitals,Government - Hospital District or Authority,Yes,SCIP-VTE-1
10021,DALE MEDICAL CENTER,126 HOSPITAL AVE,OZARK,AL,36360,DALE,3347742601,Acute Care Hospitals,Government - Hospital District or Authority,Yes,SCIP-VTE-2
10022,CHEROKEE MEDICAL CENTER,400 NORTHWOOD DR,CENTRE,AL,35960,CHEROKEE,2569275531,Acute Care Hospitals,Voluntary non-profit - Private,Yes,AMI-1
10022,CHEROKEE MEDICAL CENTER,400 NORTHWOOD DR,CENTRE,AL,35960,CHEROKEE,2569275531,Acute Care Hospitals,Voluntary non-profit - Private,Yes,AMI-2
10022,CHEROKEE MEDICAL CENTER,400 NORTHWOOD DR,CENTRE,AL,35960,CHEROKEE,2569275531,Acute Care Hospitals,Voluntary non-profit - Private,Yes,AMI-3
10022,CHEROKEE MEDICAL CENTER,400 NORTHWOOD DR,CENTRE,AL,35960,CHEROKEE,2569275531,Acute Care Hospitals,Voluntary non-profit - Private,Yes,AMI-4
10022,CHEROKEE MEDICAL CENTER,400 NORTHWOOD DR,CENTRE,AL,35960,CHEROKEE,2569275531,Acute Care Hospitals,Voluntary non-profit - Private,Yes,AMI-5
10022,CHEROKEE MEDICAL CENTER,400 NORTHWOOD DR,CENTRE,AL,35960,CHEROKEE,2569275531,Acute Care Hospitals,Voluntary non-profit - Private,Yes,AMI-7A
10022,CHEROKEE MEDICAL CENTER,400 NORTHWOOD DR,CENTRE,AL,35960,CHEROKEE,2569275531,Acute Care Hospitals,Voluntary non-profit - Private,Yes,AMI-8A
10022,CHEROKEE MEDICAL CENTER,400 NORTHWOOD DR,CENTRE,AL,35960,CHEROKEE,2569275531,Acute Care Hospitals,Voluntary non-profit - Private,Yes,HF-1
10022,CHEROKEE MEDICAL CENTER,400 NORTHWOOD DR,CENTRE,AL,35960,CHEROKEE,2569275531,Acute Care Hospitals,Voluntary non-profit - Private,Yes,HF-2
10022,CHEROKEE MEDICAL CENTER,400 NORTHWOOD DR,CENTRE,AL,35960,CHEROKEE,2569275531,Acute Care Hospitals,Voluntary non-profit - Private,Yes,HF-3
10022,CHEROKEE MEDICAL CENTER,400 NORTHWOOD DR,CENTRE,AL,35960,CHEROKEE,2569275531,Acute Care Hospitals,Voluntary non-profit - Private,Yes,HF-4
10022,CHEROKEE MEDICAL CENTER,400 NORTHWOOD DR,CENTRE,AL,35960,CHEROKEE,2569275531,Acute Care Hospitals,Voluntary non-profit - Private,Yes,PN-2
10022,CHEROKEE MEDICAL CENTER,400 NORTHWOOD DR,CENTRE,AL,35960,CHEROKEE,2569275531,Acute Care Hospitals,Voluntary non-profit - Private,Yes,PN-3B
10022,CHEROKEE MEDICAL CENTER,400 NORTHWOOD DR,CENTRE,AL,35960,CHEROKEE,2569275531,Acute Care Hospitals,Voluntary non-profit - Private,Yes,PN-4
10022,CHEROKEE MEDICAL CENTER,400 NORTHWOOD DR,CENTRE,AL,35960,CHEROKEE,2569275531,Acute Care Hospitals,Voluntary non-profit - Private,Yes,PN-5C
10022,CHEROKEE MEDICAL CENTER,400 NORTHWOOD DR,CENTRE,AL,35960,CHEROKEE,2569275531,Acute Care Hospitals,Voluntary non-profit - Private,Yes,PN-6
10022,CHEROKEE MEDICAL CENTER,400 NORTHWOOD DR,CENTRE,AL,35960,CHEROKEE,2569275531,Acute Care Hospitals,Voluntary non-profit - Private,Yes,PN-7
10022,CHEROKEE MEDICAL CENTER,400 NORTHWOOD DR,CENTRE,AL,35960,CHEROKEE,2569275531,Acute Care Hospitals,Voluntary non-profit - Private,Yes,SCIP-CARD-2
10022,CHEROKEE MEDICAL CENTER,400 NORTHWOOD DR,CENTRE,AL,35960,CHEROKEE,2569275531,Acute Care Hospitals,Voluntary non-profit - Private,Yes,SCIP-INF-1
10022,CHEROKEE MEDICAL CENTER,400 NORTHWOOD DR,CENTRE,AL,35960,CHEROKEE,2569275531,Acute Care Hospitals,Voluntary non-profit - Private,Yes,SCIP-INF-2
10022,CHEROKEE MEDICAL CENTER,400 NORTHWOOD DR,CENTRE,AL,35960,CHEROKEE,2569275531,Acute Care Hospitals,Voluntary non-profit - Private,Yes,SCIP-INF-3
10022,CHEROKEE MEDICAL CENTER,400 NORTHWOOD DR,CENTRE,AL,35960,CHEROKEE,2569275531,Acute Care Hospitals,Voluntary non-profit - Private,Yes,SCIP-INF-4
10022,CHEROKEE MEDICAL CENTER,400 NORTHWOOD DR,CENTRE,AL,35960,CHEROKEE,2569275531,Acute Care Hospitals,Voluntary non-profit - Private,Yes,SCIP-INF-6
10022,CHEROKEE MEDICAL CENTER,400 NORTHWOOD DR,CENTRE,AL,35960,CHEROKEE,2569275531,Acute Care Hospitals,Voluntary non-profit - Private,Yes,SCIP-VTE-1
10022,CHEROKEE MEDICAL CENTER,400 NORTHWOOD DR,CENTRE,AL,35960,CHEROKEE,2569275531,Acute Care Hospitals,Voluntary non-profit - Private,Yes,SCIP-VTE-2
10023,BAPTIST MEDICAL CENTER SOUTH,2105 EAST SOUTH BOULEVARD,MONTGOMERY,AL,36116,MONTGOMERY,3342882100,Acute Care Hospitals,Voluntary non-profit - Church,Yes,AMI-1
10023,BAPTIST MEDICAL CENTER SOUTH,2105 EAST SOUTH BOULEVARD,MONTGOMERY,AL,36116,MONTGOMERY,3342882100,Acute Care Hospitals,Voluntary non-profit - Church,Yes,AMI-2
10023,BAPTIST MEDICAL CENTER SOUTH,2105 EAST SOUTH BOULEVARD,MONTGOMERY,AL,36116,MONTGOMERY,3342882100,Acute Care Hospitals,Voluntary non-profit - Church,Yes,AMI-3
10023,BAPTIST MEDICAL CENTER SOUTH,2105 EAST SOUTH BOULEVARD,MONTGOMERY,AL,36116,MONTGOMERY,3342882100,Acute Care Hospitals,Voluntary non-profit - Church,Yes,AMI-4
10023,BAPTIST MEDICAL CENTER SOUTH,2105 EAST SOUTH BOULEVARD,MONTGOMERY,AL,36116,MONTGOMERY,3342882100,Acute Care Hospitals,Voluntary non-profit - Church,Yes,AMI-5
10023,BAPTIST MEDICAL CENTER SOUTH,2105 EAST SOUTH BOULEVARD,MONTGOMERY,AL,36116,MONTGOMERY,3342882100,Acute Care Hospitals,Voluntary non-profit - Church,Yes,AMI-7A
10023,BAPTIST MEDICAL CENTER SOUTH,2105 EAST SOUTH BOULEVARD,MONTGOMERY,AL,36116,MONTGOMERY,3342882100,Acute Care Hospitals,Voluntary non-profit - Church,Yes,AMI-8A
10023,BAPTIST MEDICAL CENTER SOUTH,2105 EAST SOUTH BOULEVARD,MONTGOMERY,AL,36116,MONTGOMERY,3342882100,Acute Care Hospitals,Voluntary non-profit - Church,Yes,HF-1
10023,BAPTIST MEDICAL CENTER SOUTH,2105 EAST SOUTH BOULEVARD,MONTGOMERY,AL,36116,MONTGOMERY,3342882100,Acute Care Hospitals,Voluntary non-profit - Church,Yes,HF-2
10023,BAPTIST MEDICAL CENTER SOUTH,2105 EAST SOUTH BOULEVARD,MONTGOMERY,AL,36116,MONTGOMERY,3342882100,Acute Care Hospitals,Voluntary non-profit - Church,Yes,HF-3
10023,BAPTIST MEDICAL CENTER SOUTH,2105 EAST SOUTH BOULEVARD,MONTGOMERY,AL,36116,MONTGOMERY,3342882100,Acute Care Hospitals,Voluntary non-profit - Church,Yes,HF-4
10023,BAPTIST MEDICAL CENTER SOUTH,2105 EAST SOUTH BOULEVARD,MONTGOMERY,AL,36116,MONTGOMERY,3342882100,Acute Care Hospitals,Voluntary non-profit - Church,Yes,PN-2
10023,BAPTIST MEDICAL CENTER SOUTH,2105 EAST SOUTH BOULEVARD,MONTGOMERY,AL,36116,MONTGOMERY,3342882100,Acute Care Hospitals,Voluntary non-profit - Church,Yes,PN-3B
10023,BAPTIST MEDICAL CENTER SOUTH,2105 EAST SOUTH BOULEVARD,MONTGOMERY,AL,36116,MONTGOMERY,3342882100,Acute Care Hospitals,Voluntary non-profit - Church,Yes,PN-4
10023,BAPTIST MEDICAL CENTER SOUTH,2105 EAST SOUTH BOULEVARD,MONTGOMERY,AL,36116,MONTGOMERY,3342882100,Acute Care Hospitals,Voluntary non-profit - Church,Yes,PN-5C
10023,BAPTIST MEDICAL CENTER SOUTH,2105 EAST SOUTH BOULEVARD,MONTGOMERY,AL,36116,MONTGOMERY,3342882100,Acute Care Hospitals,Voluntary non-profit - Church,Yes,PN-6
10023,BAPTIST MEDICAL CENTER SOUTH,2105 EAST SOUTH BOULEVARD,MONTGOMERY,AL,36116,MONTGOMERY,3342882100,Acute Care Hospitals,Voluntary non-profit - Church,Yes,PN-7
10023,BAPTIST MEDICAL CENTER SOUTH,2105 EAST SOUTH BOULEVARD,MONTGOMERY,AL,36116,MONTGOMERY,3342882100,Acute Care Hospitals,Voluntary non-profit - Church,Yes,SCIP-CARD-2
10023,BAPTIST MEDICAL CENTER SOUTH,2105 EAST SOUTH BOULEVARD,MONTGOMERY,AL,36116,MONTGOMERY,3342882100,Acute Care Hospitals,Voluntary non-profit - Church,Yes,SCIP-INF-1
10023,BAPTIST MEDICAL CENTER SOUTH,2105 EAST SOUTH BOULEVARD,MONTGOMERY,AL,36116,MONTGOMERY,3342882100,Acute Care Hospitals,Voluntary non-profit - Church,Yes,SCIP-INF-2
10023,BAPTIST MEDICAL CENTER SOUTH,2105 EAST SOUTH BOULEVARD,MONTGOMERY,AL,36116,MONTGOMERY,3342882100,Acute Care Hospitals,Voluntary non-profit - Church,Yes,SCIP-INF-3
10023,BAPTIST MEDICAL CENTER SOUTH,2105 EAST SOUTH BOULEVARD,MONTGOMERY,AL,36116,MONTGOMERY,3342882100,Acute Care Hospitals,Voluntary non-profit - Church,Yes,SCIP-INF-4
10023,BAPTIST MEDICAL CENTER SOUTH,2105 EAST SOUTH BOULEVARD,MONTGOMERY,AL,36116,MONTGOMERY,3342882100,Acute Care Hospitals,Voluntary non-profit - Church,Yes,SCIP-INF-6
10023,BAPTIST MEDICAL CENTER SOUTH,2105 EAST SOUTH BOULEVARD,MONTGOMERY,AL,36116,MONTGOMERY,3342882100,Acute Care Hospitals,Voluntary non-profit - Church,Yes,SCIP-VTE-1
10023,BAPTIST MEDICAL CENTER SOUTH,2105 EAST SOUTH BOULEVARD,MONTGOMERY,AL,36116,MONTGOMERY,3342882100,Acute Care Hospitals,Voluntary non-profit - Church,Yes,SCIP-VTE-2
10024,JACKSON HOSPITAL & CLINIC INC,1725 PINE STREET,MONTGOMERY,AL,36106,MONTGOMERY,3342938000,Acute Care Hospitals,Voluntary non-profit - Private,Yes,AMI-1
10024,JACKSON HOSPITAL & CLINIC INC,1725 PINE STREET,MONTGOMERY,AL,36106,MONTGOMERY,3342938000,Acute Care Hospitals,Voluntary non-profit - Private,Yes,AMI-2
10024,JACKSON HOSPITAL & CLINIC INC,1725 PINE STREET,MONTGOMERY,AL,36106,MONTGOMERY,3342938000,Acute Care Hospitals,Voluntary non-profit - Private,Yes,AMI-3
10024,JACKSON HOSPITAL & CLINIC INC,1725 PINE STREET,MONTGOMERY,AL,36106,MONTGOMERY,3342938000,Acute Care Hospitals,Voluntary non-profit - Private,Yes,AMI-4
10024,JACKSON HOSPITAL & CLINIC INC,1725 PINE STREET,MONTGOMERY,AL,36106,MONTGOMERY,3342938000,Acute Care Hospitals,Voluntary non-profit - Private,Yes,AMI-5
10024,JACKSON HOSPITAL & CLINIC INC,1725 PINE STREET,MONTGOMERY,AL,36106,MONTGOMERY,3342938000,Acute Care Hospitals,Voluntary non-profit - Private,Yes,AMI-7A
10024,JACKSON HOSPITAL & CLINIC INC,1725 PINE STREET,MONTGOMERY,AL,36106,MONTGOMERY,3342938000,Acute Care Hospitals,Voluntary non-profit - Private,Yes,AMI-8A
10024,JACKSON HOSPITAL & CLINIC INC,1725 PINE STREET,MONTGOMERY,AL,36106,MONTGOMERY,3342938000,Acute Care Hospitals,Voluntary non-profit - Private,Yes,HF-1
10024,JACKSON HOSPITAL & CLINIC INC,1725 PINE STREET,MONTGOMERY,AL,36106,MONTGOMERY,3342938000,Acute Care Hospitals,Voluntary non-profit - Private,Yes,HF-2
10024,JACKSON HOSPITAL & CLINIC INC,1725 PINE STREET,MONTGOMERY,AL,36106,MONTGOMERY,3342938000,Acute Care Hospitals,Voluntary non-profit - Private,Yes,HF-3
10024,JACKSON HOSPITAL & CLINIC INC,1725 PINE STREET,MONTGOMERY,AL,36106,MONTGOMERY,3342938000,Acute Care Hospitals,Voluntary non-profit - Private,Yes,HF-4
10024,JACKSON HOSPITAL & CLINIC INC,1725 PINE STREET,MONTGOMERY,AL,36106,MONTGOMERY,3342938000,Acute Care Hospitals,Voluntary non-profit - Private,Yes,PN-2
10024,JACKSON HOSPITAL & CLINIC INC,1725 PINE STREET,MONTGOMERY,AL,36106,MONTGOMERY,3342938000,Acute Care Hospitals,Voluntary non-profit - Private,Yes,PN-3B
10024,JACKSON HOSPITAL & CLINIC INC,1725 PINE STREET,MONTGOMERY,AL,36106,MONTGOMERY,3342938000,Acute Care Hospitals,Voluntary non-profit - Private,Yes,PN-4
10024,JACKSON HOSPITAL & CLINIC INC,1725 PINE STREET,MONTGOMERY,AL,36106,MONTGOMERY,3342938000,Acute Care Hospitals,Voluntary non-profit - Private,Yes,PN-5C
10024,JACKSON HOSPITAL & CLINIC INC,1725 PINE STREET,MONTGOMERY,AL,36106,MONTGOMERY,3342938000,Acute Care Hospitals,Voluntary non-profit - Private,Yes,PN-6
10024,JACKSON HOSPITAL & CLINIC INC,1725 PINE STREET,MONTGOMERY,AL,36106,MONTGOMERY,3342938000,Acute Care Hospitals,Voluntary non-profit - Private,Yes,PN-7
10024,JACKSON HOSPITAL & CLINIC INC,1725 PINE STREET,MONTGOMERY,AL,36106,MONTGOMERY,3342938000,Acute Care Hospitals,Voluntary non-profit - Private,Yes,SCIP-CARD-2
10024,JACKSON HOSPITAL & CLINIC INC,1725 PINE STREET,MONTGOMERY,AL,36106,MONTGOMERY,3342938000,Acute Care Hospitals,Voluntary non-profit - Private,Yes,SCIP-INF-1
10024,JACKSON HOSPITAL & CLINIC INC,1725 PINE STREET,MONTGOMERY,AL,36106,MONTGOMERY,3342938000,Acute Care Hospitals,Voluntary non-profit - Private,Yes,SCIP-INF-2
10024,JACKSON HOSPITAL & CLINIC INC,1725 PINE STREET,MONTGOMERY,AL,36106,MONTGOMERY,3342938000,Acute Care Hospitals,Voluntary non-profit - Private,Yes,SCIP-INF-3
10024,JACKSON HOSPITAL & CLINIC INC,1725 PINE STREET,MONTGOMERY,AL,36106,MONTGOMERY,3342938000,Acute Care Hospitals,Voluntary non-profit - Private,Yes,SCIP-INF-4
10024,JACKSON HOSPITAL & CLINIC INC,1725 PINE STREET,MONTGOMERY,AL,36106,MONTGOMERY,3342938000,Acute Care Hospitals,Voluntary non-profit - Private,Yes,SCIP-INF-6
10024,JACKSON HOSPITAL & CLINIC INC,1725 PINE STREET,MONTGOMERY,AL,36106,MONTGOMERY,3342938000,Acute Care Hospitals,Voluntary non-profit - Private,Yes,SCIP-VTE-1
10024,JACKSON HOSPITAL & CLINIC INC,1725 PINE STREET,MONTGOMERY,AL,36106,MONTGOMERY,3342938000,Acute Care Hospitals,Voluntary non-profit - Private,Yes,SCIP-VTE-2
10025,G H LANIER MEMORIAL HOSPITAL,4800 48TH ST,VALLEY,AL,36854,CHAMBERS,3347561400,Acute Care Hospitals,Voluntary non-profit - Other,Yes,AMI-1
10025,G H LANIER MEMORIAL HOSPITAL,4800 48TH ST,VALLEY,AL,36854,CHAMBERS,3347561400,Acute Care Hospitals,Voluntary non-profit - Other,Yes,AMI-2
10025,G H LANIER MEMORIAL HOSPITAL,4800 48TH ST,VALLEY,AL,36854,CHAMBERS,3347561400,Acute Care Hospitals,Voluntary non-profit - Other,Yes,AMI-3
10025,G H LANIER MEMORIAL HOSPITAL,4800 48TH ST,VALLEY,AL,36854,CHAMBERS,3347561400,Acute Care Hospitals,Voluntary non-profit - Other,Yes,AMI-4
10025,G H LANIER MEMORIAL HOSPITAL,4800 48TH ST,VALLEY,AL,36854,CHAMBERS,3347561400,Acute Care Hospitals,Voluntary non-profit - Other,Yes,AMI-5
10025,G H LANIER MEMORIAL HOSPITAL,4800 48TH ST,VALLEY,AL,36854,CHAMBERS,3347561400,Acute Care Hospitals,Voluntary non-profit - Other,Yes,AMI-7A
10025,G H LANIER MEMORIAL HOSPITAL,4800 48TH ST,VALLEY,AL,36854,CHAMBERS,3347561400,Acute Care Hospitals,Voluntary non-profit - Other,Yes,AMI-8A
10025,G H LANIER MEMORIAL HOSPITAL,4800 48TH ST,VALLEY,AL,36854,CHAMBERS,3347561400,Acute Care Hospitals,Voluntary non-profit - Other,Yes,HF-1
10025,G H LANIER MEMORIAL HOSPITAL,4800 48TH ST,VALLEY,AL,36854,CHAMBERS,3347561400,Acute Care Hospitals,Voluntary non-profit - Other,Yes,HF-2
10025,G H LANIER MEMORIAL HOSPITAL,4800 48TH ST,VALLEY,AL,36854,CHAMBERS,3347561400,Acute Care Hospitals,Voluntary non-profit - Other,Yes,HF-3
10025,G H LANIER MEMORIAL HOSPITAL,4800 48TH ST,VALLEY,AL,36854,CHAMBERS,3347561400,Acute Care Hospitals,Voluntary non-profit - Other,Yes,HF-4
10025,G H LANIER MEMORIAL HOSPITAL,4800 48TH ST,VALLEY,AL,36854,CHAMBERS,3347561400,Acute Care Hospitals,Voluntary non-profit - Other,Yes,PN-2
10025,G H LANIER MEMORIAL HOSPITAL,4800 48TH ST,VALLEY,AL,36854,CHAMBERS,3347561400,Acute Care Hospitals,Voluntary non-profit - Other,Yes,PN-3B
10025,G H LANIER MEMORIAL HOSPITAL,4800 48TH ST,VALLEY,AL,36854,CHAMBERS,3347561400,Acute Care Hospitals,Voluntary non-profit - Other,Yes,PN-4
10025,G H LANIER MEMORIAL HOSPITAL,4800 48TH ST,VALLEY,AL,36854,CHAMBERS,3347561400,Acute Care Hospitals,Voluntary non-profit - Other,Yes,PN-5C
10025,G H LANIER MEMORIAL HOSPITAL,4800 48TH ST,VALLEY,AL,36854,CHAMBERS,3347561400,Acute Care Hospitals,Voluntary non-profit - Other,Yes,PN-6
10025,G H LANIER MEMORIAL HOSPITAL,4800 48TH ST,VALLEY,AL,36854,CHAMBERS,3347561400,Acute Care Hospitals,Voluntary non-profit - Other,Yes,PN-7
10025,G H LANIER MEMORIAL HOSPITAL,4800 48TH ST,VALLEY,AL,36854,CHAMBERS,3347561400,Acute Care Hospitals,Voluntary non-profit - Other,Yes,SCIP-CARD-2
10025,G H LANIER MEMORIAL HOSPITAL,4800 48TH ST,VALLEY,AL,36854,CHAMBERS,3347561400,Acute Care Hospitals,Voluntary non-profit - Other,Yes,SCIP-INF-1
10025,G H LANIER MEMORIAL HOSPITAL,4800 48TH ST,VALLEY,AL,36854,CHAMBERS,3347561400,Acute Care Hospitals,Voluntary non-profit - Other,Yes,SCIP-INF-2
10025,G H LANIER MEMORIAL HOSPITAL,4800 48TH ST,VALLEY,AL,36854,CHAMBERS,3347561400,Acute Care Hospitals,Voluntary non-profit - Other,Yes,SCIP-INF-3
10025,G H LANIER MEMORIAL HOSPITAL,4800 48TH ST,VALLEY,AL,36854,CHAMBERS,3347561400,Acute Care Hospitals,Voluntary non-profit - Other,Yes,SCIP-INF-4
10025,G H LANIER MEMORIAL HOSPITAL,4800 48TH ST,VALLEY,AL,36854,CHAMBERS,3347561400,Acute Care Hospitals,Voluntary non-profit - Other,Yes,SCIP-INF-6
10025,G H LANIER MEMORIAL HOSPITAL,4800 48TH ST,VALLEY,AL,36854,CHAMBERS,3347561400,Acute Care Hospitals,Voluntary non-profit - Other,Yes,SCIP-VTE-1
10025,G H LANIER MEMORIAL HOSPITAL,4800 48TH ST,VALLEY,AL,36854,CHAMBERS,3347561400,Acute Care Hospitals,Voluntary non-profit - Other,Yes,SCIP-VTE-2
10027,ELBA GENERAL HOSPITAL,987 DRAYTON STREET,ELBA,AL,36323,COFFEE,3348972257,Acute Care Hospitals,Voluntary non-profit - Other,Yes,AMI-1
10027,ELBA GENERAL HOSPITAL,987 DRAYTON STREET,ELBA,AL,36323,COFFEE,3348972257,Acute Care Hospitals,Voluntary non-profit - Other,Yes,AMI-2
10027,ELBA GENERAL HOSPITAL,987 DRAYTON STREET,ELBA,AL,36323,COFFEE,3348972257,Acute Care Hospitals,Voluntary non-profit - Other,Yes,AMI-3
10027,ELBA GENERAL HOSPITAL,987 DRAYTON STREET,ELBA,AL,36323,COFFEE,3348972257,Acute Care Hospitals,Voluntary non-profit - Other,Yes,AMI-4
10027,ELBA GENERAL HOSPITAL,987 DRAYTON STREET,ELBA,AL,36323,COFFEE,3348972257,Acute Care Hospitals,Voluntary non-profit - Other,Yes,AMI-5
10027,ELBA GENERAL HOSPITAL,987 DRAYTON STREET,ELBA,AL,36323,COFFEE,3348972257,Acute Care Hospitals,Voluntary non-profit - Other,Yes,AMI-7A
10027,ELBA GENERAL HOSPITAL,987 DRAYTON STREET,ELBA,AL,36323,COFFEE,3348972257,Acute Care Hospitals,Voluntary non-profit - Other,Yes,AMI-8A
10027,ELBA GENERAL HOSPITAL,987 DRAYTON STREET,ELBA,AL,36323,COFFEE,3348972257,Acute Care Hospitals,Voluntary non-profit - Other,Yes,HF-1
10027,ELBA GENERAL HOSPITAL,987 DRAYTON STREET,ELBA,AL,36323,COFFEE,3348972257,Acute Care Hospitals,Voluntary non-profit - Other,Yes,HF-2
10027,ELBA GENERAL HOSPITAL,987 DRAYTON STREET,ELBA,AL,36323,COFFEE,3348972257,Acute Care Hospitals,Voluntary non-profit - Other,Yes,HF-3
10027,ELBA GENERAL HOSPITAL,987 DRAYTON STREET,ELBA,AL,36323,COFFEE,3348972257,Acute Care Hospitals,Voluntary non-profit - Other,Yes,HF-4
10027,ELBA GENERAL HOSPITAL,987 DRAYTON STREET,ELBA,AL,36323,COFFEE,3348972257,Acute Care Hospitals,Voluntary non-profit - Other,Yes,PN-2
10027,ELBA GENERAL HOSPITAL,987 DRAYTON STREET,ELBA,AL,36323,COFFEE,3348972257,Acute Care Hospitals,Voluntary non-profit - Other,Yes,PN-3B
10027,ELBA GENERAL HOSPITAL,987 DRAYTON STREET,ELBA,AL,36323,COFFEE,3348972257,Acute Care Hospitals,Voluntary non-profit - Other,Yes,PN-4
10027,ELBA GENERAL HOSPITAL,987 DRAYTON STREET,ELBA,AL,36323,COFFEE,3348972257,Acute Care Hospitals,Voluntary non-profit - Other,Yes,PN-5C
10027,ELBA GENERAL HOSPITAL,987 DRAYTON STREET,ELBA,AL,36323,COFFEE,3348972257,Acute Care Hospitals,Voluntary non-profit - Other,Yes,PN-6
10027,ELBA GENERAL HOSPITAL,987 DRAYTON STREET,ELBA,AL,36323,COFFEE,3348972257,Acute Care Hospitals,Voluntary non-profit - Other,Yes,PN-7
10027,ELBA GENERAL HOSPITAL,987 DRAYTON STREET,ELBA,AL,36323,COFFEE,3348972257,Acute Care Hospitals,Voluntary non-profit - Other,Yes,SCIP-CARD-2
10027,ELBA GENERAL HOSPITAL,987 DRAYTON STREET,ELBA,AL,36323,COFFEE,3348972257,Acute Care Hospitals,Voluntary non-profit - Other,Yes,SCIP-INF-1
10027,ELBA GENERAL HOSPITAL,987 DRAYTON STREET,ELBA,AL,36323,COFFEE,3348972257,Acute Care Hospitals,Voluntary non-profit - Other,Yes,SCIP-INF-2
10027,ELBA GENERAL HOSPITAL,987 DRAYTON STREET,ELBA,AL,36323,COFFEE,3348972257,Acute Care Hospitals,Voluntary non-profit - Other,Yes,SCIP-INF-3
10027,ELBA GENERAL HOSPITAL,987 DRAYTON STREET,ELBA,AL,36323,COFFEE,3348972257,Acute Care Hospitals,Voluntary non-profit - Other,Yes,SCIP-INF-4
10027,ELBA GENERAL HOSPITAL,987 DRAYTON STREET,ELBA,AL,36323,COFFEE,3348972257,Acute Care Hospitals,Voluntary non-profit - Other,Yes,SCIP-INF-6
10027,ELBA GENERAL HOSPITAL,987 DRAYTON STREET,ELBA,AL,36323,COFFEE,3348972257,Acute Care Hospitals,Voluntary non-profit - Other,Yes,SCIP-VTE-1
10027,ELBA GENERAL HOSPITAL,987 DRAYTON STREET,ELBA,AL,36323,COFFEE,3348972257,Acute Care Hospitals,Voluntary non-profit - Other,Yes,SCIP-VTE-2
10029,EAST ALABAMA MEDICAL CENTER AND SNF,2000 PEPPERELL PARKWAY,OPELIKA,AL,36801,LEE,3347493411,Acute Care Hospitals,Government - Hospital District or Authority,Yes,AMI-1
10029,EAST ALABAMA MEDICAL CENTER AND SNF,2000 PEPPERELL PARKWAY,OPELIKA,AL,36801,LEE,3347493411,Acute Care Hospitals,Government - Hospital District or Authority,Yes,AMI-2
10029,EAST ALABAMA MEDICAL CENTER AND SNF,2000 PEPPERELL PARKWAY,OPELIKA,AL,36801,LEE,3347493411,Acute Care Hospitals,Government - Hospital District or Authority,Yes,AMI-3
10029,EAST ALABAMA MEDICAL CENTER AND SNF,2000 PEPPERELL PARKWAY,OPELIKA,AL,36801,LEE,3347493411,Acute Care Hospitals,Government - Hospital District or Authority,Yes,AMI-4
10029,EAST ALABAMA MEDICAL CENTER AND SNF,2000 PEPPERELL PARKWAY,OPELIKA,AL,36801,LEE,3347493411,Acute Care Hospitals,Government - Hospital District or Authority,Yes,AMI-5
10029,EAST ALABAMA MEDICAL CENTER AND SNF,2000 PEPPERELL PARKWAY,OPELIKA,AL,36801,LEE,3347493411,Acute Care Hospitals,Government - Hospital District or Authority,Yes,AMI-7A
10029,EAST ALABAMA MEDICAL CENTER AND SNF,2000 PEPPERELL PARKWAY,OPELIKA,AL,36801,LEE,3347493411,Acute Care Hospitals,Government - Hospital District or Authority,Yes,AMI-8A
10029,EAST ALABAMA MEDICAL CENTER AND SNF,2000 PEPPERELL PARKWAY,OPELIKA,AL,36801,LEE,3347493411,Acute Care Hospitals,Government - Hospital District or Authority,Yes,HF-1
10029,EAST ALABAMA MEDICAL CENTER AND SNF,2000 PEPPERELL PARKWAY,OPELIKA,AL,36801,LEE,3347493411,Acute Care Hospitals,Government - Hospital District or Authority,Yes,HF-2
10029,EAST ALABAMA MEDICAL CENTER AND SNF,2000 PEPPERELL PARKWAY,OPELIKA,AL,36801,LEE,3347493411,Acute Care Hospitals,Government - Hospital District or Authority,Yes,HF-3
10029,EAST ALABAMA MEDICAL CENTER AND SNF,2000 PEPPERELL PARKWAY,OPELIKA,AL,36801,LEE,3347493411,Acute Care Hospitals,Government - Hospital District or Authority,Yes,HF-4
10029,EAST ALABAMA MEDICAL CENTER AND SNF,2000 PEPPERELL PARKWAY,OPELIKA,AL,36801,LEE,3347493411,Acute Care Hospitals,Government - Hospital District or Authority,Yes,PN-2
10029,EAST ALABAMA MEDICAL CENTER AND SNF,2000 PEPPERELL PARKWAY,OPELIKA,AL,36801,LEE,3347493411,Acute Care Hospitals,Government - Hospital District or Authority,Yes,PN-3B
10029,EAST ALABAMA MEDICAL CENTER AND SNF,2000 PEPPERELL PARKWAY,OPELIKA,AL,36801,LEE,3347493411,Acute Care Hospitals,Government - Hospital District or Authority,Yes,PN-4
10029,EAST ALABAMA MEDICAL CENTER AND SNF,2000 PEPPERELL PARKWAY,OPELIKA,AL,36801,LEE,3347493411,Acute Care Hospitals,Government - Hospital District or Authority,Yes,PN-5C
10029,EAST ALABAMA MEDICAL CENTER AND SNF,2000 PEPPERELL PARKWAY,OPELIKA,AL,36801,LEE,3347493411,Acute Care Hospitals,Government - Hospital District or Authority,Yes,PN-6
10029,EAST ALABAMA MEDICAL CENTER AND SNF,2000 PEPPERELL PARKWAY,OPELIKA,AL,36801,LEE,3347493411,Acute Care Hospitals,Government - Hospital District or Authority,Yes,PN-7
10029,EAST ALABAMA MEDICAL CENTER AND SNF,2000 PEPPERELL PARKWAY,OPELIKA,AL,36801,LEE,3347493411,Acute Care Hospitals,Government - Hospital District or Authority,Yes,SCIP-CARD-2
10029,EAST ALABAMA MEDICAL CENTER AND SNF,2000 PEPPERELL PARKWAY,OPELIKA,AL,36801,LEE,3347493411,Acute Care Hospitals,Government - Hospital District or Authority,Yes,SCIP-INF-1
10029,EAST ALABAMA MEDICAL CENTER AND SNF,2000 PEPPERELL PARKWAY,OPELIKA,AL,36801,LEE,3347493411,Acute Care Hospitals,Government - Hospital District or Authority,Yes,SCIP-INF-2
10029,EAST ALABAMA MEDICAL CENTER AND SNF,2000 PEPPERELL PARKWAY,OPELIKA,AL,36801,LEE,3347493411,Acute Care Hospitals,Government - Hospital District or Authority,Yes,SCIP-INF-3
10029,EAST ALABAMA MEDICAL CENTER AND SNF,2000 PEPPERELL PARKWAY,OPELIKA,AL,36801,LEE,3347493411,Acute Care Hospitals,Government - Hospital District or Authority,Yes,SCIP-INF-4
10029,EAST ALABAMA MEDICAL CENTER AND SNF,2000 PEPPERELL PARKWAY,OPELIKA,AL,36801,LEE,3347493411,Acute Care Hospitals,Government - Hospital District or Authority,Yes,SCIP-INF-6
10029,EAST ALABAMA MEDICAL CENTER AND SNF,2000 PEPPERELL PARKWAY,OPELIKA,AL,36801,LEE,3347493411,Acute Care Hospitals,Government - Hospital District or Authority,Yes,SCIP-VTE-1
10029,EAST ALABAMA MEDICAL CENTER AND SNF,2000 PEPPERELL PARKWAY,OPELIKA,AL,36801,LEE,3347493411,Acute Care Hospitals,Government - Hospital District or Authority,Yes,SCIP-VTE-2
10032,WEDOWEE HOSPITAL,209 NORTH MAIN STREET,WEDOWEE,AL,36278,RANDOLPH,2563572111,Acute Care Hospitals,Government - Local,No,AMI-1
10032,WEDOWEE HOSPITAL,209 NORTH MAIN STREET,WEDOWEE,AL,36278,RANDOLPH,2563572111,Acute Care Hospitals,Government - Local,No,AMI-2
10032,WEDOWEE HOSPITAL,209 NORTH MAIN STREET,WEDOWEE,AL,36278,RANDOLPH,2563572111,Acute Care Hospitals,Government - Local,No,AMI-3
10032,WEDOWEE HOSPITAL,209 NORTH MAIN STREET,WEDOWEE,AL,36278,RANDOLPH,2563572111,Acute Care Hospitals,Government - Local,No,AMI-4
10032,WEDOWEE HOSPITAL,209 NORTH MAIN STREET,WEDOWEE,AL,36278,RANDOLPH,2563572111,Acute Care Hospitals,Government - Local,No,AMI-5
10032,WEDOWEE HOSPITAL,209 NORTH MAIN STREET,WEDOWEE,AL,36278,RANDOLPH,2563572111,Acute Care Hospitals,Government - Local,No,AMI-7A
10032,WEDOWEE HOSPITAL,209 NORTH MAIN STREET,WEDOWEE,AL,36278,RANDOLPH,2563572111,Acute Care Hospitals,Government - Local,No,AMI-8A
10032,WEDOWEE HOSPITAL,209 NORTH MAIN STREET,WEDOWEE,AL,36278,RANDOLPH,2563572111,Acute Care Hospitals,Government - Local,No,HF-1
10032,WEDOWEE HOSPITAL,209 NORTH MAIN STREET,WEDOWEE,AL,36278,RANDOLPH,2563572111,Acute Care Hospitals,Government - Local,No,HF-2
10032,WEDOWEE HOSPITAL,209 NORTH MAIN STREET,WEDOWEE,AL,36278,RANDOLPH,2563572111,Acute Care Hospitals,Government - Local,No,HF-3
10032,WEDOWEE HOSPITAL,209 NORTH MAIN STREET,WEDOWEE,AL,36278,RANDOLPH,2563572111,Acute Care Hospitals,Government - Local,No,HF-4
10032,WEDOWEE HOSPITAL,209 NORTH MAIN STREET,WEDOWEE,AL,36278,RANDOLPH,2563572111,Acute Care Hospitals,Government - Local,No,PN-2
10032,WEDOWEE HOSPITAL,209 NORTH MAIN STREET,WEDOWEE,AL,36278,RANDOLPH,2563572111,Acute Care Hospitals,Government - Local,No,PN-3B
10032,WEDOWEE HOSPITAL,209 NORTH MAIN STREET,WEDOWEE,AL,36278,RANDOLPH,2563572111,Acute Care Hospitals,Government - Local,No,PN-4
10032,WEDOWEE HOSPITAL,209 NORTH MAIN STREET,WEDOWEE,AL,36278,RANDOLPH,2563572111,Acute Care Hospitals,Government - Local,No,PN-5C
10032,WEDOWEE HOSPITAL,209 NORTH MAIN STREET,WEDOWEE,AL,36278,RANDOLPH,2563572111,Acute Care Hospitals,Government - Local,No,PN-6
10032,WEDOWEE HOSPITAL,209 NORTH MAIN STREET,WEDOWEE,AL,36278,RANDOLPH,2563572111,Acute Care Hospitals,Government - Local,No,PN-7
10032,WEDOWEE HOSPITAL,209 NORTH MAIN STREET,WEDOWEE,AL,36278,RANDOLPH,2563572111,Acute Care Hospitals,Government - Local,No,SCIP-CARD-2
10032,WEDOWEE HOSPITAL,209 NORTH MAIN STREET,WEDOWEE,AL,36278,RANDOLPH,2563572111,Acute Care Hospitals,Government - Local,No,SCIP-INF-1
10032,WEDOWEE HOSPITAL,209 NORTH MAIN STREET,WEDOWEE,AL,36278,RANDOLPH,2563572111,Acute Care Hospitals,Government - Local,No,SCIP-INF-2
10032,WEDOWEE HOSPITAL,209 NORTH MAIN STREET,WEDOWEE,AL,36278,RANDOLPH,2563572111,Acute Care Hospitals,Government - Local,No,SCIP-INF-3
10032,WEDOWEE HOSPITAL,209 NORTH MAIN STREET,WEDOWEE,AL,36278,RANDOLPH,2563572111,Acute Care Hospitals,Government - Local,No,SCIP-INF-4
10032,WEDOWEE HOSPITAL,209 NORTH MAIN STREET,WEDOWEE,AL,36278,RANDOLPH,2563572111,Acute Care Hospitals,Government - Local,No,SCIP-INF-6
10032,WEDOWEE HOSPITAL,209 NORTH MAIN STREET,WEDOWEE,AL,36278,RANDOLPH,2563572111,Acute Care Hospitals,Government - Local,No,SCIP-VTE-1
10032,WEDOWEE HOSPITAL,209 NORTH MAIN STREET,WEDOWEE,AL,36278,RANDOLPH,2563572111,Acute Care Hospitals,Government - Local,No,SCIP-VTE-2
10033,UNIVERSITY OF ALABAMA HOSPITAL,619 SOUTH 19TH STREET,BIRMINGHAM,AL,35233,JEFFERSON,2059344011,Acute Care Hospitals,Government - State,Yes,AMI-1
10033,UNIVERSITY OF ALABAMA HOSPITAL,619 SOUTH 19TH STREET,BIRMINGHAM,AL,35233,JEFFERSON,2059344011,Acute Care Hospitals,Government - State,Yes,AMI-2
10033,UNIVERSITY OF ALABAMA HOSPITAL,619 SOUTH 19TH STREET,BIRMINGHAM,AL,35233,JEFFERSON,2059344011,Acute Care Hospitals,Government - State,Yes,AMI-3
10033,UNIVERSITY OF ALABAMA HOSPITAL,619 SOUTH 19TH STREET,BIRMINGHAM,AL,35233,JEFFERSON,2059344011,Acute Care Hospitals,Government - State,Yes,AMI-4
10033,UNIVERSITY OF ALABAMA HOSPITAL,619 SOUTH 19TH STREET,BIRMINGHAM,AL,35233,JEFFERSON,2059344011,Acute Care Hospitals,Government - State,Yes,AMI-5
10033,UNIVERSITY OF ALABAMA HOSPITAL,619 SOUTH 19TH STREET,BIRMINGHAM,AL,35233,JEFFERSON,2059344011,Acute Care Hospitals,Government - State,Yes,AMI-7A
10033,UNIVERSITY OF ALABAMA HOSPITAL,619 SOUTH 19TH STREET,BIRMINGHAM,AL,35233,JEFFERSON,2059344011,Acute Care Hospitals,Government - State,Yes,AMI-8A
10033,UNIVERSITY OF ALABAMA HOSPITAL,619 SOUTH 19TH STREET,BIRMINGHAM,AL,35233,JEFFERSON,2059344011,Acute Care Hospitals,Government - State,Yes,HF-1
10033,UNIVERSITY OF ALABAMA HOSPITAL,619 SOUTH 19TH STREET,BIRMINGHAM,AL,35233,JEFFERSON,2059344011,Acute Care Hospitals,Government - State,Yes,HF-2
10033,UNIVERSITY OF ALABAMA HOSPITAL,619 SOUTH 19TH STREET,BIRMINGHAM,AL,35233,JEFFERSON,2059344011,Acute Care Hospitals,Government - State,Yes,HF-3
10033,UNIVERSITY OF ALABAMA HOSPITAL,619 SOUTH 19TH STREET,BIRMINGHAM,AL,35233,JEFFERSON,2059344011,Acute Care Hospitals,Government - State,Yes,HF-4
10033,UNIVERSITY OF ALABAMA HOSPITAL,619 SOUTH 19TH STREET,BIRMINGHAM,AL,35233,JEFFERSON,2059344011,Acute Care Hospitals,Government - State,Yes,PN-2
10033,UNIVERSITY OF ALABAMA HOSPITAL,619 SOUTH 19TH STREET,BIRMINGHAM,AL,35233,JEFFERSON,2059344011,Acute Care Hospitals,Government - State,Yes,PN-3B
10033,UNIVERSITY OF ALABAMA HOSPITAL,619 SOUTH 19TH STREET,BIRMINGHAM,AL,35233,JEFFERSON,2059344011,Acute Care Hospitals,Government - State,Yes,PN-4
10033,UNIVERSITY OF ALABAMA HOSPITAL,619 SOUTH 19TH STREET,BIRMINGHAM,AL,35233,JEFFERSON,2059344011,Acute Care Hospitals,Government - State,Yes,PN-5C
10033,UNIVERSITY OF ALABAMA HOSPITAL,619 SOUTH 19TH STREET,BIRMINGHAM,AL,35233,JEFFERSON,2059344011,Acute Care Hospitals,Government - State,Yes,PN-6
10033,UNIVERSITY OF ALABAMA HOSPITAL,619 SOUTH 19TH STREET,BIRMINGHAM,AL,35233,JEFFERSON,2059344011,Acute Care Hospitals,Government - State,Yes,PN-7
10033,UNIVERSITY OF ALABAMA HOSPITAL,619 SOUTH 19TH STREET,BIRMINGHAM,AL,35233,JEFFERSON,2059344011,Acute Care Hospitals,Government - State,Yes,SCIP-CARD-2
10033,UNIVERSITY OF ALABAMA HOSPITAL,619 SOUTH 19TH STREET,BIRMINGHAM,AL,35233,JEFFERSON,2059344011,Acute Care Hospitals,Government - State,Yes,SCIP-INF-1
10033,UNIVERSITY OF ALABAMA HOSPITAL,619 SOUTH 19TH STREET,BIRMINGHAM,AL,35233,JEFFERSON,2059344011,Acute Care Hospitals,Government - State,Yes,SCIP-INF-2
10033,UNIVERSITY OF ALABAMA HOSPITAL,619 SOUTH 19TH STREET,BIRMINGHAM,AL,35233,JEFFERSON,2059344011,Acute Care Hospitals,Government - State,Yes,SCIP-INF-3
10033,UNIVERSITY OF ALABAMA HOSPITAL,619 SOUTH 19TH STREET,BIRMINGHAM,AL,35233,JEFFERSON,2059344011,Acute Care Hospitals,Government - State,Yes,SCIP-INF-4
10033,UNIVERSITY OF ALABAMA HOSPITAL,619 SOUTH 19TH STREET,BIRMINGHAM,AL,35233,JEFFERSON,2059344011,Acute Care Hospitals,Government - State,Yes,SCIP-INF-6
10033,UNIVERSITY OF ALABAMA HOSPITAL,619 SOUTH 19TH STREET,BIRMINGHAM,AL,35233,JEFFERSON,2059344011,Acute Care Hospitals,Government - State,Yes,SCIP-VTE-1
10033,UNIVERSITY OF ALABAMA HOSPITAL,619 SOUTH 19TH STREET,BIRMINGHAM,AL,35233,JEFFERSON,2059344011,Acute Care Hospitals,Government - State,Yes,SCIP-VTE-2
10034,COMMUNITY HOSPITAL INC,805 FRIENDSHIP ROAD,TALLASSEE,AL,36078,ELMORE,3342836541,Acute Care Hospitals,Voluntary non-profit - Private,No,AMI-1
10034,COMMUNITY HOSPITAL INC,805 FRIENDSHIP ROAD,TALLASSEE,AL,36078,ELMORE,3342836541,Acute Care Hospitals,Voluntary non-profit - Private,No,AMI-2
10034,COMMUNITY HOSPITAL INC,805 FRIENDSHIP ROAD,TALLASSEE,AL,36078,ELMORE,3342836541,Acute Care Hospitals,Voluntary non-profit - Private,No,AMI-3
10034,COMMUNITY HOSPITAL INC,805 FRIENDSHIP ROAD,TALLASSEE,AL,36078,ELMORE,3342836541,Acute Care Hospitals,Voluntary non-profit - Private,No,AMI-4
10034,COMMUNITY HOSPITAL INC,805 FRIENDSHIP ROAD,TALLASSEE,AL,36078,ELMORE,3342836541,Acute Care Hospitals,Voluntary non-profit - Private,No,AMI-5
10034,COMMUNITY HOSPITAL INC,805 FRIENDSHIP ROAD,TALLASSEE,AL,36078,ELMORE,3342836541,Acute Care Hospitals,Voluntary non-profit - Private,No,AMI-7A
10034,COMMUNITY HOSPITAL INC,805 FRIENDSHIP ROAD,TALLASSEE,AL,36078,ELMORE,3342836541,Acute Care Hospitals,Voluntary non-profit - Private,No,AMI-8A
10034,COMMUNITY HOSPITAL INC,805 FRIENDSHIP ROAD,TALLASSEE,AL,36078,ELMORE,3342836541,Acute Care Hospitals,Voluntary non-profit - Private,No,HF-1
10034,COMMUNITY HOSPITAL INC,805 FRIENDSHIP ROAD,TALLASSEE,AL,36078,ELMORE,3342836541,Acute Care Hospitals,Voluntary non-profit - Private,No,HF-2
10034,COMMUNITY HOSPITAL INC,805 FRIENDSHIP ROAD,TALLASSEE,AL,36078,ELMORE,3342836541,Acute Care Hospitals,Voluntary non-profit - Private,No,HF-3
10034,COMMUNITY HOSPITAL INC,805 FRIENDSHIP ROAD,TALLASSEE,AL,36078,ELMORE,3342836541,Acute Care Hospitals,Voluntary non-profit - Private,No,HF-4
10034,COMMUNITY HOSPITAL INC,805 FRIENDSHIP ROAD,TALLASSEE,AL,36078,ELMORE,3342836541,Acute Care Hospitals,Voluntary non-profit - Private,No,PN-2
10034,COMMUNITY HOSPITAL INC,805 FRIENDSHIP ROAD,TALLASSEE,AL,36078,ELMORE,3342836541,Acute Care Hospitals,Voluntary non-profit - Private,No,PN-3B
10034,COMMUNITY HOSPITAL INC,805 FRIENDSHIP ROAD,TALLASSEE,AL,36078,ELMORE,3342836541,Acute Care Hospitals,Voluntary non-profit - Private,No,PN-4
10034,COMMUNITY HOSPITAL INC,805 FRIENDSHIP ROAD,TALLASSEE,AL,36078,ELMORE,3342836541,Acute Care Hospitals,Voluntary non-profit - Private,No,PN-5C
10034,COMMUNITY HOSPITAL INC,805 FRIENDSHIP ROAD,TALLASSEE,AL,36078,ELMORE,3342836541,Acute Care Hospitals,Voluntary non-profit - Private,No,PN-6
10034,COMMUNITY HOSPITAL INC,805 FRIENDSHIP ROAD,TALLASSEE,AL,36078,ELMORE,3342836541,Acute Care Hospitals,Voluntary non-profit - Private,No,PN-7
10034,COMMUNITY HOSPITAL INC,805 FRIENDSHIP ROAD,TALLASSEE,AL,36078,ELMORE,3342836541,Acute Care Hospitals,Voluntary non-profit - Private,No,SCIP-CARD-2
10034,COMMUNITY HOSPITAL INC,805 FRIENDSHIP ROAD,TALLASSEE,AL,36078,ELMORE,3342836541,Acute Care Hospitals,Voluntary non-profit - Private,No,SCIP-INF-1
10034,COMMUNITY HOSPITAL INC,805 FRIENDSHIP ROAD,TALLASSEE,AL,36078,ELMORE,3342836541,Acute Care Hospitals,Voluntary non-profit - Private,No,SCIP-INF-2
10034,COMMUNITY HOSPITAL INC,805 FRIENDSHIP ROAD,TALLASSEE,AL,36078,ELMORE,3342836541,Acute Care Hospitals,Voluntary non-profit - Private,No,SCIP-INF-3
10034,COMMUNITY HOSPITAL INC,805 FRIENDSHIP ROAD,TALLASSEE,AL,36078,ELMORE,3342836541,Acute Care Hospitals,Voluntary non-profit - Private,No,SCIP-INF-4
10034,COMMUNITY HOSPITAL INC,805 FRIENDSHIP ROAD,TALLASSEE,AL,36078,ELMORE,3342836541,Acute Care Hospitals,Voluntary non-profit - Private,No,SCIP-INF-6
10034,COMMUNITY HOSPITAL INC,805 FRIENDSHIP ROAD,TALLASSEE,AL,36078,ELMORE,3342836541,Acute Care Hospitals,Voluntary non-profit - Private,No,SCIP-VTE-1
10034,COMMUNITY HOSPITAL INC,805 FRIENDSHIP ROAD,TALLASSEE,AL,36078,ELMORE,3342836541,Acute Care Hospitals,Voluntary non-profit - Private,No,SCIP-VTE-2
10035,CULLMAN REGIONAL MEDICAL CENTER,1912 ALABAMA HIGHWAY 157,CULLMAN,AL,35058,CULLMAN,2567372000,Acute Care Hospitals,Government - Hospital District or Authority,Yes,AMI-1
10035,CULLMAN REGIONAL MEDICAL CENTER,1912 ALABAMA HIGHWAY 157,CULLMAN,AL,35058,CULLMAN,2567372000,Acute Care Hospitals,Government - Hospital District or Authority,Yes,AMI-2
10035,CULLMAN REGIONAL MEDICAL CENTER,1912 ALABAMA HIGHWAY 157,CULLMAN,AL,35058,CULLMAN,2567372000,Acute Care Hospitals,Government - Hospital District or Authority,Yes,AMI-3
10035,CULLMAN REGIONAL MEDICAL CENTER,1912 ALABAMA HIGHWAY 157,CULLMAN,AL,35058,CULLMAN,2567372000,Acute Care Hospitals,Government - Hospital District or Authority,Yes,AMI-4
10035,CULLMAN REGIONAL MEDICAL CENTER,1912 ALABAMA HIGHWAY 157,CULLMAN,AL,35058,CULLMAN,2567372000,Acute Care Hospitals,Government - Hospital District or Authority,Yes,AMI-5
10035,CULLMAN REGIONAL MEDICAL CENTER,1912 ALABAMA HIGHWAY 157,CULLMAN,AL,35058,CULLMAN,2567372000,Acute Care Hospitals,Government - Hospital District or Authority,Yes,AMI-7A
10035,CULLMAN REGIONAL MEDICAL CENTER,1912 ALABAMA HIGHWAY 157,CULLMAN,AL,35058,CULLMAN,2567372000,Acute Care Hospitals,Government - Hospital District or Authority,Yes,AMI-8A
10035,CULLMAN REGIONAL MEDICAL CENTER,1912 ALABAMA HIGHWAY 157,CULLMAN,AL,35058,CULLMAN,2567372000,Acute Care Hospitals,Government - Hospital District or Authority,Yes,HF-1
10035,CULLMAN REGIONAL MEDICAL CENTER,1912 ALABAMA HIGHWAY 157,CULLMAN,AL,35058,CULLMAN,2567372000,Acute Care Hospitals,Government - Hospital District or Authority,Yes,HF-2
10035,CULLMAN REGIONAL MEDICAL CENTER,1912 ALABAMA HIGHWAY 157,CULLMAN,AL,35058,CULLMAN,2567372000,Acute Care Hospitals,Government - Hospital District or Authority,Yes,HF-3
10035,CULLMAN REGIONAL MEDICAL CENTER,1912 ALABAMA HIGHWAY 157,CULLMAN,AL,35058,CULLMAN,2567372000,Acute Care Hospitals,Government - Hospital District or Authority,Yes,HF-4
10035,CULLMAN REGIONAL MEDICAL CENTER,1912 ALABAMA HIGHWAY 157,CULLMAN,AL,35058,CULLMAN,2567372000,Acute Care Hospitals,Government - Hospital District or Authority,Yes,PN-2
10035,CULLMAN REGIONAL MEDICAL CENTER,1912 ALABAMA HIGHWAY 157,CULLMAN,AL,35058,CULLMAN,2567372000,Acute Care Hospitals,Government - Hospital District or Authority,Yes,PN-3B
10035,CULLMAN REGIONAL MEDICAL CENTER,1912 ALABAMA HIGHWAY 157,CULLMAN,AL,35058,CULLMAN,2567372000,Acute Care Hospitals,Government - Hospital District or Authority,Yes,PN-4
10035,CULLMAN REGIONAL MEDICAL CENTER,1912 ALABAMA HIGHWAY 157,CULLMAN,AL,35058,CULLMAN,2567372000,Acute Care Hospitals,Government - Hospital District or Authority,Yes,PN-5C
10035,CULLMAN REGIONAL MEDICAL CENTER,1912 ALABAMA HIGHWAY 157,CULLMAN,AL,35058,CULLMAN,2567372000,Acute Care Hospitals,Government - Hospital District or Authority,Yes,PN-6
10035,CULLMAN REGIONAL MEDICAL CENTER,1912 ALABAMA HIGHWAY 157,CULLMAN,AL,35058,CULLMAN,2567372000,Acute Care Hospitals,Government - Hospital District or Authority,Yes,PN-7
10035,CULLMAN REGIONAL MEDICAL CENTER,1912 ALABAMA HIGHWAY 157,CULLMAN,AL,35058,CULLMAN,2567372000,Acute Care Hospitals,Government - Hospital District or Authority,Yes,SCIP-CARD-2
10035,CULLMAN REGIONAL MEDICAL CENTER,1912 ALABAMA HIGHWAY 157,CULLMAN,AL,35058,CULLMAN,2567372000,Acute Care Hospitals,Government - Hospital District or Authority,Yes,SCIP-INF-1
10035,CULLMAN REGIONAL MEDICAL CENTER,1912 ALABAMA HIGHWAY 157,CULLMAN,AL,35058,CULLMAN,2567372000,Acute Care Hospitals,Government - Hospital District or Authority,Yes,SCIP-INF-2
10035,CULLMAN REGIONAL MEDICAL CENTER,1912 ALABAMA HIGHWAY 157,CULLMAN,AL,35058,CULLMAN,2567372000,Acute Care Hospitals,Government - Hospital District or Authority,Yes,SCIP-INF-3
10035,CULLMAN REGIONAL MEDICAL CENTER,1912 ALABAMA HIGHWAY 157,CULLMAN,AL,35058,CULLMAN,2567372000,Acute Care Hospitals,Government - Hospital District or Authority,Yes,SCIP-INF-4
10035,CULLMAN REGIONAL MEDICAL CENTER,1912 ALABAMA HIGHWAY 157,CULLMAN,AL,35058,CULLMAN,2567372000,Acute Care Hospitals,Government - Hospital District or Authority,Yes,SCIP-INF-6
10035,CULLMAN REGIONAL MEDICAL CENTER,1912 ALABAMA HIGHWAY 157,CULLMAN,AL,35058,CULLMAN,2567372000,Acute Care Hospitals,Government - Hospital District or Authority,Yes,SCIP-VTE-1
10035,CULLMAN REGIONAL MEDICAL CENTER,1912 ALABAMA HIGHWAY 157,CULLMAN,AL,35058,CULLMAN,2567372000,Acute Care Hospitals,Government - Hospital District or Authority,Yes,SCIP-VTE-2
10036,ANDALUSIA REGIONAL HOSPITAL,849 SOUTH THREE NOTCH STREET,ANDALUSIA,AL,36420,COVINGTON,3342228466,Acute Care Hospitals,Proprietary,No,AMI-1
10036,ANDALUSIA REGIONAL HOSPITAL,849 SOUTH THREE NOTCH STREET,ANDALUSIA,AL,36420,COVINGTON,3342228466,Acute Care Hospitals,Proprietary,No,AMI-2
10036,ANDALUSIA REGIONAL HOSPITAL,849 SOUTH THREE NOTCH STREET,ANDALUSIA,AL,36420,COVINGTON,3342228466,Acute Care Hospitals,Proprietary,No,AMI-3
10036,ANDALUSIA REGIONAL HOSPITAL,849 SOUTH THREE NOTCH STREET,ANDALUSIA,AL,36420,COVINGTON,3342228466,Acute Care Hospitals,Proprietary,No,AMI-4
10036,ANDALUSIA REGIONAL HOSPITAL,849 SOUTH THREE NOTCH STREET,ANDALUSIA,AL,36420,COVINGTON,3342228466,Acute Care Hospitals,Proprietary,No,AMI-5
10036,ANDALUSIA REGIONAL HOSPITAL,849 SOUTH THREE NOTCH STREET,ANDALUSIA,AL,36420,COVINGTON,3342228466,Acute Care Hospitals,Proprietary,No,AMI-7A
10036,ANDALUSIA REGIONAL HOSPITAL,849 SOUTH THREE NOTCH STREET,ANDALUSIA,AL,36420,COVINGTON,3342228466,Acute Care Hospitals,Proprietary,No,AMI-8A
10036,ANDALUSIA REGIONAL HOSPITAL,849 SOUTH THREE NOTCH STREET,ANDALUSIA,AL,36420,COVINGTON,3342228466,Acute Care Hospitals,Proprietary,No,HF-1
10036,ANDALUSIA REGIONAL HOSPITAL,849 SOUTH THREE NOTCH STREET,ANDALUSIA,AL,36420,COVINGTON,3342228466,Acute Care Hospitals,Proprietary,No,HF-2
10036,ANDALUSIA REGIONAL HOSPITAL,849 SOUTH THREE NOTCH STREET,ANDALUSIA,AL,36420,COVINGTON,3342228466,Acute Care Hospitals,Proprietary,No,HF-3
10036,ANDALUSIA REGIONAL HOSPITAL,849 SOUTH THREE NOTCH STREET,ANDALUSIA,AL,36420,COVINGTON,3342228466,Acute Care Hospitals,Proprietary,No,HF-4
10036,ANDALUSIA REGIONAL HOSPITAL,849 SOUTH THREE NOTCH STREET,ANDALUSIA,AL,36420,COVINGTON,3342228466,Acute Care Hospitals,Proprietary,No,PN-2
10036,ANDALUSIA REGIONAL HOSPITAL,849 SOUTH THREE NOTCH STREET,ANDALUSIA,AL,36420,COVINGTON,3342228466,Acute Care Hospitals,Proprietary,No,PN-3B
10036,ANDALUSIA REGIONAL HOSPITAL,849 SOUTH THREE NOTCH STREET,ANDALUSIA,AL,36420,COVINGTON,3342228466,Acute Care Hospitals,Proprietary,No,PN-4
10036,ANDALUSIA REGIONAL HOSPITAL,849 SOUTH THREE NOTCH STREET,ANDALUSIA,AL,36420,COVINGTON,3342228466,Acute Care Hospitals,Proprietary,No,PN-5C
10036,ANDALUSIA REGIONAL HOSPITAL,849 SOUTH THREE NOTCH STREET,ANDALUSIA,AL,36420,COVINGTON,3342228466,Acute Care Hospitals,Proprietary,No,PN-6
10036,ANDALUSIA REGIONAL HOSPITAL,849 SOUTH THREE NOTCH STREET,ANDALUSIA,AL,36420,COVINGTON,3342228466,Acute Care Hospitals,Proprietary,No,PN-7
10036,ANDALUSIA REGIONAL HOSPITAL,849 SOUTH THREE NOTCH STREET,ANDALUSIA,AL,36420,COVINGTON,3342228466,Acute Care Hospitals,Proprietary,No,SCIP-CARD-2
10036,ANDALUSIA REGIONAL HOSPITAL,849 SOUTH THREE NOTCH STREET,ANDALUSIA,AL,36420,COVINGTON,3342228466,Acute Care Hospitals,Proprietary,No,SCIP-INF-1
10036,ANDALUSIA REGIONAL HOSPITAL,849 SOUTH THREE NOTCH STREET,ANDALUSIA,AL,36420,COVINGTON,3342228466,Acute Care Hospitals,Proprietary,No,SCIP-INF-2
10036,ANDALUSIA REGIONAL HOSPITAL,849 SOUTH THREE NOTCH STREET,ANDALUSIA,AL,36420,COVINGTON,3342228466,Acute Care Hospitals,Proprietary,No,SCIP-INF-3
10036,ANDALUSIA REGIONAL HOSPITAL,849 SOUTH THREE NOTCH STREET,ANDALUSIA,AL,36420,COVINGTON,3342228466,Acute Care Hospitals,Proprietary,No,SCIP-INF-4
10036,ANDALUSIA REGIONAL HOSPITAL,849 SOUTH THREE NOTCH STREET,ANDALUSIA,AL,36420,COVINGTON,3342228466,Acute Care Hospitals,Proprietary,No,SCIP-INF-6
10036,ANDALUSIA REGIONAL HOSPITAL,849 SOUTH THREE NOTCH STREET,ANDALUSIA,AL,36420,COVINGTON,3342228466,Acute Care Hospitals,Proprietary,No,SCIP-VTE-1
10036,ANDALUSIA REGIONAL HOSPITAL,849 SOUTH THREE NOTCH STREET,ANDALUSIA,AL,36420,COVINGTON,3342228466,Acute Care Hospitals,Proprietary,No,SCIP-VTE-2
10038,STRINGFELLOW MEMORIAL HOSPITAL,301 EAST 18TH ST,ANNISTON,AL,36201,CALHOUN,2562358900,Acute Care Hospitals,Proprietary,Yes,CAC-1
10038,STRINGFELLOW MEMORIAL HOSPITAL,301 EAST 18TH ST,ANNISTON,AL,36201,CALHOUN,2562358900,Acute Care Hospitals,Proprietary,Yes,SCIP-INF-1
10038,STRINGFELLOW MEMORIAL HOSPITAL,301 EAST 18TH ST,ANNISTON,AL,36201,CALHOUN,2562358900,Acute Care Hospitals,Proprietary,Yes,SCIP-INF-2
10038,STRINGFELLOW MEMORIAL HOSPITAL,301 EAST 18TH ST,ANNISTON,AL,36201,CALHOUN,2562358900,Acute Care Hospitals,Proprietary,Yes,SCIP-INF-3
10038,STRINGFELLOW MEMORIAL HOSPITAL,301 EAST 18TH ST,ANNISTON,AL,36201,CALHOUN,2562358900,Acute Care Hospitals,Proprietary,Yes,SCIP-INF-4
10038,STRINGFELLOW MEMORIAL HOSPITAL,301 EAST 18TH ST,ANNISTON,AL,36201,CALHOUN,2562358900,Acute Care Hospitals,Proprietary,Yes,SCIP-INF-6
10038,STRINGFELLOW MEMORIAL HOSPITAL,301 EAST 18TH ST,ANNISTON,AL,36201,CALHOUN,2562358900,Acute Care Hospitals,Proprietary,Yes,SCIP-VTE-1
10038,STRINGFELLOW MEMORIAL HOSPITAL,301 EAST 18TH ST,ANNISTON,AL,36201,CALHOUN,2562358900,Acute Care Hospitals,Proprietary,Yes,SCIP-VTE-2
10039,HUNTSVILLE HOSPITAL,101 SIVLEY RD,HUNTSVILLE,AL,35801,MADISON,2562651000,Acute Care Hospitals,Government - Hospital District or Authority,Yes,CAC-1
10039,HUNTSVILLE HOSPITAL,101 SIVLEY RD,HUNTSVILLE,AL,35801,MADISON,2562651000,Acute Care Hospitals,Government - Hospital District or Authority,Yes,CAC-2
10039,HUNTSVILLE HOSPITAL,101 SIVLEY RD,HUNTSVILLE,AL,35801,MADISON,2562651000,Acute Care Hospitals,Government - Hospital District or Authority,Yes,CAC-3
10039,HUNTSVILLE HOSPITAL,101 SIVLEY RD,HUNTSVILLE,AL,35801,MADISON,2562651000,Acute Care Hospitals,Government - Hospital District or Authority,Yes,AMI-1
10039,HUNTSVILLE HOSPITAL,101 SIVLEY RD,HUNTSVILLE,AL,35801,MADISON,2562651000,Acute Care Hospitals,Government - Hospital District or Authority,Yes,AMI-2
10039,HUNTSVILLE HOSPITAL,101 SIVLEY RD,HUNTSVILLE,AL,35801,MADISON,2562651000,Acute Care Hospitals,Government - Hospital District or Authority,Yes,AMI-3
10039,HUNTSVILLE HOSPITAL,101 SIVLEY RD,HUNTSVILLE,AL,35801,MADISON,2562651000,Acute Care Hospitals,Government - Hospital District or Authority,Yes,AMI-4
10039,HUNTSVILLE HOSPITAL,101 SIVLEY RD,HUNTSVILLE,AL,35801,MADISON,2562651000,Acute Care Hospitals,Government - Hospital District or Authority,Yes,AMI-5
10039,HUNTSVILLE HOSPITAL,101 SIVLEY RD,HUNTSVILLE,AL,35801,MADISON,2562651000,Acute Care Hospitals,Government - Hospital District or Authority,Yes,AMI-7A
10039,HUNTSVILLE HOSPITAL,101 SIVLEY RD,HUNTSVILLE,AL,35801,MADISON,2562651000,Acute Care Hospitals,Government - Hospital District or Authority,Yes,AMI-8A
10039,HUNTSVILLE HOSPITAL,101 SIVLEY RD,HUNTSVILLE,AL,35801,MADISON,2562651000,Acute Care Hospitals,Government - Hospital District or Authority,Yes,HF-1
10039,HUNTSVILLE HOSPITAL,101 SIVLEY RD,HUNTSVILLE,AL,35801,MADISON,2562651000,Acute Care Hospitals,Government - Hospital District or Authority,Yes,HF-2
10039,HUNTSVILLE HOSPITAL,101 SIVLEY RD,HUNTSVILLE,AL,35801,MADISON,2562651000,Acute Care Hospitals,Government - Hospital District or Authority,Yes,HF-3
10039,HUNTSVILLE HOSPITAL,101 SIVLEY RD,HUNTSVILLE,AL,35801,MADISON,2562651000,Acute Care Hospitals,Government - Hospital District or Authority,Yes,HF-4
10039,HUNTSVILLE HOSPITAL,101 SIVLEY RD,HUNTSVILLE,AL,35801,MADISON,2562651000,Acute Care Hospitals,Government - Hospital District or Authority,Yes,PN-2
10039,HUNTSVILLE HOSPITAL,101 SIVLEY RD,HUNTSVILLE,AL,35801,MADISON,2562651000,Acute Care Hospitals,Government - Hospital District or Authority,Yes,PN-3B
10039,HUNTSVILLE HOSPITAL,101 SIVLEY RD,HUNTSVILLE,AL,35801,MADISON,2562651000,Acute Care Hospitals,Government - Hospital District or Authority,Yes,PN-4
10039,HUNTSVILLE HOSPITAL,101 SIVLEY RD,HUNTSVILLE,AL,35801,MADISON,2562651000,Acute Care Hospitals,Government - Hospital District or Authority,Yes,PN-5C
10039,HUNTSVILLE HOSPITAL,101 SIVLEY RD,HUNTSVILLE,AL,35801,MADISON,2562651000,Acute Care Hospitals,Government - Hospital District or Authority,Yes,PN-6
10039,HUNTSVILLE HOSPITAL,101 SIVLEY RD,HUNTSVILLE,AL,35801,MADISON,2562651000,Acute Care Hospitals,Government - Hospital District or Authority,Yes,PN-7
10039,HUNTSVILLE HOSPITAL,101 SIVLEY RD,HUNTSVILLE,AL,35801,MADISON,2562651000,Acute Care Hospitals,Government - Hospital District or Authority,Yes,SCIP-CARD-2
10039,HUNTSVILLE HOSPITAL,101 SIVLEY RD,HUNTSVILLE,AL,35801,MADISON,2562651000,Acute Care Hospitals,Government - Hospital District or Authority,Yes,SCIP-INF-1
10039,HUNTSVILLE HOSPITAL,101 SIVLEY RD,HUNTSVILLE,AL,35801,MADISON,2562651000,Acute Care Hospitals,Government - Hospital District or Authority,Yes,SCIP-INF-2
10039,HUNTSVILLE HOSPITAL,101 SIVLEY RD,HUNTSVILLE,AL,35801,MADISON,2562651000,Acute Care Hospitals,Government - Hospital District or Authority,Yes,SCIP-INF-3
10039,HUNTSVILLE HOSPITAL,101 SIVLEY RD,HUNTSVILLE,AL,35801,MADISON,2562651000,Acute Care Hospitals,Government - Hospital District or Authority,Yes,SCIP-INF-4
10039,HUNTSVILLE HOSPITAL,101 SIVLEY RD,HUNTSVILLE,AL,35801,MADISON,2562651000,Acute Care Hospitals,Government - Hospital District or Authority,Yes,SCIP-INF-6
10039,HUNTSVILLE HOSPITAL,101 SIVLEY RD,HUNTSVILLE,AL,35801,MADISON,2562651000,Acute Care Hospitals,Government - Hospital District or Authority,Yes,SCIP-VTE-1
10039,HUNTSVILLE HOSPITAL,101 SIVLEY RD,HUNTSVILLE,AL,35801,MADISON,2562651000,Acute Care Hospitals,Government - Hospital District or Authority,Yes,SCIP-VTE-2
10040,GADSDEN REGIONAL MEDICAL CENTER,1007 GOODYEAR AVENUE,GADSDEN,AL,35903,ETOWAH,2564944000,Acute Care Hospitals,Proprietary,Yes,AMI-1
10040,GADSDEN REGIONAL MEDICAL CENTER,1007 GOODYEAR AVENUE,GADSDEN,AL,35903,ETOWAH,2564944000,Acute Care Hospitals,Proprietary,Yes,AMI-2
10040,GADSDEN REGIONAL MEDICAL CENTER,1007 GOODYEAR AVENUE,GADSDEN,AL,35903,ETOWAH,2564944000,Acute Care Hospitals,Proprietary,Yes,AMI-3
10040,GADSDEN REGIONAL MEDICAL CENTER,1007 GOODYEAR AVENUE,GADSDEN,AL,35903,ETOWAH,2564944000,Acute Care Hospitals,Proprietary,Yes,AMI-4
10040,GADSDEN REGIONAL MEDICAL CENTER,1007 GOODYEAR AVENUE,GADSDEN,AL,35903,ETOWAH,2564944000,Acute Care Hospitals,Proprietary,Yes,AMI-5
10040,GADSDEN REGIONAL MEDICAL CENTER,1007 GOODYEAR AVENUE,GADSDEN,AL,35903,ETOWAH,2564944000,Acute Care Hospitals,Proprietary,Yes,AMI-7A
10040,GADSDEN REGIONAL MEDICAL CENTER,1007 GOODYEAR AVENUE,GADSDEN,AL,35903,ETOWAH,2564944000,Acute Care Hospitals,Proprietary,Yes,AMI-8A
10040,GADSDEN REGIONAL MEDICAL CENTER,1007 GOODYEAR AVENUE,GADSDEN,AL,35903,ETOWAH,2564944000,Acute Care Hospitals,Proprietary,Yes,HF-1
10040,GADSDEN REGIONAL MEDICAL CENTER,1007 GOODYEAR AVENUE,GADSDEN,AL,35903,ETOWAH,2564944000,Acute Care Hospitals,Proprietary,Yes,HF-2
10040,GADSDEN REGIONAL MEDICAL CENTER,1007 GOODYEAR AVENUE,GADSDEN,AL,35903,ETOWAH,2564944000,Acute Care Hospitals,Proprietary,Yes,HF-3
10040,GADSDEN REGIONAL MEDICAL CENTER,1007 GOODYEAR AVENUE,GADSDEN,AL,35903,ETOWAH,2564944000,Acute Care Hospitals,Proprietary,Yes,HF-4
10040,GADSDEN REGIONAL MEDICAL CENTER,1007 GOODYEAR AVENUE,GADSDEN,AL,35903,ETOWAH,2564944000,Acute Care Hospitals,Proprietary,Yes,PN-2
10040,GADSDEN REGIONAL MEDICAL CENTER,1007 GOODYEAR AVENUE,GADSDEN,AL,35903,ETOWAH,2564944000,Acute Care Hospitals,Proprietary,Yes,PN-3B
10040,GADSDEN REGIONAL MEDICAL CENTER,1007 GOODYEAR AVENUE,GADSDEN,AL,35903,ETOWAH,2564944000,Acute Care Hospitals,Proprietary,Yes,PN-4
10040,GADSDEN REGIONAL MEDICAL CENTER,1007 GOODYEAR AVENUE,GADSDEN,AL,35903,ETOWAH,2564944000,Acute Care Hospitals,Proprietary,Yes,PN-5C
10040,GADSDEN REGIONAL MEDICAL CENTER,1007 GOODYEAR AVENUE,GADSDEN,AL,35903,ETOWAH,2564944000,Acute Care Hospitals,Proprietary,Yes,PN-6
10040,GADSDEN REGIONAL MEDICAL CENTER,1007 GOODYEAR AVENUE,GADSDEN,AL,35903,ETOWAH,2564944000,Acute Care Hospitals,Proprietary,Yes,PN-7
10040,GADSDEN REGIONAL MEDICAL CENTER,1007 GOODYEAR AVENUE,GADSDEN,AL,35903,ETOWAH,2564944000,Acute Care Hospitals,Proprietary,Yes,SCIP-CARD-2
10040,GADSDEN REGIONAL MEDICAL CENTER,1007 GOODYEAR AVENUE,GADSDEN,AL,35903,ETOWAH,2564944000,Acute Care Hospitals,Proprietary,Yes,SCIP-INF-1
10040,GADSDEN REGIONAL MEDICAL CENTER,1007 GOODYEAR AVENUE,GADSDEN,AL,35903,ETOWAH,2564944000,Acute Care Hospitals,Proprietary,Yes,SCIP-INF-2
10040,GADSDEN REGIONAL MEDICAL CENTER,1007 GOODYEAR AVENUE,GADSDEN,AL,35903,ETOWAH,2564944000,Acute Care Hospitals,Proprietary,Yes,SCIP-INF-3
10040,GADSDEN REGIONAL MEDICAL CENTER,1007 GOODYEAR AVENUE,GADSDEN,AL,35903,ETOWAH,2564944000,Acute Care Hospitals,Proprietary,Yes,SCIP-INF-4
10040,GADSDEN REGIONAL MEDICAL CENTER,1007 GOODYEAR AVENUE,GADSDEN,AL,35903,ETOWAH,2564944000,Acute Care Hospitals,Proprietary,Yes,SCIP-INF-6
10040,GADSDEN REGIONAL MEDICAL CENTER,1007 GOODYEAR AVENUE,GADSDEN,AL,35903,ETOWAH,2564944000,Acute Care Hospitals,Proprietary,Yes,SCIP-VTE-1
10040,GADSDEN REGIONAL MEDICAL CENTER,1007 GOODYEAR AVENUE,GADSDEN,AL,35903,ETOWAH,2564944000,Acute Care Hospitals,Proprietary,Yes,SCIP-VTE-2
10043,CHILTON MEDICAL CENTER,1010 LAY DAM ROAD,CLANTON,AL,35045,CHILTON,2057552500,Acute Care Hospitals,Voluntary non-profit - Private,Yes,AMI-1
10043,CHILTON MEDICAL CENTER,1010 LAY DAM ROAD,CLANTON,AL,35045,CHILTON,2057552500,Acute Care Hospitals,Voluntary non-profit - Private,Yes,AMI-2
10043,CHILTON MEDICAL CENTER,1010 LAY DAM ROAD,CLANTON,AL,35045,CHILTON,2057552500,Acute Care Hospitals,Voluntary non-profit - Private,Yes,AMI-3
10043,CHILTON MEDICAL CENTER,1010 LAY DAM ROAD,CLANTON,AL,35045,CHILTON,2057552500,Acute Care Hospitals,Voluntary non-profit - Private,Yes,AMI-4
10043,CHILTON MEDICAL CENTER,1010 LAY DAM ROAD,CLANTON,AL,35045,CHILTON,2057552500,Acute Care Hospitals,Voluntary non-profit - Private,Yes,AMI-5
10043,CHILTON MEDICAL CENTER,1010 LAY DAM ROAD,CLANTON,AL,35045,CHILTON,2057552500,Acute Care Hospitals,Voluntary non-profit - Private,Yes,AMI-7A
10043,CHILTON MEDICAL CENTER,1010 LAY DAM ROAD,CLANTON,AL,35045,CHILTON,2057552500,Acute Care Hospitals,Voluntary non-profit - Private,Yes,AMI-8A
10043,CHILTON MEDICAL CENTER,1010 LAY DAM ROAD,CLANTON,AL,35045,CHILTON,2057552500,Acute Care Hospitals,Voluntary non-profit - Private,Yes,HF-1
10043,CHILTON MEDICAL CENTER,1010 LAY DAM ROAD,CLANTON,AL,35045,CHILTON,2057552500,Acute Care Hospitals,Voluntary non-profit - Private,Yes,HF-2
10043,CHILTON MEDICAL CENTER,1010 LAY DAM ROAD,CLANTON,AL,35045,CHILTON,2057552500,Acute Care Hospitals,Voluntary non-profit - Private,Yes,HF-3
10043,CHILTON MEDICAL CENTER,1010 LAY DAM ROAD,CLANTON,AL,35045,CHILTON,2057552500,Acute Care Hospitals,Voluntary non-profit - Private,Yes,HF-4
10043,CHILTON MEDICAL CENTER,1010 LAY DAM ROAD,CLANTON,AL,35045,CHILTON,2057552500,Acute Care Hospitals,Voluntary non-profit - Private,Yes,PN-2
10043,CHILTON MEDICAL CENTER,1010 LAY DAM ROAD,CLANTON,AL,35045,CHILTON,2057552500,Acute Care Hospitals,Voluntary non-profit - Private,Yes,PN-3B
10043,CHILTON MEDICAL CENTER,1010 LAY DAM ROAD,CLANTON,AL,35045,CHILTON,2057552500,Acute Care Hospitals,Voluntary non-profit - Private,Yes,PN-4
10043,CHILTON MEDICAL CENTER,1010 LAY DAM ROAD,CLANTON,AL,35045,CHILTON,2057552500,Acute Care Hospitals,Voluntary non-profit - Private,Yes,PN-5C
10043,CHILTON MEDICAL CENTER,1010 LAY DAM ROAD,CLANTON,AL,35045,CHILTON,2057552500,Acute Care Hospitals,Voluntary non-profit - Private,Yes,PN-6
10043,CHILTON MEDICAL CENTER,1010 LAY DAM ROAD,CLANTON,AL,35045,CHILTON,2057552500,Acute Care Hospitals,Voluntary non-profit - Private,Yes,PN-7
10043,CHILTON MEDICAL CENTER,1010 LAY DAM ROAD,CLANTON,AL,35045,CHILTON,2057552500,Acute Care Hospitals,Voluntary non-profit - Private,Yes,SCIP-CARD-2
10043,CHILTON MEDICAL CENTER,1010 LAY DAM ROAD,CLANTON,AL,35045,CHILTON,2057552500,Acute Care Hospitals,Voluntary non-profit - Private,Yes,SCIP-INF-1
10043,CHILTON MEDICAL CENTER,1010 LAY DAM ROAD,CLANTON,AL,35045,CHILTON,2057552500,Acute Care Hospitals,Voluntary non-profit - Private,Yes,SCIP-INF-2
10043,CHILTON MEDICAL CENTER,1010 LAY DAM ROAD,CLANTON,AL,35045,CHILTON,2057552500,Acute Care Hospitals,Voluntary non-profit - Private,Yes,SCIP-INF-3
10043,CHILTON MEDICAL CENTER,1010 LAY DAM ROAD,CLANTON,AL,35045,CHILTON,2057552500,Acute Care Hospitals,Voluntary non-profit - Private,Yes,SCIP-INF-4
10043,CHILTON MEDICAL CENTER,1010 LAY DAM ROAD,CLANTON,AL,35045,CHILTON,2057552500,Acute Care Hospitals,Voluntary non-profit - Private,Yes,SCIP-INF-6
10043,CHILTON MEDICAL CENTER,1010 LAY DAM ROAD,CLANTON,AL,35045,CHILTON,2057552500,Acute Care Hospitals,Voluntary non-profit - Private,Yes,SCIP-VTE-1
10043,CHILTON MEDICAL CENTER,1010 LAY DAM ROAD,CLANTON,AL,35045,CHILTON,2057552500,Acute Care Hospitals,Voluntary non-profit - Private,Yes,SCIP-VTE-2
10044,MARION REGIONAL MEDICAL CENTER,1256 MILITARY STREET SOUTH,HAMILTON,AL,35570,MARION,2059216200,Acute Care Hospitals,Voluntary non-profit - Private,Yes,AMI-1
10044,MARION REGIONAL MEDICAL CENTER,1256 MILITARY STREET SOUTH,HAMILTON,AL,35570,MARION,2059216200,Acute Care Hospitals,Voluntary non-profit - Private,Yes,AMI-2
10044,MARION REGIONAL MEDICAL CENTER,1256 MILITARY STREET SOUTH,HAMILTON,AL,35570,MARION,2059216200,Acute Care Hospitals,Voluntary non-profit - Private,Yes,AMI-3
10044,MARION REGIONAL MEDICAL CENTER,1256 MILITARY STREET SOUTH,HAMILTON,AL,35570,MARION,2059216200,Acute Care Hospitals,Voluntary non-profit - Private,Yes,AMI-4
10044,MARION REGIONAL MEDICAL CENTER,1256 MILITARY STREET SOUTH,HAMILTON,AL,35570,MARION,2059216200,Acute Care Hospitals,Voluntary non-profit - Private,Yes,AMI-5
10044,MARION REGIONAL MEDICAL CENTER,1256 MILITARY STREET SOUTH,HAMILTON,AL,35570,MARION,2059216200,Acute Care Hospitals,Voluntary non-profit - Private,Yes,AMI-7A
10044,MARION REGIONAL MEDICAL CENTER,1256 MILITARY STREET SOUTH,HAMILTON,AL,35570,MARION,2059216200,Acute Care Hospitals,Voluntary non-profit - Private,Yes,AMI-8A
10044,MARION REGIONAL MEDICAL CENTER,1256 MILITARY STREET SOUTH,HAMILTON,AL,35570,MARION,2059216200,Acute Care Hospitals,Voluntary non-profit - Private,Yes,HF-1
10044,MARION REGIONAL MEDICAL CENTER,1256 MILITARY STREET SOUTH,HAMILTON,AL,35570,MARION,2059216200,Acute Care Hospitals,Voluntary non-profit - Private,Yes,HF-2
10044,MARION REGIONAL MEDICAL CENTER,1256 MILITARY STREET SOUTH,HAMILTON,AL,35570,MARION,2059216200,Acute Care Hospitals,Voluntary non-profit - Private,Yes,HF-3
10044,MARION REGIONAL MEDICAL CENTER,1256 MILITARY STREET SOUTH,HAMILTON,AL,35570,MARION,2059216200,Acute Care Hospitals,Voluntary non-profit - Private,Yes,HF-4
10044,MARION REGIONAL MEDICAL CENTER,1256 MILITARY STREET SOUTH,HAMILTON,AL,35570,MARION,2059216200,Acute Care Hospitals,Voluntary non-profit - Private,Yes,PN-2
10044,MARION REGIONAL MEDICAL CENTER,1256 MILITARY STREET SOUTH,HAMILTON,AL,35570,MARION,2059216200,Acute Care Hospitals,Voluntary non-profit - Private,Yes,PN-3B
10044,MARION REGIONAL MEDICAL CENTER,1256 MILITARY STREET SOUTH,HAMILTON,AL,35570,MARION,2059216200,Acute Care Hospitals,Voluntary non-profit - Private,Yes,PN-4
10044,MARION REGIONAL MEDICAL CENTER,1256 MILITARY STREET SOUTH,HAMILTON,AL,35570,MARION,2059216200,Acute Care Hospitals,Voluntary non-profit - Private,Yes,PN-5C
10044,MARION REGIONAL MEDICAL CENTER,1256 MILITARY STREET SOUTH,HAMILTON,AL,35570,MARION,2059216200,Acute Care Hospitals,Voluntary non-profit - Private,Yes,PN-6
10044,MARION REGIONAL MEDICAL CENTER,1256 MILITARY STREET SOUTH,HAMILTON,AL,35570,MARION,2059216200,Acute Care Hospitals,Voluntary non-profit - Private,Yes,PN-7
10044,MARION REGIONAL MEDICAL CENTER,1256 MILITARY STREET SOUTH,HAMILTON,AL,35570,MARION,2059216200,Acute Care Hospitals,Voluntary non-profit - Private,Yes,SCIP-CARD-2
10044,MARION REGIONAL MEDICAL CENTER,1256 MILITARY STREET SOUTH,HAMILTON,AL,35570,MARION,2059216200,Acute Care Hospitals,Voluntary non-profit - Private,Yes,SCIP-INF-1
10044,MARION REGIONAL MEDICAL CENTER,1256 MILITARY STREET SOUTH,HAMILTON,AL,35570,MARION,2059216200,Acute Care Hospitals,Voluntary non-profit - Private,Yes,SCIP-INF-2
10044,MARION REGIONAL MEDICAL CENTER,1256 MILITARY STREET SOUTH,HAMILTON,AL,35570,MARION,2059216200,Acute Care Hospitals,Voluntary non-profit - Private,Yes,SCIP-INF-3
10044,MARION REGIONAL MEDICAL CENTER,1256 MILITARY STREET SOUTH,HAMILTON,AL,35570,MARION,2059216200,Acute Care Hospitals,Voluntary non-profit - Private,Yes,SCIP-INF-4
10044,MARION REGIONAL MEDICAL CENTER,1256 MILITARY STREET SOUTH,HAMILTON,AL,35570,MARION,2059216200,Acute Care Hospitals,Voluntary non-profit - Private,Yes,SCIP-INF-6
10044,MARION REGIONAL MEDICAL CENTER,1256 MILITARY STREET SOUTH,HAMILTON,AL,35570,MARION,2059216200,Acute Care Hospitals,Voluntary non-profit - Private,Yes,SCIP-VTE-1
10044,MARION REGIONAL MEDICAL CENTER,1256 MILITARY STREET SOUTH,HAMILTON,AL,35570,MARION,2059216200,Acute Care Hospitals,Voluntary non-profit - Private,Yes,SCIP-VTE-2
10045,FAYETTE MEDICAL CENTER,1653 TEMPLE AVENUE NORTH,FAYETTE,AL,35555,FAYETTE,2059325966,Acute Care Hospitals,Voluntary non-profit - Other,Yes,AMI-1
10045,FAYETTE MEDICAL CENTER,1653 TEMPLE AVENUE NORTH,FAYETTE,AL,35555,FAYETTE,2059325966,Acute Care Hospitals,Voluntary non-profit - Other,Yes,AMI-2
10045,FAYETTE MEDICAL CENTER,1653 TEMPLE AVENUE NORTH,FAYETTE,AL,35555,FAYETTE,2059325966,Acute Care Hospitals,Voluntary non-profit - Other,Yes,AMI-3
10045,FAYETTE MEDICAL CENTER,1653 TEMPLE AVENUE NORTH,FAYETTE,AL,35555,FAYETTE,2059325966,Acute Care Hospitals,Voluntary non-profit - Other,Yes,AMI-4
10045,FAYETTE MEDICAL CENTER,1653 TEMPLE AVENUE NORTH,FAYETTE,AL,35555,FAYETTE,2059325966,Acute Care Hospitals,Voluntary non-profit - Other,Yes,AMI-5
10045,FAYETTE MEDICAL CENTER,1653 TEMPLE AVENUE NORTH,FAYETTE,AL,35555,FAYETTE,2059325966,Acute Care Hospitals,Voluntary non-profit - Other,Yes,AMI-7A
10045,FAYETTE MEDICAL CENTER,1653 TEMPLE AVENUE NORTH,FAYETTE,AL,35555,FAYETTE,2059325966,Acute Care Hospitals,Voluntary non-profit - Other,Yes,AMI-8A
10045,FAYETTE MEDICAL CENTER,1653 TEMPLE AVENUE NORTH,FAYETTE,AL,35555,FAYETTE,2059325966,Acute Care Hospitals,Voluntary non-profit - Other,Yes,HF-1
10045,FAYETTE MEDICAL CENTER,1653 TEMPLE AVENUE NORTH,FAYETTE,AL,35555,FAYETTE,2059325966,Acute Care Hospitals,Voluntary non-profit - Other,Yes,HF-2
10045,FAYETTE MEDICAL CENTER,1653 TEMPLE AVENUE NORTH,FAYETTE,AL,35555,FAYETTE,2059325966,Acute Care Hospitals,Voluntary non-profit - Other,Yes,HF-3
10045,FAYETTE MEDICAL CENTER,1653 TEMPLE AVENUE NORTH,FAYETTE,AL,35555,FAYETTE,2059325966,Acute Care Hospitals,Voluntary non-profit - Other,Yes,HF-4
10045,FAYETTE MEDICAL CENTER,1653 TEMPLE AVENUE NORTH,FAYETTE,AL,35555,FAYETTE,2059325966,Acute Care Hospitals,Voluntary non-profit - Other,Yes,PN-2
10045,FAYETTE MEDICAL CENTER,1653 TEMPLE AVENUE NORTH,FAYETTE,AL,35555,FAYETTE,2059325966,Acute Care Hospitals,Voluntary non-profit - Other,Yes,PN-3B
10045,FAYETTE MEDICAL CENTER,1653 TEMPLE AVENUE NORTH,FAYETTE,AL,35555,FAYETTE,2059325966,Acute Care Hospitals,Voluntary non-profit - Other,Yes,PN-4
10045,FAYETTE MEDICAL CENTER,1653 TEMPLE AVENUE NORTH,FAYETTE,AL,35555,FAYETTE,2059325966,Acute Care Hospitals,Voluntary non-profit - Other,Yes,PN-5C
10045,FAYETTE MEDICAL CENTER,1653 TEMPLE AVENUE NORTH,FAYETTE,AL,35555,FAYETTE,2059325966,Acute Care Hospitals,Voluntary non-profit - Other,Yes,PN-6
10045,FAYETTE MEDICAL CENTER,1653 TEMPLE AVENUE NORTH,FAYETTE,AL,35555,FAYETTE,2059325966,Acute Care Hospitals,Voluntary non-profit - Other,Yes,PN-7
10045,FAYETTE MEDICAL CENTER,1653 TEMPLE AVENUE NORTH,FAYETTE,AL,35555,FAYETTE,2059325966,Acute Care Hospitals,Voluntary non-profit - Other,Yes,SCIP-CARD-2
10045,FAYETTE MEDICAL CENTER,1653 TEMPLE AVENUE NORTH,FAYETTE,AL,35555,FAYETTE,2059325966,Acute Care Hospitals,Voluntary non-profit - Other,Yes,SCIP-INF-1
10045,FAYETTE MEDICAL CENTER,1653 TEMPLE AVENUE NORTH,FAYETTE,AL,35555,FAYETTE,2059325966,Acute Care Hospitals,Voluntary non-profit - Other,Yes,SCIP-INF-2
10045,FAYETTE MEDICAL CENTER,1653 TEMPLE AVENUE NORTH,FAYETTE,AL,35555,FAYETTE,2059325966,Acute Care Hospitals,Voluntary non-profit - Other,Yes,SCIP-INF-3
10045,FAYETTE MEDICAL CENTER,1653 TEMPLE AVENUE NORTH,FAYETTE,AL,35555,FAYETTE,2059325966,Acute Care Hospitals,Voluntary non-profit - Other,Yes,SCIP-INF-4
10045,FAYETTE MEDICAL CENTER,1653 TEMPLE AVENUE NORTH,FAYETTE,AL,35555,FAYETTE,2059325966,Acute Care Hospitals,Voluntary non-profit - Other,Yes,SCIP-INF-6
10045,FAYETTE MEDICAL CENTER,1653 TEMPLE AVENUE NORTH,FAYETTE,AL,35555,FAYETTE,2059325966,Acute Care Hospitals,Voluntary non-profit - Other,Yes,SCIP-VTE-1
10045,FAYETTE MEDICAL CENTER,1653 TEMPLE AVENUE NORTH,FAYETTE,AL,35555,FAYETTE,2059325966,Acute Care Hospitals,Voluntary non-profit - Other,Yes,SCIP-VTE-2
10046,RIVERVIEW REGIONAL MEDICAL CENTER,600 SOUTH THIRD STREET,GADSDEN,AL,35901,ETOWAH,2565435200,Acute Care Hospitals,Proprietary,Yes,CAC-1
10046,RIVERVIEW REGIONAL MEDICAL CENTER,600 SOUTH THIRD STREET,GADSDEN,AL,35901,ETOWAH,2565435200,Acute Care Hospitals,Proprietary,Yes,CAC-2
10046,RIVERVIEW REGIONAL MEDICAL CENTER,600 SOUTH THIRD STREET,GADSDEN,AL,35901,ETOWAH,2565435200,Acute Care Hospitals,Proprietary,Yes,CAC-3
10046,RIVERVIEW REGIONAL MEDICAL CENTER,600 SOUTH THIRD STREET,GADSDEN,AL,35901,ETOWAH,2565435200,Acute Care Hospitals,Proprietary,Yes,AMI-1
10046,RIVERVIEW REGIONAL MEDICAL CENTER,600 SOUTH THIRD STREET,GADSDEN,AL,35901,ETOWAH,2565435200,Acute Care Hospitals,Proprietary,Yes,AMI-2
10046,RIVERVIEW REGIONAL MEDICAL CENTER,600 SOUTH THIRD STREET,GADSDEN,AL,35901,ETOWAH,2565435200,Acute Care Hospitals,Proprietary,Yes,AMI-3
10046,RIVERVIEW REGIONAL MEDICAL CENTER,600 SOUTH THIRD STREET,GADSDEN,AL,35901,ETOWAH,2565435200,Acute Care Hospitals,Proprietary,Yes,AMI-4
10046,RIVERVIEW REGIONAL MEDICAL CENTER,600 SOUTH THIRD STREET,GADSDEN,AL,35901,ETOWAH,2565435200,Acute Care Hospitals,Proprietary,Yes,AMI-5
10046,RIVERVIEW REGIONAL MEDICAL CENTER,600 SOUTH THIRD STREET,GADSDEN,AL,35901,ETOWAH,2565435200,Acute Care Hospitals,Proprietary,Yes,AMI-7A
10046,RIVERVIEW REGIONAL MEDICAL CENTER,600 SOUTH THIRD STREET,GADSDEN,AL,35901,ETOWAH,2565435200,Acute Care Hospitals,Proprietary,Yes,AMI-8A
10046,RIVERVIEW REGIONAL MEDICAL CENTER,600 SOUTH THIRD STREET,GADSDEN,AL,35901,ETOWAH,2565435200,Acute Care Hospitals,Proprietary,Yes,HF-1
10046,RIVERVIEW REGIONAL MEDICAL CENTER,600 SOUTH THIRD STREET,GADSDEN,AL,35901,ETOWAH,2565435200,Acute Care Hospitals,Proprietary,Yes,HF-2
10046,RIVERVIEW REGIONAL MEDICAL CENTER,600 SOUTH THIRD STREET,GADSDEN,AL,35901,ETOWAH,2565435200,Acute Care Hospitals,Proprietary,Yes,HF-3
10046,RIVERVIEW REGIONAL MEDICAL CENTER,600 SOUTH THIRD STREET,GADSDEN,AL,35901,ETOWAH,2565435200,Acute Care Hospitals,Proprietary,Yes,HF-4
10046,RIVERVIEW REGIONAL MEDICAL CENTER,600 SOUTH THIRD STREET,GADSDEN,AL,35901,ETOWAH,2565435200,Acute Care Hospitals,Proprietary,Yes,PN-2
10046,RIVERVIEW REGIONAL MEDICAL CENTER,600 SOUTH THIRD STREET,GADSDEN,AL,35901,ETOWAH,2565435200,Acute Care Hospitals,Proprietary,Yes,PN-3B
10046,RIVERVIEW REGIONAL MEDICAL CENTER,600 SOUTH THIRD STREET,GADSDEN,AL,35901,ETOWAH,2565435200,Acute Care Hospitals,Proprietary,Yes,PN-4
10046,RIVERVIEW REGIONAL MEDICAL CENTER,600 SOUTH THIRD STREET,GADSDEN,AL,35901,ETOWAH,2565435200,Acute Care Hospitals,Proprietary,Yes,PN-5C
10046,RIVERVIEW REGIONAL MEDICAL CENTER,600 SOUTH THIRD STREET,GADSDEN,AL,35901,ETOWAH,2565435200,Acute Care Hospitals,Proprietary,Yes,PN-6
10046,RIVERVIEW REGIONAL MEDICAL CENTER,600 SOUTH THIRD STREET,GADSDEN,AL,35901,ETOWAH,2565435200,Acute Care Hospitals,Proprietary,Yes,PN-7
10046,RIVERVIEW REGIONAL MEDICAL CENTER,600 SOUTH THIRD STREET,GADSDEN,AL,35901,ETOWAH,2565435200,Acute Care Hospitals,Proprietary,Yes,SCIP-CARD-2
10046,RIVERVIEW REGIONAL MEDICAL CENTER,600 SOUTH THIRD STREET,GADSDEN,AL,35901,ETOWAH,2565435200,Acute Care Hospitals,Proprietary,Yes,SCIP-INF-1
10046,RIVERVIEW REGIONAL MEDICAL CENTER,600 SOUTH THIRD STREET,GADSDEN,AL,35901,ETOWAH,2565435200,Acute Care Hospitals,Proprietary,Yes,SCIP-INF-2
10046,RIVERVIEW REGIONAL MEDICAL CENTER,600 SOUTH THIRD STREET,GADSDEN,AL,35901,ETOWAH,2565435200,Acute Care Hospitals,Proprietary,Yes,SCIP-INF-3
10046,RIVERVIEW REGIONAL MEDICAL CENTER,600 SOUTH THIRD STREET,GADSDEN,AL,35901,ETOWAH,2565435200,Acute Care Hospitals,Proprietary,Yes,SCIP-INF-4
10046,RIVERVIEW REGIONAL MEDICAL CENTER,600 SOUTH THIRD STREET,GADSDEN,AL,35901,ETOWAH,2565435200,Acute Care Hospitals,Proprietary,Yes,SCIP-INF-6
10046,RIVERVIEW REGIONAL MEDICAL CENTER,600 SOUTH THIRD STREET,GADSDEN,AL,35901,ETOWAH,2565435200,Acute Care Hospitals,Proprietary,Yes,SCIP-VTE-1
10046,RIVERVIEW REGIONAL MEDICAL CENTER,600 SOUTH THIRD STREET,GADSDEN,AL,35901,ETOWAH,2565435200,Acute Care Hospitals,Proprietary,Yes,SCIP-VTE-2
10047,GEORGIANA HOSPITAL,515 MIRANDA ST,GEORGIANA,AL,36033,BUTLER,3343762205,Acute Care Hospitals,Voluntary non-profit - Private,No,AMI-1
10047,GEORGIANA HOSPITAL,515 MIRANDA ST,GEORGIANA,AL,36033,BUTLER,3343762205,Acute Care Hospitals,Voluntary non-profit - Private,No,AMI-2
10047,GEORGIANA HOSPITAL,515 MIRANDA ST,GEORGIANA,AL,36033,BUTLER,3343762205,Acute Care Hospitals,Voluntary non-profit - Private,No,AMI-3
10047,GEORGIANA HOSPITAL,515 MIRANDA ST,GEORGIANA,AL,36033,BUTLER,3343762205,Acute Care Hospitals,Voluntary non-profit - Private,No,AMI-4
10047,GEORGIANA HOSPITAL,515 MIRANDA ST,GEORGIANA,AL,36033,BUTLER,3343762205,Acute Care Hospitals,Voluntary non-profit - Private,No,AMI-5
10047,GEORGIANA HOSPITAL,515 MIRANDA ST,GEORGIANA,AL,36033,BUTLER,3343762205,Acute Care Hospitals,Voluntary non-profit - Private,No,AMI-7A
10047,GEORGIANA HOSPITAL,515 MIRANDA ST,GEORGIANA,AL,36033,BUTLER,3343762205,Acute Care Hospitals,Voluntary non-profit - Private,No,AMI-8A
10047,GEORGIANA HOSPITAL,515 MIRANDA ST,GEORGIANA,AL,36033,BUTLER,3343762205,Acute Care Hospitals,Voluntary non-profit - Private,No,HF-1
10047,GEORGIANA HOSPITAL,515 MIRANDA ST,GEORGIANA,AL,36033,BUTLER,3343762205,Acute Care Hospitals,Voluntary non-profit - Private,No,HF-2
10047,GEORGIANA HOSPITAL,515 MIRANDA ST,GEORGIANA,AL,36033,BUTLER,3343762205,Acute Care Hospitals,Voluntary non-profit - Private,No,HF-3
10047,GEORGIANA HOSPITAL,515 MIRANDA ST,GEORGIANA,AL,36033,BUTLER,3343762205,Acute Care Hospitals,Voluntary non-profit - Private,No,HF-4
10047,GEORGIANA HOSPITAL,515 MIRANDA ST,GEORGIANA,AL,36033,BUTLER,3343762205,Acute Care Hospitals,Voluntary non-profit - Private,No,PN-2
10047,GEORGIANA HOSPITAL,515 MIRANDA ST,GEORGIANA,AL,36033,BUTLER,3343762205,Acute Care Hospitals,Voluntary non-profit - Private,No,PN-3B
10047,GEORGIANA HOSPITAL,515 MIRANDA ST,GEORGIANA,AL,36033,BUTLER,3343762205,Acute Care Hospitals,Voluntary non-profit - Private,No,PN-4
10047,GEORGIANA HOSPITAL,515 MIRANDA ST,GEORGIANA,AL,36033,BUTLER,3343762205,Acute Care Hospitals,Voluntary non-profit - Private,No,PN-5C
10047,GEORGIANA HOSPITAL,515 MIRANDA ST,GEORGIANA,AL,36033,BUTLER,3343762205,Acute Care Hospitals,Voluntary non-profit - Private,No,PN-6
10047,GEORGIANA HOSPITAL,515 MIRANDA ST,GEORGIANA,AL,36033,BUTLER,3343762205,Acute Care Hospitals,Voluntary non-profit - Private,No,PN-7
10047,GEORGIANA HOSPITAL,515 MIRANDA ST,GEORGIANA,AL,36033,BUTLER,3343762205,Acute Care Hospitals,Voluntary non-profit - Private,No,SCIP-CARD-2
10047,GEORGIANA HOSPITAL,515 MIRANDA ST,GEORGIANA,AL,36033,BUTLER,3343762205,Acute Care Hospitals,Voluntary non-profit - Private,No,SCIP-INF-1
10047,GEORGIANA HOSPITAL,515 MIRANDA ST,GEORGIANA,AL,36033,BUTLER,3343762205,Acute Care Hospitals,Voluntary non-profit - Private,No,SCIP-INF-2
10047,GEORGIANA HOSPITAL,515 MIRANDA ST,GEORGIANA,AL,36033,BUTLER,3343762205,Acute Care Hospitals,Voluntary non-profit - Private,No,SCIP-INF-3
10047,GEORGIANA HOSPITAL,515 MIRANDA ST,GEORGIANA,AL,36033,BUTLER,3343762205,Acute Care Hospitals,Voluntary non-profit - Private,No,SCIP-INF-4
10047,GEORGIANA HOSPITAL,515 MIRANDA ST,GEORGIANA,AL,36033,BUTLER,3343762205,Acute Care Hospitals,Voluntary non-profit - Private,No,SCIP-INF-6
10047,GEORGIANA HOSPITAL,515 MIRANDA ST,GEORGIANA,AL,36033,BUTLER,3343762205,Acute Care Hospitals,Voluntary non-profit - Private,No,SCIP-VTE-1
10047,GEORGIANA HOSPITAL,515 MIRANDA ST,GEORGIANA,AL,36033,BUTLER,3343762205,Acute Care Hospitals,Voluntary non-profit - Private,No,SCIP-VTE-2
10049,MEDICAL CENTER ENTERPRISE,400 N EDWARDS STREET,ENTERPRISE,AL,36330,COFFEE,3343470584,Acute Care Hospitals,Proprietary,Yes,AMI-1
10049,MEDICAL CENTER ENTERPRISE,400 N EDWARDS STREET,ENTERPRISE,AL,36330,COFFEE,3343470584,Acute Care Hospitals,Proprietary,Yes,AMI-2
10049,MEDICAL CENTER ENTERPRISE,400 N EDWARDS STREET,ENTERPRISE,AL,36330,COFFEE,3343470584,Acute Care Hospitals,Proprietary,Yes,AMI-3
10049,MEDICAL CENTER ENTERPRISE,400 N EDWARDS STREET,ENTERPRISE,AL,36330,COFFEE,3343470584,Acute Care Hospitals,Proprietary,Yes,AMI-4
10049,MEDICAL CENTER ENTERPRISE,400 N EDWARDS STREET,ENTERPRISE,AL,36330,COFFEE,3343470584,Acute Care Hospitals,Proprietary,Yes,AMI-5
10049,MEDICAL CENTER ENTERPRISE,400 N EDWARDS STREET,ENTERPRISE,AL,36330,COFFEE,3343470584,Acute Care Hospitals,Proprietary,Yes,AMI-7A
10049,MEDICAL CENTER ENTERPRISE,400 N EDWARDS STREET,ENTERPRISE,AL,36330,COFFEE,3343470584,Acute Care Hospitals,Proprietary,Yes,AMI-8A
10049,MEDICAL CENTER ENTERPRISE,400 N EDWARDS STREET,ENTERPRISE,AL,36330,COFFEE,3343470584,Acute Care Hospitals,Proprietary,Yes,HF-1
10049,MEDICAL CENTER ENTERPRISE,400 N EDWARDS STREET,ENTERPRISE,AL,36330,COFFEE,3343470584,Acute Care Hospitals,Proprietary,Yes,HF-2
10049,MEDICAL CENTER ENTERPRISE,400 N EDWARDS STREET,ENTERPRISE,AL,36330,COFFEE,3343470584,Acute Care Hospitals,Proprietary,Yes,HF-3
10049,MEDICAL CENTER ENTERPRISE,400 N EDWARDS STREET,ENTERPRISE,AL,36330,COFFEE,3343470584,Acute Care Hospitals,Proprietary,Yes,HF-4
10049,MEDICAL CENTER ENTERPRISE,400 N EDWARDS STREET,ENTERPRISE,AL,36330,COFFEE,3343470584,Acute Care Hospitals,Proprietary,Yes,PN-2
10049,MEDICAL CENTER ENTERPRISE,400 N EDWARDS STREET,ENTERPRISE,AL,36330,COFFEE,3343470584,Acute Care Hospitals,Proprietary,Yes,PN-3B
10049,MEDICAL CENTER ENTERPRISE,400 N EDWARDS STREET,ENTERPRISE,AL,36330,COFFEE,3343470584,Acute Care Hospitals,Proprietary,Yes,PN-4
10049,MEDICAL CENTER ENTERPRISE,400 N EDWARDS STREET,ENTERPRISE,AL,36330,COFFEE,3343470584,Acute Care Hospitals,Proprietary,Yes,PN-5C
10049,MEDICAL CENTER ENTERPRISE,400 N EDWARDS STREET,ENTERPRISE,AL,36330,COFFEE,3343470584,Acute Care Hospitals,Proprietary,Yes,PN-6
10049,MEDICAL CENTER ENTERPRISE,400 N EDWARDS STREET,ENTERPRISE,AL,36330,COFFEE,3343470584,Acute Care Hospitals,Proprietary,Yes,PN-7
10049,MEDICAL CENTER ENTERPRISE,400 N EDWARDS STREET,ENTERPRISE,AL,36330,COFFEE,3343470584,Acute Care Hospitals,Proprietary,Yes,SCIP-CARD-2
10049,MEDICAL CENTER ENTERPRISE,400 N EDWARDS STREET,ENTERPRISE,AL,36330,COFFEE,3343470584,Acute Care Hospitals,Proprietary,Yes,SCIP-INF-1
10049,MEDICAL CENTER ENTERPRISE,400 N EDWARDS STREET,ENTERPRISE,AL,36330,COFFEE,3343470584,Acute Care Hospitals,Proprietary,Yes,SCIP-INF-2
10049,MEDICAL CENTER ENTERPRISE,400 N EDWARDS STREET,ENTERPRISE,AL,36330,COFFEE,3343470584,Acute Care Hospitals,Proprietary,Yes,SCIP-INF-3
10049,MEDICAL CENTER ENTERPRISE,400 N EDWARDS STREET,ENTERPRISE,AL,36330,COFFEE,3343470584,Acute Care Hospitals,Proprietary,Yes,SCIP-INF-4
10049,MEDICAL CENTER ENTERPRISE,400 N EDWARDS STREET,ENTERPRISE,AL,36330,COFFEE,3343470584,Acute Care Hospitals,Proprietary,Yes,SCIP-INF-6
10049,MEDICAL CENTER ENTERPRISE,400 N EDWARDS STREET,ENTERPRISE,AL,36330,COFFEE,3343470584,Acute Care Hospitals,Proprietary,Yes,SCIP-VTE-1
10049,MEDICAL CENTER ENTERPRISE,400 N EDWARDS STREET,ENTERPRISE,AL,36330,COFFEE,3343470584,Acute Care Hospitals,Proprietary,Yes,SCIP-VTE-2
10050,ST VINCENTS BLOUNT,150 GILBREATH DRIVE,ONEONTA,AL,35121,BLOUNT,2052743000,Acute Care Hospitals,Voluntary non-profit - Private,Yes,AMI-1
10050,ST VINCENTS BLOUNT,150 GILBREATH DRIVE,ONEONTA,AL,35121,BLOUNT,2052743000,Acute Care Hospitals,Voluntary non-profit - Private,Yes,AMI-2
10050,ST VINCENTS BLOUNT,150 GILBREATH DRIVE,ONEONTA,AL,35121,BLOUNT,2052743000,Acute Care Hospitals,Voluntary non-profit - Private,Yes,AMI-3
10050,ST VINCENTS BLOUNT,150 GILBREATH DRIVE,ONEONTA,AL,35121,BLOUNT,2052743000,Acute Care Hospitals,Voluntary non-profit - Private,Yes,AMI-4
10050,ST VINCENTS BLOUNT,150 GILBREATH DRIVE,ONEONTA,AL,35121,BLOUNT,2052743000,Acute Care Hospitals,Voluntary non-profit - Private,Yes,AMI-5
10050,ST VINCENTS BLOUNT,150 GILBREATH DRIVE,ONEONTA,AL,35121,BLOUNT,2052743000,Acute Care Hospitals,Voluntary non-profit - Private,Yes,AMI-7A
10050,ST VINCENTS BLOUNT,150 GILBREATH DRIVE,ONEONTA,AL,35121,BLOUNT,2052743000,Acute Care Hospitals,Voluntary non-profit - Private,Yes,AMI-8A
10050,ST VINCENTS BLOUNT,150 GILBREATH DRIVE,ONEONTA,AL,35121,BLOUNT,2052743000,Acute Care Hospitals,Voluntary non-profit - Private,Yes,HF-1
10050,ST VINCENTS BLOUNT,150 GILBREATH DRIVE,ONEONTA,AL,35121,BLOUNT,2052743000,Acute Care Hospitals,Voluntary non-profit - Private,Yes,HF-2
10050,ST VINCENTS BLOUNT,150 GILBREATH DRIVE,ONEONTA,AL,35121,BLOUNT,2052743000,Acute Care Hospitals,Voluntary non-profit - Private,Yes,HF-3
10050,ST VINCENTS BLOUNT,150 GILBREATH DRIVE,ONEONTA,AL,35121,BLOUNT,2052743000,Acute Care Hospitals,Voluntary non-profit - Private,Yes,HF-4
10050,ST VINCENTS BLOUNT,150 GILBREATH DRIVE,ONEONTA,AL,35121,BLOUNT,2052743000,Acute Care Hospitals,Voluntary non-profit - Private,Yes,PN-2
10050,ST VINCENTS BLOUNT,150 GILBREATH DRIVE,ONEONTA,AL,35121,BLOUNT,2052743000,Acute Care Hospitals,Voluntary non-profit - Private,Yes,PN-3B
10050,ST VINCENTS BLOUNT,150 GILBREATH DRIVE,ONEONTA,AL,35121,BLOUNT,2052743000,Acute Care Hospitals,Voluntary non-profit - Private,Yes,PN-4
10050,ST VINCENTS BLOUNT,150 GILBREATH DRIVE,ONEONTA,AL,35121,BLOUNT,2052743000,Acute Care Hospitals,Voluntary non-profit - Private,Yes,PN-5C
10050,ST VINCENTS BLOUNT,150 GILBREATH DRIVE,ONEONTA,AL,35121,BLOUNT,2052743000,Acute Care Hospitals,Voluntary non-profit - Private,Yes,PN-6
10050,ST VINCENTS BLOUNT,150 GILBREATH DRIVE,ONEONTA,AL,35121,BLOUNT,2052743000,Acute Care Hospitals,Voluntary non-profit - Private,Yes,PN-7
10050,ST VINCENTS BLOUNT,150 GILBREATH DRIVE,ONEONTA,AL,35121,BLOUNT,2052743000,Acute Care Hospitals,Voluntary non-profit - Private,Yes,SCIP-CARD-2
10050,ST VINCENTS BLOUNT,150 GILBREATH DRIVE,ONEONTA,AL,35121,BLOUNT,2052743000,Acute Care Hospitals,Voluntary non-profit - Private,Yes,SCIP-INF-1
10050,ST VINCENTS BLOUNT,150 GILBREATH DRIVE,ONEONTA,AL,35121,BLOUNT,2052743000,Acute Care Hospitals,Voluntary non-profit - Private,Yes,SCIP-INF-2